{"type":"FeatureCollection","_source":{"feed":"https://s3.ap-southeast-2.amazonaws.com/dmzweb.adelaidecitycouncil.com/OpenData/Outdoor_Dining/Outdoor_Dining_Permits.csv","dataset":"https://data.sa.gov.au/data/dataset/outdoor-dining-permits","publisher":"City of Adelaide","licence":"CC BY","downloaded":"2026-09-28","kept":"every permit but those still being assessed; trading name only","geocoder":"City of Adelaide property boundaries (data.sa.gov.au property-boundaries, CC BY), parcel centre by street number; else OpenStreetMap Nominatim (ODbL), house-number matches in the same postcode only","refresh":"by hand, when the feed changes"},"features":[{"type":"Feature","geometry":{"type":"Point","coordinates":[138.606503,-34.930889]},"properties":{"name":"LE RIAD RESTAURANT","kind":"TERRASSE"}},{"type":"Feature","geometry":{"type":"Point","coordinates":[138.609627,-34.923693]},"properties":{"name":"EAST END YIROS","kind":"TERRASSE"}},{"type":"Feature","geometry":{"type":"Point","coordinates":[138.597288,-34.923618]},"properties":{"name":"POISSON TRES BON","kind":"TERRASSE"}},{"type":"Feature","geometry":{"type":"Point","coordinates":[138.600496,-34.930888]},"properties":{"name":"BORSCH CAFE","kind":"TERRASSE"}},{"type":"Feature","geometry":{"type":"Point","coordinates":[138.597237,-34.931916]},"properties":{"name":"HOTEL WRIGHT STREET","kind":"TERRASSE"}},{"type":"Feature","geometry":{"type":"Point","coordinates":[138.603211,-34.932945]},"properties":{"name":"GREEK ON HALIFAX","kind":"TERRASSE"}},{"type":"Feature","geometry":{"type":"Point","coordinates":[138.595216,-34.923477]},"properties":{"name":"PALACE - RED SQUARE","kind":"TERRASSE"}},{"type":"Feature","geometry":{"type":"Point","coordinates":[138.604609,-34.924899]},"properties":{"name":"PACIFIC SUITES ADELAIDE P/L","kind":"TERRASSE"}},{"type":"Feature","geometry":{"type":"Point","coordinates":[138.612613,-34.931056]},"properties":{"name":"GENERAL HAVELOCK HOTEL","kind":"TERRASSE"}},{"type":"Feature","geometry":{"type":"Point","coordinates":[138.612853,-34.93393]},"properties":{"name":"KENJI MODERN JAPANESE","kind":"TERRASSE"}},{"type":"Feature","geometry":{"type":"Point","coordinates":[138.596234,-34.923438]},"properties":{"name":"EMPIRE SHISHA BAR","kind":"TERRASSE"}},{"type":"Feature","geometry":{"type":"Point","coordinates":[138.606261,-34.907875]},"properties":{"name":"THE STORE 157","kind":"TERRASSE"}},{"type":"Feature","geometry":{"type":"Point","coordinates":[138.605747,-34.908415]},"properties":{"name":"THE LION HOTEL","kind":"TERRASSE"}},{"type":"Feature","geometry":{"type":"Point","coordinates":[138.611854,-34.931326]},"properties":{"name":"GOODLIFE MODERN ORGANIC PIZZA - HUTT ST","kind":"TERRASSE"}},{"type":"Feature","geometry":{"type":"Point","coordinates":[138.597756,-34.929421]},"properties":{"name":"ZUMA CAFE","kind":"TERRASSE"}},{"type":"Feature","geometry":{"type":"Point","coordinates":[138.608152,-34.906845]},"properties":{"name":"MEDITERRANEAN MEZZA","kind":"TERRASSE"}},{"type":"Feature","geometry":{"type":"Point","coordinates":[138.609922,-34.92226]},"properties":{"name":"GELATISSIMO - RUNDLE STREET","kind":"TERRASSE"}},{"type":"Feature","geometry":{"type":"Point","coordinates":[138.597302,-34.90751]},"properties":{"name":"PINK PIG","kind":"TERRASSE"}},{"type":"Feature","geometry":{"type":"Point","coordinates":[138.596139,-34.930557]},"properties":{"name":"WAH HING RESTAURANT","kind":"TERRASSE"}},{"type":"Feature","geometry":{"type":"Point","coordinates":[138.602612,-34.924538]},"properties":{"name":"PERFECT CUP","kind":"TERRASSE"}},{"type":"Feature","geometry":{"type":"Point","coordinates":[138.609551,-34.923004]},"properties":{"name":"NANO READY TO GO","kind":"TERRASSE"}},{"type":"Feature","geometry":{"type":"Point","coordinates":[138.595067,-34.90694]},"properties":{"name":"CAFFE PAESANO","kind":"TERRASSE"}},{"type":"Feature","geometry":{"type":"Point","coordinates":[138.589184,-34.923219]},"properties":{"name":"MARCELLINA & BEBES ROOM PIZZA BAR","kind":"TERRASSE"}},{"type":"Feature","geometry":{"type":"Point","coordinates":[138.610503,-34.921789]},"properties":{"name":"PJ O'BRIENS","kind":"TERRASSE"}},{"type":"Feature","geometry":{"type":"Point","coordinates":[138.596418,-34.924142]},"properties":{"name":"83 ON CURRIE","kind":"TERRASSE"}},{"type":"Feature","geometry":{"type":"Point","coordinates":[138.597756,-34.929421]},"properties":{"name":"PASSATEMPO","kind":"TERRASSE"}},{"type":"Feature","geometry":{"type":"Point","coordinates":[138.606127,-34.934148]},"properties":{"name":"SCOOTZ","kind":"TERRASSE"}},{"type":"Feature","geometry":{"type":"Point","coordinates":[138.594704,-34.930112]},"properties":{"name":"LITTLE NNQ","kind":"TERRASSE"}},{"type":"Feature","geometry":{"type":"Point","coordinates":[138.598994,-34.9122]},"properties":{"name":"CATHEDRAL HOTEL","kind":"TERRASSE"}},{"type":"Feature","geometry":{"type":"Point","coordinates":[138.605884,-34.923203]},"properties":{"name":"DELI ON PULTENEY","kind":"TERRASSE"}},{"type":"Feature","geometry":{"type":"Point","coordinates":[138.603431,-34.928055]},"properties":{"name":"WAKEFIELD HOTEL","kind":"TERRASSE"}},{"type":"Feature","geometry":{"type":"Point","coordinates":[138.595256,-34.903535]},"properties":{"name":"CAFE PALAZZO NORTH ADELAIDE","kind":"TERRASSE"}},{"type":"Feature","geometry":{"type":"Point","coordinates":[138.611839,-34.930727]},"properties":{"name":"BAR TORINO","kind":"TERRASSE"}},{"type":"Feature","geometry":{"type":"Point","coordinates":[138.595054,-34.930612]},"properties":{"name":"YING CHOW RESTAURANT","kind":"TERRASSE"}},{"type":"Feature","geometry":{"type":"Point","coordinates":[138.607802,-34.929989]},"properties":{"name":"ADELAIDE CITY SNACK BAR","kind":"TERRASSE"}},{"type":"Feature","geometry":{"type":"Point","coordinates":[138.597257,-34.925591]},"properties":{"name":"IT'S CONVENIENT - WAYMOUTH ST","kind":"TERRASSE"}},{"type":"Feature","geometry":{"type":"Point","coordinates":[138.594704,-34.930112]},"properties":{"name":"TIGRIS TAKEAWAY","kind":"TERRASSE"}},{"type":"Feature","geometry":{"type":"Point","coordinates":[138.610447,-34.923389]},"properties":{"name":"MUNOOSHI","kind":"TERRASSE"}},{"type":"Feature","geometry":{"type":"Point","coordinates":[138.59751,-34.922652]},"properties":{"name":"CIBO ESPRESSO - HINDLEY/BANK ST","kind":"TERRASSE"}},{"type":"Feature","geometry":{"type":"Point","coordinates":[138.594885,-34.924885]},"properties":{"name":"BLUE BIRD COFFEE LOUNGE","kind":"TERRASSE"}},{"type":"Feature","geometry":{"type":"Point","coordinates":[138.594295,-34.930131]},"properties":{"name":"CONCUBINE","kind":"TERRASSE"}},{"type":"Feature","geometry":{"type":"Point","coordinates":[138.596224,-34.93]},"properties":{"name":"BBQ CITY RESTAURANT","kind":"TERRASSE"}},{"type":"Feature","geometry":{"type":"Point","coordinates":[138.599365,-34.926024]},"properties":{"name":"GEORGES ON WAYMOUTH","kind":"TERRASSE"}},{"type":"Feature","geometry":{"type":"Point","coordinates":[138.590698,-34.92664]},"properties":{"name":"WAYMOUTH CAFE","kind":"TERRASSE"}},{"type":"Feature","geometry":{"type":"Point","coordinates":[138.607742,-34.922782]},"properties":{"name":"SAN GIORGIO PIZZERIA","kind":"TERRASSE"}},{"type":"Feature","geometry":{"type":"Point","coordinates":[138.61278,-34.933351]},"properties":{"name":"LATTE ON HUTT P/L","kind":"TERRASSE"}},{"type":"Feature","geometry":{"type":"Point","coordinates":[138.609003,-34.906546]},"properties":{"name":"LORD MELBOURNE HOTEL","kind":"TERRASSE"}},{"type":"Feature","geometry":{"type":"Point","coordinates":[138.593944,-34.906014]},"properties":{"name":"DANIEL O'CONNELL HOTEL","kind":"TERRASSE"}},{"type":"Feature","geometry":{"type":"Point","coordinates":[138.599365,-34.926024]},"properties":{"name":"BAKMI LIM NOODLE PROJECT","kind":"TERRASSE"}},{"type":"Feature","geometry":{"type":"Point","coordinates":[138.60213,-34.922376]},"properties":{"name":"MONDAY'S COFFEE STORE","kind":"TERRASSE"}},{"type":"Feature","geometry":{"type":"Point","coordinates":[138.59909,-34.922622]},"properties":{"name":"QUICK CONVENIENCE","kind":"TERRASSE"}},{"type":"Feature","geometry":{"type":"Point","coordinates":[138.596883,-34.907941]},"properties":{"name":"INN OUT BBQ","kind":"TERRASSE"}},{"type":"Feature","geometry":{"type":"Point","coordinates":[138.597288,-34.923618]},"properties":{"name":"BOLLYWOOD INDIAN RESTAURANT","kind":"TERRASSE"}},{"type":"Feature","geometry":{"type":"Point","coordinates":[138.599126,-34.925361]},"properties":{"name":"AMBASSADORS KW P/L","kind":"TERRASSE"}},{"type":"Feature","geometry":{"type":"Point","coordinates":[138.608749,-34.922295]},"properties":{"name":"EXETER HOTEL","kind":"TERRASSE"}},{"type":"Feature","geometry":{"type":"Point","coordinates":[138.612625,-34.931387]},"properties":{"name":"WOKS HAPPENING P/L","kind":"TERRASSE"}},{"type":"Feature","geometry":{"type":"Point","coordinates":[138.58962,-34.933166]},"properties":{"name":"STURT STREET SNACK BAR","kind":"TERRASSE"}},{"type":"Feature","geometry":{"type":"Point","coordinates":[138.610357,-34.922631]},"properties":{"name":"SOSTA ARGENTINIAN KITCHEN","kind":"TERRASSE"}},{"type":"Feature","geometry":{"type":"Point","coordinates":[138.612643,-34.931461]},"properties":{"name":"QUEEN OF TARTS","kind":"TERRASSE"}},{"type":"Feature","geometry":{"type":"Point","coordinates":[138.597734,-34.922198]},"properties":{"name":"PARLAMENTO P/L","kind":"TERRASSE"}},{"type":"Feature","geometry":{"type":"Point","coordinates":[138.596201,-34.92212]},"properties":{"name":"THE SEBEL PLAYFORD","kind":"TERRASSE"}},{"type":"Feature","geometry":{"type":"Point","coordinates":[138.61278,-34.933351]},"properties":{"name":"BUENOS AIRES BRASSERIE","kind":"TERRASSE"}},{"type":"Feature","geometry":{"type":"Point","coordinates":[138.592739,-34.907569]},"properties":{"name":"WELLINGTON HOTEL","kind":"TERRASSE"}},{"type":"Feature","geometry":{"type":"Point","coordinates":[138.592945,-34.930019]},"properties":{"name":"SEN ADELAIDE P/L","kind":"TERRASSE"}},{"type":"Feature","geometry":{"type":"Point","coordinates":[138.612672,-34.930738]},"properties":{"name":"CHIANTI CLASSICO","kind":"TERRASSE"}},{"type":"Feature","geometry":{"type":"Point","coordinates":[138.595333,-34.929936]},"properties":{"name":"CHANAY THAI FUSION","kind":"TERRASSE"}},{"type":"Feature","geometry":{"type":"Point","coordinates":[138.599814,-34.932644]},"properties":{"name":"KINGS HEAD HOTEL","kind":"TERRASSE"}},{"type":"Feature","geometry":{"type":"Point","coordinates":[138.595409,-34.90583]},"properties":{"name":"FELLINI CAFE","kind":"TERRASSE"}},{"type":"Feature","geometry":{"type":"Point","coordinates":[138.598518,-34.912123]},"properties":{"name":"CATHEDRAL DELICATESSEN","kind":"TERRASSE"}},{"type":"Feature","geometry":{"type":"Point","coordinates":[138.592945,-34.930019]},"properties":{"name":"SEN ADELAIDE P/L","kind":"TERRASSE"}},{"type":"Feature","geometry":{"type":"Point","coordinates":[138.595984,-34.929168]},"properties":{"name":"DUMPLING KING","kind":"TERRASSE"}},{"type":"Feature","geometry":{"type":"Point","coordinates":[138.596763,-34.930493]},"properties":{"name":"STAR OF SIAM","kind":"TERRASSE"}},{"type":"Feature","geometry":{"type":"Point","coordinates":[138.595636,-34.930061]},"properties":{"name":"BA GUO BUYI","kind":"TERRASSE"}},{"type":"Feature","geometry":{"type":"Point","coordinates":[138.602162,-34.923886]},"properties":{"name":"ADELAIDE COFFEE BAR","kind":"TERRASSE"}},{"type":"Feature","geometry":{"type":"Point","coordinates":[138.598572,-34.922621]},"properties":{"name":"JACKPOTS ON HINDLEY","kind":"TERRASSE"}},{"type":"Feature","geometry":{"type":"Point","coordinates":[138.607354,-34.922821]},"properties":{"name":"AUSTRAL HOTEL","kind":"TERRASSE"}},{"type":"Feature","geometry":{"type":"Point","coordinates":[138.595645,-34.906474]},"properties":{"name":"MARRAKECH RESTAURANT","kind":"TERRASSE"}},{"type":"Feature","geometry":{"type":"Point","coordinates":[138.61262,-34.931321]},"properties":{"name":"ZECCA BAR","kind":"TERRASSE"}},{"type":"Feature","geometry":{"type":"Point","coordinates":[138.594218,-34.928124]},"properties":{"name":"TO'S LUNCH BAR","kind":"TERRASSE"}},{"type":"Feature","geometry":{"type":"Point","coordinates":[138.59192,-34.923685]},"properties":{"name":"PHAT COFFEE","kind":"TERRASSE"}},{"type":"Feature","geometry":{"type":"Point","coordinates":[138.590525,-34.905554]},"properties":{"name":"THE FLYING FIG","kind":"TERRASSE"}},{"type":"Feature","geometry":{"type":"Point","coordinates":[138.590698,-34.92664]},"properties":{"name":"GRACE EMILY HOTEL","kind":"TERRASSE"}},{"type":"Feature","geometry":{"type":"Point","coordinates":[138.592153,-34.934936]},"properties":{"name":"PADDY'S LANTERN","kind":"TERRASSE"}},{"type":"Feature","geometry":{"type":"Point","coordinates":[138.604011,-34.922029]},"properties":{"name":"GRAB N GO","kind":"TERRASSE"}},{"type":"Feature","geometry":{"type":"Point","coordinates":[138.609983,-34.92224]},"properties":{"name":"NINH KIEU MEKONG VIETNAMESE RESTAURANT","kind":"TERRASSE"}},{"type":"Feature","geometry":{"type":"Point","coordinates":[138.611047,-34.926821]},"properties":{"name":"XPRESSO ON FLINDERS","kind":"TERRASSE"}},{"type":"Feature","geometry":{"type":"Point","coordinates":[138.606503,-34.930889]},"properties":{"name":"SASS CAFE & TAKEAWAY","kind":"TERRASSE"}},{"type":"Feature","geometry":{"type":"Point","coordinates":[138.601637,-34.924879]},"properties":{"name":"TASTE OF ASIA","kind":"TERRASSE"}},{"type":"Feature","geometry":{"type":"Point","coordinates":[138.606512,-34.931006]},"properties":{"name":"EARL OF ABERDEEN","kind":"TERRASSE"}},{"type":"Feature","geometry":{"type":"Point","coordinates":[138.610203,-34.922666]},"properties":{"name":"CHOPSTIX ON RUNDLE","kind":"TERRASSE"}},{"type":"Feature","geometry":{"type":"Point","coordinates":[138.611522,-34.928407]},"properties":{"name":"BOCELLI CAFFE RISTORANTE","kind":"TERRASSE"}},{"type":"Feature","geometry":{"type":"Point","coordinates":[138.598818,-34.923266]},"properties":{"name":"PARINGA HOLDINGS P/L","kind":"TERRASSE"}},{"type":"Feature","geometry":{"type":"Point","coordinates":[138.590491,-34.932352]},"properties":{"name":"PRINCE ALBERT HOTEL","kind":"TERRASSE"}},{"type":"Feature","geometry":{"type":"Point","coordinates":[138.595081,-34.922791]},"properties":{"name":"DOG N DUCK ON HINDLEY P/L","kind":"TERRASSE"}},{"type":"Feature","geometry":{"type":"Point","coordinates":[138.598854,-34.92277]},"properties":{"name":"GLORIA JEANS COFFEES - HINDLEY ST","kind":"TERRASSE"}},{"type":"Feature","geometry":{"type":"Point","coordinates":[138.596494,-34.934158]},"properties":{"name":"CAFE 105","kind":"TERRASSE"}},{"type":"Feature","geometry":{"type":"Point","coordinates":[138.591023,-34.933622]},"properties":{"name":"LADLE OF LOVE","kind":"TERRASSE"}},{"type":"Feature","geometry":{"type":"Point","coordinates":[138.609141,-34.922288]},"properties":{"name":"THE ORIGINAL YIROS HOUSE","kind":"TERRASSE"}},{"type":"Feature","geometry":{"type":"Point","coordinates":[138.601787,-34.925891]},"properties":{"name":"TASTE ON PIRIE","kind":"TERRASSE"}},{"type":"Feature","geometry":{"type":"Point","coordinates":[138.598356,-34.905604]},"properties":{"name":"CAFFETECA","kind":"TERRASSE"}},{"type":"Feature","geometry":{"type":"Point","coordinates":[138.597288,-34.923618]},"properties":{"name":"COS 18 LEIGH","kind":"TERRASSE"}},{"type":"Feature","geometry":{"type":"Point","coordinates":[138.596515,-34.92333]},"properties":{"name":"THAI LUCKY BELL","kind":"TERRASSE"}},{"type":"Feature","geometry":{"type":"Point","coordinates":[138.61012,-34.922225]},"properties":{"name":"DISTILL ON RUNDLE","kind":"TERRASSE"}},{"type":"Feature","geometry":{"type":"Point","coordinates":[138.603458,-34.925307]},"properties":{"name":"CIBO ESPRESSO - PIRIE ST","kind":"TERRASSE"}},{"type":"Feature","geometry":{"type":"Point","coordinates":[138.597208,-34.926384]},"properties":{"name":"FUNK COFFEE & FOOD - WAYMOUTH ST","kind":"TERRASSE"}},{"type":"Feature","geometry":{"type":"Point","coordinates":[138.598572,-34.922621]},"properties":{"name":"BURP KILLER BURRITOS - HINDLEY ST","kind":"TERRASSE"}},{"type":"Feature","geometry":{"type":"Point","coordinates":[138.592835,-34.92358]},"properties":{"name":"PHONATIC","kind":"TERRASSE"}},{"type":"Feature","geometry":{"type":"Point","coordinates":[138.600046,-34.925384]},"properties":{"name":"LUNCH ON KING WILLIAM","kind":"TERRASSE"}},{"type":"Feature","geometry":{"type":"Point","coordinates":[138.596558,-34.924886]},"properties":{"name":"CAFE CULTURE","kind":"TERRASSE"}},{"type":"Feature","geometry":{"type":"Point","coordinates":[138.607176,-34.922315]},"properties":{"name":"CAFE MICHAEL 2","kind":"TERRASSE"}},{"type":"Feature","geometry":{"type":"Point","coordinates":[138.597756,-34.929421]},"properties":{"name":"HOT & SPICY KITCHEN","kind":"TERRASSE"}},{"type":"Feature","geometry":{"type":"Point","coordinates":[138.599954,-34.934527]},"properties":{"name":"BRECKNOCK HOTEL","kind":"TERRASSE"}},{"type":"Feature","geometry":{"type":"Point","coordinates":[138.59635,-34.930034]},"properties":{"name":"PAUL'S RESTAURANT","kind":"TERRASSE"}},{"type":"Feature","geometry":{"type":"Point","coordinates":[138.595054,-34.930612]},"properties":{"name":"EAST TASTE CAFE","kind":"TERRASSE"}},{"type":"Feature","geometry":{"type":"Point","coordinates":[138.610686,-34.929304]},"properties":{"name":"LUNCH ON ANGAS","kind":"TERRASSE"}},{"type":"Feature","geometry":{"type":"Point","coordinates":[138.605225,-34.9221]},"properties":{"name":"KNOODLE JUNCTION","kind":"TERRASSE"}},{"type":"Feature","geometry":{"type":"Point","coordinates":[138.608492,-34.92422]},"properties":{"name":"CROWN & ANCHOR HOTEL","kind":"TERRASSE"}},{"type":"Feature","geometry":{"type":"Point","coordinates":[138.608021,-34.930022]},"properties":{"name":"SEVEN STARS HOTEL","kind":"TERRASSE"}},{"type":"Feature","geometry":{"type":"Point","coordinates":[138.595037,-34.905229]},"properties":{"name":"ROYAL OAK HOTEL","kind":"TERRASSE"}},{"type":"Feature","geometry":{"type":"Point","coordinates":[138.60239,-34.926654]},"properties":{"name":"KAPPY'S CAFE TEA & COFFEE HOUSE","kind":"TERRASSE"}},{"type":"Feature","geometry":{"type":"Point","coordinates":[138.60633,-34.907274]},"properties":{"name":"BONONIA GELATO","kind":"TERRASSE"}},{"type":"Feature","geometry":{"type":"Point","coordinates":[138.604451,-34.927215]},"properties":{"name":"WASABI JAPENESE RESTAURANT","kind":"TERRASSE"}},{"type":"Feature","geometry":{"type":"Point","coordinates":[138.599814,-34.932644]},"properties":{"name":"VEGGO SIZZLE P/L","kind":"TERRASSE"}},{"type":"Feature","geometry":{"type":"Point","coordinates":[138.595054,-34.930612]},"properties":{"name":"PAPPARICH","kind":"TERRASSE"}},{"type":"Feature","geometry":{"type":"Point","coordinates":[138.61057,-34.921399]},"properties":{"name":"AFRICOLA","kind":"TERRASSE"}},{"type":"Feature","geometry":{"type":"Point","coordinates":[138.599945,-34.933583]},"properties":{"name":"SOCIETY ESPRESSO","kind":"TERRASSE"}},{"type":"Feature","geometry":{"type":"Point","coordinates":[138.606152,-34.922113]},"properties":{"name":"BING BOY - RUNDLE ST","kind":"TERRASSE"}},{"type":"Feature","geometry":{"type":"Point","coordinates":[138.604004,-34.925374]},"properties":{"name":"OFFICE ON PIRIE","kind":"TERRASSE"}},{"type":"Feature","geometry":{"type":"Point","coordinates":[138.596048,-34.929971]},"properties":{"name":"SZECHUAN VALLEY","kind":"TERRASSE"}},{"type":"Feature","geometry":{"type":"Point","coordinates":[138.606776,-34.933569]},"properties":{"name":"ASTOR HOTEL","kind":"TERRASSE"}},{"type":"Feature","geometry":{"type":"Point","coordinates":[138.609612,-34.922287]},"properties":{"name":"SCOOZI CAFE-BAR","kind":"TERRASSE"}},{"type":"Feature","geometry":{"type":"Point","coordinates":[138.599854,-34.932349]},"properties":{"name":"LA TRATTORIA","kind":"TERRASSE"}},{"type":"Feature","geometry":{"type":"Point","coordinates":[138.607582,-34.907155]},"properties":{"name":"FIRST POUR","kind":"TERRASSE"}},{"type":"Feature","geometry":{"type":"Point","coordinates":[138.610197,-34.92275]},"properties":{"name":"THE TASTING ROOM","kind":"TERRASSE"}},{"type":"Feature","geometry":{"type":"Point","coordinates":[138.609909,-34.922681]},"properties":{"name":"IBERIA","kind":"TERRASSE"}},{"type":"Feature","geometry":{"type":"Point","coordinates":[138.606152,-34.922113]},"properties":{"name":"SUBWAY - RUNDLE ST","kind":"TERRASSE"}},{"type":"Feature","geometry":{"type":"Point","coordinates":[138.605884,-34.923203]},"properties":{"name":"SOI 38 THAI STREET FOOD","kind":"TERRASSE"}},{"type":"Feature","geometry":{"type":"Point","coordinates":[138.592099,-34.925875]},"properties":{"name":"CUMBERLAND ARMS HOTEL","kind":"TERRASSE"}},{"type":"Feature","geometry":{"type":"Point","coordinates":[138.610115,-34.92264]},"properties":{"name":"STREET ADL","kind":"TERRASSE"}},{"type":"Feature","geometry":{"type":"Point","coordinates":[138.596904,-34.907424]},"properties":{"name":"ARCHER HOTEL","kind":"TERRASSE"}},{"type":"Feature","geometry":{"type":"Point","coordinates":[138.589872,-34.923787]},"properties":{"name":"YIANNIS ON HINDLEY","kind":"TERRASSE"}},{"type":"Feature","geometry":{"type":"Point","coordinates":[138.597756,-34.929421]},"properties":{"name":"CIBO ESPRESSO - GOUGER ST","kind":"TERRASSE"}},{"type":"Feature","geometry":{"type":"Point","coordinates":[138.601296,-34.930465]},"properties":{"name":"QC ON ANGAS","kind":"TERRASSE"}},{"type":"Feature","geometry":{"type":"Point","coordinates":[138.602735,-34.927262]},"properties":{"name":"MYLK BAR","kind":"TERRASSE"}},{"type":"Feature","geometry":{"type":"Point","coordinates":[138.608083,-34.922759]},"properties":{"name":"DANIEL'S LICENSED RESTAURANT","kind":"TERRASSE"}},{"type":"Feature","geometry":{"type":"Point","coordinates":[138.606698,-34.907105]},"properties":{"name":"MONSOON INDIAN RESTAURANT","kind":"TERRASSE"}},{"type":"Feature","geometry":{"type":"Point","coordinates":[138.606698,-34.907105]},"properties":{"name":"MONSOON INDIAN RESTAURANT","kind":"TERRASSE"}},{"type":"Feature","geometry":{"type":"Point","coordinates":[138.610379,-34.922339]},"properties":{"name":"CHOCOLATERIA SAN CHURRO - RUNDLE STREET","kind":"TERRASSE"}},{"type":"Feature","geometry":{"type":"Point","coordinates":[138.59413,-34.902247]},"properties":{"name":"CALEDONIAN HOTEL","kind":"TERRASSE"}},{"type":"Feature","geometry":{"type":"Point","coordinates":[138.599102,-34.922778]},"properties":{"name":"WOK IN A BOX - KING WILLIAM ST","kind":"TERRASSE"}},{"type":"Feature","geometry":{"type":"Point","coordinates":[138.597145,-34.923607]},"properties":{"name":"AFGHAN CHARCOAL KEBAB HOUSE","kind":"TERRASSE"}},{"type":"Feature","geometry":{"type":"Point","coordinates":[138.595647,-34.929927]},"properties":{"name":"SUZUKI SUSHI","kind":"TERRASSE"}},{"type":"Feature","geometry":{"type":"Point","coordinates":[138.598754,-34.923622]},"properties":{"name":"HAINS & CO","kind":"TERRASSE"}},{"type":"Feature","geometry":{"type":"Point","coordinates":[138.596008,-34.905548]},"properties":{"name":"BURGER IT P/L","kind":"TERRASSE"}},{"type":"Feature","geometry":{"type":"Point","coordinates":[138.597408,-34.928424]},"properties":{"name":"EDO SUSHI ADELAIDE P/L","kind":"TERRASSE"}},{"type":"Feature","geometry":{"type":"Point","coordinates":[138.598204,-34.923506]},"properties":{"name":"PEEL STREET RESTAURANT","kind":"TERRASSE"}},{"type":"Feature","geometry":{"type":"Point","coordinates":[138.607632,-34.922371]},"properties":{"name":"ZAMBRERO - RUNDLE ST","kind":"TERRASSE"}},{"type":"Feature","geometry":{"type":"Point","coordinates":[138.597336,-34.923855]},"properties":{"name":"ASPECTS OF HEALING P/L","kind":"TERRASSE"}},{"type":"Feature","geometry":{"type":"Point","coordinates":[138.607632,-34.922371]},"properties":{"name":"TASTE BAGUETTE - RUNDLE ST","kind":"TERRASSE"}},{"type":"Feature","geometry":{"type":"Point","coordinates":[138.600782,-34.924667]},"properties":{"name":"TURI CAFFE E BAR","kind":"TERRASSE"}},{"type":"Feature","geometry":{"type":"Point","coordinates":[138.600782,-34.924667]},"properties":{"name":"BORSA CUCINA PASTA","kind":"TERRASSE"}},{"type":"Feature","geometry":{"type":"Point","coordinates":[138.595724,-34.930653]},"properties":{"name":"GYOZA GYOZA","kind":"TERRASSE"}},{"type":"Feature","geometry":{"type":"Point","coordinates":[138.603254,-34.926394]},"properties":{"name":"FUNK COFFEE & FOOD - FLINDERS ST","kind":"TERRASSE"}},{"type":"Feature","geometry":{"type":"Point","coordinates":[138.596883,-34.907941]},"properties":{"name":"BLACK EYE COFFEE","kind":"TERRASSE"}},{"type":"Feature","geometry":{"type":"Point","coordinates":[138.599102,-34.922778]},"properties":{"name":"HUDSON COFFEE - HINDLEY STREET","kind":"TERRASSE"}},{"type":"Feature","geometry":{"type":"Point","coordinates":[138.59595,-34.922781]},"properties":{"name":"WOOLSHED ON HINDLEY","kind":"TERRASSE"}},{"type":"Feature","geometry":{"type":"Point","coordinates":[138.596361,-34.929927]},"properties":{"name":"KRISPY KREME - GOUGER STREET","kind":"TERRASSE"}},{"type":"Feature","geometry":{"type":"Point","coordinates":[138.595081,-34.922932]},"properties":{"name":"THE APOTHECARY 1878","kind":"TERRASSE"}},{"type":"Feature","geometry":{"type":"Point","coordinates":[138.610477,-34.922072]},"properties":{"name":"OYSTER BAR","kind":"TERRASSE"}},{"type":"Feature","geometry":{"type":"Point","coordinates":[138.596289,-34.92828]},"properties":{"name":"HONG FAT BBQ RESTAURANT","kind":"TERRASSE"}},{"type":"Feature","geometry":{"type":"Point","coordinates":[138.595256,-34.903535]},"properties":{"name":"BEYOND INDIA","kind":"TERRASSE"}},{"type":"Feature","geometry":{"type":"Point","coordinates":[138.594295,-34.930131]},"properties":{"name":"MEXICAN SOCIETY OF CHINATOWN","kind":"TERRASSE"}},{"type":"Feature","geometry":{"type":"Point","coordinates":[138.597756,-34.929421]},"properties":{"name":"KY CHOW RESTAURANT","kind":"TERRASSE"}},{"type":"Feature","geometry":{"type":"Point","coordinates":[138.598572,-34.922621]},"properties":{"name":"SUBWAY - HINDLEY ST","kind":"TERRASSE"}},{"type":"Feature","geometry":{"type":"Point","coordinates":[138.60828,-34.924341]},"properties":{"name":"ANDRE'S CUCINA & POLENTA BAR","kind":"TERRASSE"}},{"type":"Feature","geometry":{"type":"Point","coordinates":[138.596487,-34.911771]},"properties":{"name":"QUEENS HEAD HOTEL","kind":"TERRASSE"}},{"type":"Feature","geometry":{"type":"Point","coordinates":[138.595081,-34.922791]},"properties":{"name":"ROTANA SHEESHA","kind":"TERRASSE"}},{"type":"Feature","geometry":{"type":"Point","coordinates":[138.601393,-34.927874]},"properties":{"name":"DELISH ESPRESSO","kind":"TERRASSE"}},{"type":"Feature","geometry":{"type":"Point","coordinates":[138.595593,-34.922952]},"properties":{"name":"PIZZA REV","kind":"TERRASSE"}},{"type":"Feature","geometry":{"type":"Point","coordinates":[138.598201,-34.928405]},"properties":{"name":"RAMEN & IZAKAYA HIMEJI","kind":"TERRASSE"}},{"type":"Feature","geometry":{"type":"Point","coordinates":[138.596241,-34.907901]},"properties":{"name":"BLUE & WHITE CAFE","kind":"TERRASSE"}},{"type":"Feature","geometry":{"type":"Point","coordinates":[138.59617,-34.907703]},"properties":{"name":"NORTH ADELAIDE BURGER BAR","kind":"TERRASSE"}},{"type":"Feature","geometry":{"type":"Point","coordinates":[138.594704,-34.930112]},"properties":{"name":"BAR ON GOUGER","kind":"TERRASSE"}},{"type":"Feature","geometry":{"type":"Point","coordinates":[138.595216,-34.923477]},"properties":{"name":"SNAG IN A BAG","kind":"TERRASSE"}},{"type":"Feature","geometry":{"type":"Point","coordinates":[138.608988,-34.923109]},"properties":{"name":"SAD CAFE","kind":"TERRASSE"}},{"type":"Feature","geometry":{"type":"Point","coordinates":[138.596904,-34.907424]},"properties":{"name":"CIBO ESPRESSO - 59 O'CONNELL ST","kind":"TERRASSE"}},{"type":"Feature","geometry":{"type":"Point","coordinates":[138.596224,-34.93]},"properties":{"name":"DIM WELL CAFE","kind":"TERRASSE"}},{"type":"Feature","geometry":{"type":"Point","coordinates":[138.592846,-34.932739]},"properties":{"name":"BAR 9","kind":"TERRASSE"}},{"type":"Feature","geometry":{"type":"Point","coordinates":[138.59627,-34.930603]},"properties":{"name":"DRAGON COURT","kind":"TERRASSE"}},{"type":"Feature","geometry":{"type":"Point","coordinates":[138.610377,-34.934032]},"properties":{"name":"FAWN CAFE","kind":"TERRASSE"}},{"type":"Feature","geometry":{"type":"Point","coordinates":[138.602956,-34.92728]},"properties":{"name":"INSIEME RISTORANTE","kind":"TERRASSE"}},{"type":"Feature","geometry":{"type":"Point","coordinates":[138.602956,-34.92728]},"properties":{"name":"INSIEME RISTORANTE","kind":"TERRASSE"}},{"type":"Feature","geometry":{"type":"Point","coordinates":[138.606731,-34.934219]},"properties":{"name":"INDIAN DELIGHTS","kind":"TERRASSE"}},{"type":"Feature","geometry":{"type":"Point","coordinates":[138.597756,-34.929421]},"properties":{"name":"CHOCOLATERIA SAN CHURRO - GOUGER STREET","kind":"TERRASSE"}},{"type":"Feature","geometry":{"type":"Point","coordinates":[138.600782,-34.924667]},"properties":{"name":"BANH MI - VIETNAMESE ROLLS","kind":"TERRASSE"}},{"type":"Feature","geometry":{"type":"Point","coordinates":[138.602652,-34.925352]},"properties":{"name":"OSTERIA OGGI","kind":"TERRASSE"}},{"type":"Feature","geometry":{"type":"Point","coordinates":[138.590423,-34.927146]},"properties":{"name":"FRANKLIN SNACK BAR","kind":"TERRASSE"}},{"type":"Feature","geometry":{"type":"Point","coordinates":[138.609536,-34.922748]},"properties":{"name":"OOSTENDE BELGIAN BEER CAFE","kind":"TERRASSE"}},{"type":"Feature","geometry":{"type":"Point","coordinates":[138.610546,-34.923516]},"properties":{"name":"HAIR BY JOHN","kind":"TERRASSE"}},{"type":"Feature","geometry":{"type":"Point","coordinates":[138.612695,-34.932123]},"properties":{"name":"BIGA CAFE BAR","kind":"TERRASSE"}},{"type":"Feature","geometry":{"type":"Point","coordinates":[138.607921,-34.907043]},"properties":{"name":"AUSTRALIA'S PIZZA HOUSE - MELBOURNE ST","kind":"TERRASSE"}},{"type":"Feature","geometry":{"type":"Point","coordinates":[138.606482,-34.923354]},"properties":{"name":"AVILA COFFEE","kind":"TERRASSE"}},{"type":"Feature","geometry":{"type":"Point","coordinates":[138.597756,-34.929421]},"properties":{"name":"DING NOODLE HOUSE","kind":"TERRASSE"}},{"type":"Feature","geometry":{"type":"Point","coordinates":[138.60104,-34.931243]},"properties":{"name":"POLICE CLUB OF SA","kind":"TERRASSE"}},{"type":"Feature","geometry":{"type":"Point","coordinates":[138.604587,-34.923803]},"properties":{"name":"THAI IN A WOK","kind":"TERRASSE"}},{"type":"Feature","geometry":{"type":"Point","coordinates":[138.59557,-34.930672]},"properties":{"name":"GELATISSIMO - GOUGER STREET","kind":"TERRASSE"}},{"type":"Feature","geometry":{"type":"Point","coordinates":[138.595728,-34.925639]},"properties":{"name":"THE RAGLAN HOTEL","kind":"TERRASSE"}},{"type":"Feature","geometry":{"type":"Point","coordinates":[138.602652,-34.925352]},"properties":{"name":"CHICKEN & PIG P/L","kind":"TERRASSE"}},{"type":"Feature","geometry":{"type":"Point","coordinates":[138.594388,-34.902748]},"properties":{"name":"O'CONNELL INN","kind":"TERRASSE"}},{"type":"Feature","geometry":{"type":"Point","coordinates":[138.604402,-34.925726]},"properties":{"name":"FROM ORIENTS","kind":"TERRASSE"}},{"type":"Feature","geometry":{"type":"Point","coordinates":[138.59635,-34.930034]},"properties":{"name":"RYO'S NOODLES","kind":"TERRASSE"}},{"type":"Feature","geometry":{"type":"Point","coordinates":[138.610408,-34.921307]},"properties":{"name":"BOTANIC BAR","kind":"TERRASSE"}},{"type":"Feature","geometry":{"type":"Point","coordinates":[138.590423,-34.927146]},"properties":{"name":"BENJAMIN ON FRANKLIN HOTEL","kind":"TERRASSE"}},{"type":"Feature","geometry":{"type":"Point","coordinates":[138.5965,-34.922215]},"properties":{"name":"MERCURE GROSVENOR HOTEL ADELAIDE","kind":"TERRASSE"}},{"type":"Feature","geometry":{"type":"Point","coordinates":[138.596211,-34.907818]},"properties":{"name":"","kind":"TERRASSE"}},{"type":"Feature","geometry":{"type":"Point","coordinates":[138.593651,-34.930041]},"properties":{"name":"BRITISH INDIA","kind":"TERRASSE"}},{"type":"Feature","geometry":{"type":"Point","coordinates":[138.595037,-34.905229]},"properties":{"name":"BAKERY ON O'CONNELL","kind":"TERRASSE"}},{"type":"Feature","geometry":{"type":"Point","coordinates":[138.607457,-34.923094]},"properties":{"name":"JOY DISCOVERY VEGETARIAN CAFE","kind":"TERRASSE"}},{"type":"Feature","geometry":{"type":"Point","coordinates":[138.595305,-34.933549]},"properties":{"name":"CAFE TROPPO","kind":"TERRASSE"}},{"type":"Feature","geometry":{"type":"Point","coordinates":[138.588,-34.924541]},"properties":{"name":"WOK IN A BOX - CURRIE STREET","kind":"TERRASSE"}},{"type":"Feature","geometry":{"type":"Point","coordinates":[138.596425,-34.908185]},"properties":{"name":"ZAMBRERO - NORTH ADELAIDE","kind":"TERRASSE"}},{"type":"Feature","geometry":{"type":"Point","coordinates":[138.610213,-34.922222]},"properties":{"name":"TAJ TANDOOR","kind":"TERRASSE"}},{"type":"Feature","geometry":{"type":"Point","coordinates":[138.596868,-34.930488]},"properties":{"name":"FORTUNE DUCK RESTAURANT","kind":"TERRASSE"}},{"type":"Feature","geometry":{"type":"Point","coordinates":[138.595054,-34.930612]},"properties":{"name":"MAPO KOREAN RESTAURANT P/L","kind":"TERRASSE"}},{"type":"Feature","geometry":{"type":"Point","coordinates":[138.597388,-34.922658]},"properties":{"name":"SOORA BANGBANG","kind":"TERRASSE"}},{"type":"Feature","geometry":{"type":"Point","coordinates":[138.599365,-34.926024]},"properties":{"name":"DELICATESSEN KITCHEN & BAR","kind":"TERRASSE"}},{"type":"Feature","geometry":{"type":"Point","coordinates":[138.592617,-34.925935]},"properties":{"name":"MY WAY CAFE","kind":"TERRASSE"}},{"type":"Feature","geometry":{"type":"Point","coordinates":[138.596525,-34.922887]},"properties":{"name":"PARSEC CAFE","kind":"TERRASSE"}},{"type":"Feature","geometry":{"type":"Point","coordinates":[138.602652,-34.925352]},"properties":{"name":"ABBOTS & KINNEY P/L","kind":"TERRASSE"}},{"type":"Feature","geometry":{"type":"Point","coordinates":[138.609234,-34.90463]},"properties":{"name":"KENTISH HOTEL","kind":"TERRASSE"}},{"type":"Feature","geometry":{"type":"Point","coordinates":[138.599603,-34.931106]},"properties":{"name":"CROWN & SCEPTRE HOTEL","kind":"TERRASSE"}},{"type":"Feature","geometry":{"type":"Point","coordinates":[138.594281,-34.9235]},"properties":{"name":"SHAKERS BAKERS","kind":"TERRASSE"}},{"type":"Feature","geometry":{"type":"Point","coordinates":[138.606127,-34.934148]},"properties":{"name":"CRAVE 443","kind":"TERRASSE"}},{"type":"Feature","geometry":{"type":"Point","coordinates":[138.59635,-34.930034]},"properties":{"name":"48 FLAVOURS","kind":"TERRASSE"}},{"type":"Feature","geometry":{"type":"Point","coordinates":[138.596525,-34.927025]},"properties":{"name":"KINETTO","kind":"TERRASSE"}},{"type":"Feature","geometry":{"type":"Point","coordinates":[138.605608,-34.928662]},"properties":{"name":"Ms Y Zhang","kind":"TERRASSE"}},{"type":"Feature","geometry":{"type":"Point","coordinates":[138.606859,-34.934808]},"properties":{"name":"JACKPOTS ON PULTENEY","kind":"TERRASSE"}},{"type":"Feature","geometry":{"type":"Point","coordinates":[138.603552,-34.930235]},"properties":{"name":"MING ROOM CHINESE RESTAURANT","kind":"TERRASSE"}},{"type":"Feature","geometry":{"type":"Point","coordinates":[138.600951,-34.933287]},"properties":{"name":"# 12 CAFE","kind":"TERRASSE"}},{"type":"Feature","geometry":{"type":"Point","coordinates":[138.597756,-34.929421]},"properties":{"name":"STAR HOUSE CHINESE RESTAURANT","kind":"TERRASSE"}},{"type":"Feature","geometry":{"type":"Point","coordinates":[138.609983,-34.92224]},"properties":{"name":"NINH KIEU MEKONG VIETNAMESE RESTAURANT","kind":"TERRASSE"}},{"type":"Feature","geometry":{"type":"Point","coordinates":[138.603335,-34.930269]},"properties":{"name":"ROYALTY SNACK BAR","kind":"TERRASSE"}},{"type":"Feature","geometry":{"type":"Point","coordinates":[138.596139,-34.930557]},"properties":{"name":"TIFFANY THAI CAFE","kind":"TERRASSE"}},{"type":"Feature","geometry":{"type":"Point","coordinates":[138.597208,-34.926384]},"properties":{"name":"UNION HOTEL","kind":"TERRASSE"}},{"type":"Feature","geometry":{"type":"Point","coordinates":[138.596418,-34.924142]},"properties":{"name":"THREE STARS P/L","kind":"TERRASSE"}},{"type":"Feature","geometry":{"type":"Point","coordinates":[138.603034,-34.931629]},"properties":{"name":"SARACEN'S HEAD TAVERN","kind":"TERRASSE"}},{"type":"Feature","geometry":{"type":"Point","coordinates":[138.596992,-34.930481]},"properties":{"name":"SIR CAFE","kind":"TERRASSE"}},{"type":"Feature","geometry":{"type":"Point","coordinates":[138.601637,-34.924879]},"properties":{"name":"FOOD FOR THOUGHT ADELAIDE","kind":"TERRASSE"}},{"type":"Feature","geometry":{"type":"Point","coordinates":[138.589872,-34.923787]},"properties":{"name":"LEVANT EATERY P/L","kind":"TERRASSE"}},{"type":"Feature","geometry":{"type":"Point","coordinates":[138.605608,-34.928662]},"properties":{"name":"LOUCAS SEAFOOD RESTAURANT","kind":"TERRASSE"}},{"type":"Feature","geometry":{"type":"Point","coordinates":[138.594759,-34.903885]},"properties":{"name":"YOGI P/L","kind":"TERRASSE"}},{"type":"Feature","geometry":{"type":"Point","coordinates":[138.595107,-34.922192]},"properties":{"name":"NINOS LAMESITA","kind":"TERRASSE"}},{"type":"Feature","geometry":{"type":"Point","coordinates":[138.605225,-34.9221]},"properties":{"name":"CHERRY BLOSSOM SUSHI - PULTENEY ST","kind":"TERRASSE"}},{"type":"Feature","geometry":{"type":"Point","coordinates":[138.609931,-34.924147]},"properties":{"name":"PRODUCERS EAST END P/L","kind":"TERRASSE"}},{"type":"Feature","geometry":{"type":"Point","coordinates":[138.592395,-34.934939]},"properties":{"name":"DUKE OF BRUNSWICK","kind":"TERRASSE"}},{"type":"Feature","geometry":{"type":"Point","coordinates":[138.597288,-34.923618]},"properties":{"name":"UDABERRI","kind":"TERRASSE"}},{"type":"Feature","geometry":{"type":"Point","coordinates":[138.612003,-34.932606]},"properties":{"name":"REMY & VIOLETTE","kind":"TERRASSE"}},{"type":"Feature","geometry":{"type":"Point","coordinates":[138.609253,-34.922281]},"properties":{"name":"FELICI ESPRESSO BAR","kind":"TERRASSE"}},{"type":"Feature","geometry":{"type":"Point","coordinates":[138.597063,-34.934201]},"properties":{"name":"GILBERT STREET HOTEL","kind":"TERRASSE"}},{"type":"Feature","geometry":{"type":"Point","coordinates":[138.609253,-34.922281]},"properties":{"name":"SLIDER'S ON RUNDLE","kind":"TERRASSE"}},{"type":"Feature","geometry":{"type":"Point","coordinates":[138.595984,-34.929168]},"properties":{"name":"COLD FOOD","kind":"TERRASSE"}},{"type":"Feature","geometry":{"type":"Point","coordinates":[138.599365,-34.926024]},"properties":{"name":"BISTRO DOM","kind":"TERRASSE"}},{"type":"Feature","geometry":{"type":"Point","coordinates":[138.59994,-34.93532]},"properties":{"name":"FUNK COFFEE & FOOD - KING WILLIAM ST","kind":"TERRASSE"}},{"type":"Feature","geometry":{"type":"Point","coordinates":[138.598264,-34.922292]},"properties":{"name":"ON THE RUN","kind":"TERRASSE"}},{"type":"Feature","geometry":{"type":"Point","coordinates":[138.604266,-34.925733]},"properties":{"name":"WINE UNDERGROUND","kind":"TERRASSE"}},{"type":"Feature","geometry":{"type":"Point","coordinates":[138.599041,-34.92194]},"properties":{"name":"JAMIE'S ITALIAN","kind":"TERRASSE"}},{"type":"Feature","geometry":{"type":"Point","coordinates":[138.595837,-34.904088]},"properties":{"name":"TONY TOMATOES","kind":"TERRASSE"}},{"type":"Feature","geometry":{"type":"Point","coordinates":[138.604842,-34.928997]},"properties":{"name":"LA BONNE TABLE","kind":"TERRASSE"}},{"type":"Feature","geometry":{"type":"Point","coordinates":[138.606015,-34.925661]},"properties":{"name":"CAFFE AMORE","kind":"TERRASSE"}},{"type":"Feature","geometry":{"type":"Point","coordinates":[138.594669,-34.925537]},"properties":{"name":"LIME 2 CAFE","kind":"TERRASSE"}},{"type":"Feature","geometry":{"type":"Point","coordinates":[138.603863,-34.927203]},"properties":{"name":"DELI ON FLINDERS","kind":"TERRASSE"}},{"type":"Feature","geometry":{"type":"Point","coordinates":[138.610685,-34.923094]},"properties":{"name":"BAMBI'S KITCHEN & BAR","kind":"TERRASSE"}},{"type":"Feature","geometry":{"type":"Point","coordinates":[138.595248,-34.931965]},"properties":{"name":"THE WRIGHT LODGE","kind":"TERRASSE"}},{"type":"Feature","geometry":{"type":"Point","coordinates":[138.597131,-34.922057]},"properties":{"name":"TOAST CAFE - BANK STREET","kind":"TERRASSE"}},{"type":"Feature","geometry":{"type":"Point","coordinates":[138.604861,-34.909673]},"properties":{"name":"BRITISH HOTEL","kind":"TERRASSE"}},{"type":"Feature","geometry":{"type":"Point","coordinates":[138.610197,-34.92275]},"properties":{"name":"MOTHER VINE","kind":"TERRASSE"}},{"type":"Feature","geometry":{"type":"Point","coordinates":[138.59192,-34.923685]},"properties":{"name":"WORLDSEND HOTEL","kind":"TERRASSE"}},{"type":"Feature","geometry":{"type":"Point","coordinates":[138.598204,-34.923506]},"properties":{"name":"LA MOKA","kind":"TERRASSE"}},{"type":"Feature","geometry":{"type":"Point","coordinates":[138.59192,-34.923685]},"properties":{"name":"IT'S CONVENIENT 2 WEST END","kind":"TERRASSE"}},{"type":"Feature","geometry":{"type":"Point","coordinates":[138.605023,-34.9258]},"properties":{"name":"FUNK COFFEE & FOOD - PIRIE ST","kind":"TERRASSE"}},{"type":"Feature","geometry":{"type":"Point","coordinates":[138.589552,-34.930958]},"properties":{"name":"WEST END LUNCH BAR","kind":"TERRASSE"}},{"type":"Feature","geometry":{"type":"Point","coordinates":[138.600538,-34.931768]},"properties":{"name":"NOSHERY FOOD & COFFEE BAR","kind":"TERRASSE"}},{"type":"Feature","geometry":{"type":"Point","coordinates":[138.611854,-34.931326]},"properties":{"name":"CAFE HUT","kind":"TERRASSE"}},{"type":"Feature","geometry":{"type":"Point","coordinates":[138.609627,-34.923693]},"properties":{"name":"LE CARPE DIEM","kind":"TERRASSE"}},{"type":"Feature","geometry":{"type":"Point","coordinates":[138.612676,-34.93208]},"properties":{"name":"COFFYLOSOPHY","kind":"TERRASSE"}},{"type":"Feature","geometry":{"type":"Point","coordinates":[138.594932,-34.926569]},"properties":{"name":"PUBLISHERS HOTEL","kind":"TERRASSE"}},{"type":"Feature","geometry":{"type":"Point","coordinates":[138.609878,-34.922263]},"properties":{"name":"RUNDLE SPICES NOODLE BAR & RESTAURANT","kind":"TERRASSE"}},{"type":"Feature","geometry":{"type":"Point","coordinates":[138.597194,-34.922624]},"properties":{"name":"PRINCES BERKELEY HOTEL","kind":"TERRASSE"}},{"type":"Feature","geometry":{"type":"Point","coordinates":[138.599324,-34.925617]},"properties":{"name":"BEAN BAR - KING WILLIAM ST SOUTH","kind":"TERRASSE"}},{"type":"Feature","geometry":{"type":"Point","coordinates":[138.599071,-34.922356]},"properties":{"name":"AI FIORI P/L","kind":"TERRASSE"}},{"type":"Feature","geometry":{"type":"Point","coordinates":[138.611854,-34.931326]},"properties":{"name":"THE YIROS HUTT BY YIANNIS","kind":"TERRASSE"}},{"type":"Feature","geometry":{"type":"Point","coordinates":[138.601052,-34.928996]},"properties":{"name":"HILTON INTERNATIONAL ADELAIDE HOTEL","kind":"TERRASSE"}},{"type":"Feature","geometry":{"type":"Point","coordinates":[138.596306,-34.906109]},"properties":{"name":"LA TAPITA","kind":"TERRASSE"}},{"type":"Feature","geometry":{"type":"Point","coordinates":[138.608646,-34.925046]},"properties":{"name":"CITI CAFE","kind":"TERRASSE"}},{"type":"Feature","geometry":{"type":"Point","coordinates":[138.592717,-34.932089]},"properties":{"name":"MY KINGDOM FOR A HORSE","kind":"TERRASSE"}},{"type":"Feature","geometry":{"type":"Point","coordinates":[138.60213,-34.922376]},"properties":{"name":"JUST BLISS","kind":"TERRASSE"}},{"type":"Feature","geometry":{"type":"Point","coordinates":[138.598175,-34.926267]},"properties":{"name":"CIBO ESPRESSO - WAYMOUTH ST","kind":"TERRASSE"}},{"type":"Feature","geometry":{"type":"Point","coordinates":[138.592511,-34.925547]},"properties":{"name":"VENUE 63","kind":"TERRASSE"}},{"type":"Feature","geometry":{"type":"Point","coordinates":[138.605225,-34.9221]},"properties":{"name":"MANSIONS TAVERN","kind":"TERRASSE"}},{"type":"Feature","geometry":{"type":"Point","coordinates":[138.598572,-34.922621]},"properties":{"name":"SAFIRCOM","kind":"TERRASSE"}},{"type":"Feature","geometry":{"type":"Point","coordinates":[138.595067,-34.90694]},"properties":{"name":"CAFFE PAESANO","kind":"TERRASSE"}},{"type":"Feature","geometry":{"type":"Point","coordinates":[138.610042,-34.922655]},"properties":{"name":"COCOLAT - RUNDLE STREET","kind":"TERRASSE"}},{"type":"Feature","geometry":{"type":"Point","coordinates":[138.595256,-34.903535]},"properties":{"name":"CHUCK WAGON 175","kind":"TERRASSE"}},{"type":"Feature","geometry":{"type":"Point","coordinates":[138.598151,-34.905152]},"properties":{"name":"PERRYMAN'S BAKERY - TYNTE ST","kind":"TERRASSE"}},{"type":"Feature","geometry":{"type":"Point","coordinates":[138.601393,-34.927874]},"properties":{"name":"ARGO ON THE SQUARE","kind":"TERRASSE"}},{"type":"Feature","geometry":{"type":"Point","coordinates":[138.598237,-34.923695]},"properties":{"name":"CHIHUAHUA PEEL STREET","kind":"TERRASSE"}},{"type":"Feature","geometry":{"type":"Point","coordinates":[138.597307,-34.90909]},"properties":{"name":"THE CURIOUS SQUIRE","kind":"TERRASSE"}},{"type":"Feature","geometry":{"type":"Point","coordinates":[138.597408,-34.928424]},"properties":{"name":"METROPOLITAN HOTEL","kind":"TERRASSE"}},{"type":"Feature","geometry":{"type":"Point","coordinates":[138.609637,-34.906252]},"properties":{"name":"ZAPATAS MEXICAN RESTAURANT","kind":"TERRASSE"}},{"type":"Feature","geometry":{"type":"Point","coordinates":[138.588794,-34.93457]},"properties":{"name":"ELEPHANT & CASTLE HOTEL","kind":"TERRASSE"}},{"type":"Feature","geometry":{"type":"Point","coordinates":[138.598204,-34.923506]},"properties":{"name":"ALFRED'S BAR","kind":"TERRASSE"}},{"type":"Feature","geometry":{"type":"Point","coordinates":[138.595764,-34.923362]},"properties":{"name":"DRINK EAT WORK","kind":"TERRASSE"}},{"type":"Feature","geometry":{"type":"Point","coordinates":[138.602852,-34.926516]},"properties":{"name":"DOUBLE BARREL ESPRESSO BAR","kind":"TERRASSE"}},{"type":"Feature","geometry":{"type":"Point","coordinates":[138.594373,-34.92825]},"properties":{"name":"NU THAI","kind":"TERRASSE"}},{"type":"Feature","geometry":{"type":"Point","coordinates":[138.602283,-34.92537]},"properties":{"name":"VIVA ESPRESSO","kind":"TERRASSE"}},{"type":"Feature","geometry":{"type":"Point","coordinates":[138.602892,-34.925373]},"properties":{"name":"CITRUS TREE","kind":"TERRASSE"}},{"type":"Feature","geometry":{"type":"Point","coordinates":[138.597756,-34.929421]},"properties":{"name":"SUSHI TRAIN - CENTRAL MARKET","kind":"TERRASSE"}},{"type":"Feature","geometry":{"type":"Point","coordinates":[138.598478,-34.930496]},"properties":{"name":"ST LOUIS - HOUSE OF FINE ICE CREAM & DESSERTS","kind":"TERRASSE"}},{"type":"Feature","geometry":{"type":"Point","coordinates":[138.595081,-34.922791]},"properties":{"name":"AUSTRALIAS PIZZA HOUSE - HINDLEY ST","kind":"TERRASSE"}},{"type":"Feature","geometry":{"type":"Point","coordinates":[138.597336,-34.923855]},"properties":{"name":"WAFFLES & COFFEE","kind":"TERRASSE"}},{"type":"Feature","geometry":{"type":"Point","coordinates":[138.597925,-34.922562]},"properties":{"name":"SIT LO P/L","kind":"TERRASSE"}},{"type":"Feature","geometry":{"type":"Point","coordinates":[138.604095,-34.926659]},"properties":{"name":"LONG'S KITCHEN","kind":"TERRASSE"}},{"type":"Feature","geometry":{"type":"Point","coordinates":[138.607908,-34.927003]},"properties":{"name":"HAPPY BITE SNACK BAR","kind":"TERRASSE"}},{"type":"Feature","geometry":{"type":"Point","coordinates":[138.595025,-34.929235]},"properties":{"name":"HAMPSHIRE CIDER HOUSE","kind":"TERRASSE"}},{"type":"Feature","geometry":{"type":"Point","coordinates":[138.597307,-34.90909]},"properties":{"name":"ST LOUIS - ICE CREAM & DESSERTS","kind":"TERRASSE"}},{"type":"Feature","geometry":{"type":"Point","coordinates":[138.59801,-34.923977]},"properties":{"name":"LA RAMBLA TAPAS BAR","kind":"TERRASSE"}},{"type":"Feature","geometry":{"type":"Point","coordinates":[138.600782,-34.924667]},"properties":{"name":"KRISPY KREME - GRENFELL ST","kind":"TERRASSE"}},{"type":"Feature","geometry":{"type":"Point","coordinates":[138.59599,-34.908022]},"properties":{"name":"MARCELLINA NORTH ADELAIDE","kind":"TERRASSE"}},{"type":"Feature","geometry":{"type":"Point","coordinates":[138.595514,-34.929899]},"properties":{"name":"TALBOT HOTEL","kind":"TERRASSE"}},{"type":"Feature","geometry":{"type":"Point","coordinates":[138.612162,-34.933909]},"properties":{"name":"ARAB STEED HOTEL","kind":"TERRASSE"}},{"type":"Feature","geometry":{"type":"Point","coordinates":[138.606863,-34.922858]},"properties":{"name":"GRILL'D - RUNDLE STREET","kind":"TERRASSE"}},{"type":"Feature","geometry":{"type":"Point","coordinates":[138.597756,-34.929421]},"properties":{"name":"T BAR - 44 GOUGER ST","kind":"TERRASSE"}},{"type":"Feature","geometry":{"type":"Point","coordinates":[138.60633,-34.907274]},"properties":{"name":"SPUDS ON MELBOURNE","kind":"TERRASSE"}},{"type":"Feature","geometry":{"type":"Point","coordinates":[138.600322,-34.924605]},"properties":{"name":"HARRY'S BAR","kind":"TERRASSE"}},{"type":"Feature","geometry":{"type":"Point","coordinates":[138.592835,-34.92358]},"properties":{"name":"ENIGMA BAR","kind":"TERRASSE"}},{"type":"Feature","geometry":{"type":"Point","coordinates":[138.598175,-34.926267]},"properties":{"name":"JACK GREENS","kind":"TERRASSE"}},{"type":"Feature","geometry":{"type":"Point","coordinates":[138.597756,-34.929421]},"properties":{"name":"SUBWAY - GOUGER ST","kind":"TERRASSE"}},{"type":"Feature","geometry":{"type":"Point","coordinates":[138.59559,-34.906217]},"properties":{"name":"SCUZZI","kind":"TERRASSE"}},{"type":"Feature","geometry":{"type":"Point","coordinates":[138.60239,-34.926654]},"properties":{"name":"LAKSA HOUSE II - FLINDERS ST","kind":"TERRASSE"}},{"type":"Feature","geometry":{"type":"Point","coordinates":[138.590706,-34.928788]},"properties":{"name":"CAFFE CINO","kind":"TERRASSE"}},{"type":"Feature","geometry":{"type":"Point","coordinates":[138.595984,-34.929168]},"properties":{"name":"BINGS CHINESE RESTAURANT","kind":"TERRASSE"}},{"type":"Feature","geometry":{"type":"Point","coordinates":[138.611823,-34.931867]},"properties":{"name":"HUTT STREET CHICKEN &SEAFOOD","kind":"TERRASSE"}},{"type":"Feature","geometry":{"type":"Point","coordinates":[138.604011,-34.922029]},"properties":{"name":"BLUE LEMON BIG BAGUETTE BAR","kind":"TERRASSE"}},{"type":"Feature","geometry":{"type":"Point","coordinates":[138.606863,-34.922858]},"properties":{"name":"CAFE BRUNELLI","kind":"TERRASSE"}},{"type":"Feature","geometry":{"type":"Point","coordinates":[138.59254,-34.923753]},"properties":{"name":"CAOS CO","kind":"TERRASSE"}},{"type":"Feature","geometry":{"type":"Point","coordinates":[138.607722,-34.922366]},"properties":{"name":"CIBO ESPRESSO - RUNDLE ST","kind":"TERRASSE"}},{"type":"Feature","geometry":{"type":"Point","coordinates":[138.597361,-34.924037]},"properties":{"name":"RIGONI'S BISTRO","kind":"TERRASSE"}},{"type":"Feature","geometry":{"type":"Point","coordinates":[138.611966,-34.93213]},"properties":{"name":"CIBO ESPRESSO - HUTT ST","kind":"TERRASSE"}},{"type":"Feature","geometry":{"type":"Point","coordinates":[138.601427,-34.924634]},"properties":{"name":"SIMPLY DIVINE","kind":"TERRASSE"}},{"type":"Feature","geometry":{"type":"Point","coordinates":[138.609769,-34.92265]},"properties":{"name":"EROS KAFE","kind":"TERRASSE"}},{"type":"Feature","geometry":{"type":"Point","coordinates":[138.595686,-34.922871]},"properties":{"name":"FALAFEL HOUSE","kind":"TERRASSE"}},{"type":"Feature","geometry":{"type":"Point","coordinates":[138.593765,-34.923077]},"properties":{"name":"ROSEMONT HOTEL","kind":"TERRASSE"}},{"type":"Feature","geometry":{"type":"Point","coordinates":[138.604587,-34.923803]},"properties":{"name":"GRIFFINS HEAD HOTEL","kind":"TERRASSE"}},{"type":"Feature","geometry":{"type":"Point","coordinates":[138.597169,-34.907778]},"properties":{"name":"GIN LONG CANTEEN","kind":"TERRASSE"}},{"type":"Feature","geometry":{"type":"Point","coordinates":[138.604587,-34.923803]},"properties":{"name":"GRIFFINS HEAD HOTEL","kind":"TERRASSE"}},{"type":"Feature","geometry":{"type":"Point","coordinates":[138.599365,-34.926024]},"properties":{"name":"NAYA RESTAURANT & BAR","kind":"TERRASSE"}},{"type":"Feature","geometry":{"type":"Point","coordinates":[138.600552,-34.925427]},"properties":{"name":"PRANZO","kind":"TERRASSE"}},{"type":"Feature","geometry":{"type":"Point","coordinates":[138.596216,-34.92782]},"properties":{"name":"NICO CAFE","kind":"TERRASSE"}},{"type":"Feature","geometry":{"type":"Point","coordinates":[138.598755,-34.927694]},"properties":{"name":"MEATBALLS & CO","kind":"TERRASSE"}},{"type":"Feature","geometry":{"type":"Point","coordinates":[138.596649,-34.906168]},"properties":{"name":"AMARIN THAI RESTAURANT - TYNTE ST","kind":"TERRASSE"}},{"type":"Feature","geometry":{"type":"Point","coordinates":[138.598739,-34.927484]},"properties":{"name":"BLEFARI CAFE BAR","kind":"TERRASSE"}},{"type":"Feature","geometry":{"type":"Point","coordinates":[138.60465,-34.925747]},"properties":{"name":"THE ORGANIK STORE & CAFE","kind":"TERRASSE"}},{"type":"Feature","geometry":{"type":"Point","coordinates":[138.609974,-34.922774]},"properties":{"name":"EXCHANGE SPECIALTY COFFEE","kind":"TERRASSE"}},{"type":"Feature","geometry":{"type":"Point","coordinates":[138.610508,-34.921604]},"properties":{"name":"EAST TERRACE CONTINENTAL CAFE","kind":"TERRASSE"}},{"type":"Feature","geometry":{"type":"Point","coordinates":[138.605023,-34.9258]},"properties":{"name":"HELLO SARNIE - ADELAIDE","kind":"TERRASSE"}},{"type":"Feature","geometry":{"type":"Point","coordinates":[138.599365,-34.926024]},"properties":{"name":"SOONTA ROLLS - WAYMOUTH ST","kind":"TERRASSE"}},{"type":"Feature","geometry":{"type":"Point","coordinates":[138.600995,-34.92524]},"properties":{"name":"BTS CAFE - PIRIE STREET","kind":"TERRASSE"}},{"type":"Feature","geometry":{"type":"Point","coordinates":[138.596318,-34.926268]},"properties":{"name":"THU NGUYET","kind":"TERRASSE"}},{"type":"Feature","geometry":{"type":"Point","coordinates":[138.608684,-34.922832]},"properties":{"name":"BURGER THEORY","kind":"TERRASSE"}},{"type":"Feature","geometry":{"type":"Point","coordinates":[138.594906,-34.926222]},"properties":{"name":"CEST CI BON SNACK BAR","kind":"TERRASSE"}},{"type":"Feature","geometry":{"type":"Point","coordinates":[138.606482,-34.923354]},"properties":{"name":"CROWNE PLAZA ADELAIDE","kind":"TERRASSE"}},{"type":"Feature","geometry":{"type":"Point","coordinates":[138.610362,-34.926345]},"properties":{"name":"SOHO HOTEL P/L","kind":"TERRASSE"}},{"type":"Feature","geometry":{"type":"Point","coordinates":[138.59849,-34.923849]},"properties":{"name":"THE KAFFANA","kind":"TERRASSE"}},{"type":"Feature","geometry":{"type":"Point","coordinates":[138.603458,-34.925307]},"properties":{"name":"KICCO PIRIE STREET","kind":"TERRASSE"}},{"type":"Feature","geometry":{"type":"Point","coordinates":[138.602373,-34.926377]},"properties":{"name":"AJ'S BAR & CAFE","kind":"TERRASSE"}},{"type":"Feature","geometry":{"type":"Point","coordinates":[138.594546,-34.929283]},"properties":{"name":"PARK LOK CHINESE RESTAURANT","kind":"TERRASSE"}},{"type":"Feature","geometry":{"type":"Point","coordinates":[138.606443,-34.907823]},"properties":{"name":"EVEA","kind":"TERRASSE"}},{"type":"Feature","geometry":{"type":"Point","coordinates":[138.599102,-34.922778]},"properties":{"name":"NANDO'S - HINDLEY ST","kind":"TERRASSE"}},{"type":"Feature","geometry":{"type":"Point","coordinates":[138.604633,-34.923995]},"properties":{"name":"THE LUNCH ROOM","kind":"TERRASSE"}},{"type":"Feature","geometry":{"type":"Point","coordinates":[138.607024,-34.906868]},"properties":{"name":"UR CAFFE","kind":"TERRASSE"}},{"type":"Feature","geometry":{"type":"Point","coordinates":[138.612843,-34.934203]},"properties":{"name":"BICI ESPRESSO & PASTICCERIA","kind":"TERRASSE"}},{"type":"Feature","geometry":{"type":"Point","coordinates":[138.607578,-34.921692]},"properties":{"name":"THE HOWLING OWL","kind":"TERRASSE"}},{"type":"Feature","geometry":{"type":"Point","coordinates":[138.597756,-34.929421]},"properties":{"name":"CHINA CHILLI","kind":"TERRASSE"}},{"type":"Feature","geometry":{"type":"Point","coordinates":[138.610691,-34.923022]},"properties":{"name":"EST PIZZERIA","kind":"TERRASSE"}},{"type":"Feature","geometry":{"type":"Point","coordinates":[138.597756,-34.929421]},"properties":{"name":"DING HAO","kind":"TERRASSE"}},{"type":"Feature","geometry":{"type":"Point","coordinates":[138.595858,-34.930617]},"properties":{"name":"GAUCHO'S ARGENTINIAN RESTAURANT","kind":"TERRASSE"}},{"type":"Feature","geometry":{"type":"Point","coordinates":[138.606622,-34.923793]},"properties":{"name":"GRIFFINS HEAD HOTEL","kind":"TERRASSE"}},{"type":"Feature","geometry":{"type":"Point","coordinates":[138.60077,-34.933776]},"properties":{"name":"STAX CAFE","kind":"TERRASSE"}},{"type":"Feature","geometry":{"type":"Point","coordinates":[138.607684,-34.922235]},"properties":{"name":"AMALFI RESTAURANT","kind":"TERRASSE"}},{"type":"Feature","geometry":{"type":"Point","coordinates":[138.603033,-34.932532]},"properties":{"name":"PANACEA RESTAURANT","kind":"TERRASSE"}},{"type":"Feature","geometry":{"type":"Point","coordinates":[138.598175,-34.926267]},"properties":{"name":"MELT CBD","kind":"TERRASSE"}},{"type":"Feature","geometry":{"type":"Point","coordinates":[138.597774,-34.923299]},"properties":{"name":"MOVENPICK ICE CREAM ADELAIDE CBD","kind":"TERRASSE"}},{"type":"Feature","geometry":{"type":"Point","coordinates":[138.604587,-34.923803]},"properties":{"name":"JASMIN INDIAN RESTAURANT","kind":"TERRASSE"}},{"type":"Feature","geometry":{"type":"Point","coordinates":[138.604161,-34.93325]},"properties":{"name":"ROB ROY HOTEL","kind":"TERRASSE"}},{"type":"Feature","geometry":{"type":"Point","coordinates":[138.595409,-34.90583]},"properties":{"name":"OXFORD HOTEL","kind":"TERRASSE"}},{"type":"Feature","geometry":{"type":"Point","coordinates":[138.599019,-34.924655]},"properties":{"name":"CIBO ESPRESSO - KING WILLIAM ST","kind":"TERRASSE"}},{"type":"Feature","geometry":{"type":"Point","coordinates":[138.597097,-34.908235]},"properties":{"name":"THE WONDERFUL WINKLER GALLERY","kind":"TERRASSE"}},{"type":"Feature","geometry":{"type":"Point","coordinates":[138.592099,-34.925875]},"properties":{"name":"KOORONG BOOKS P/L","kind":"TERRASSE"}},{"type":"Feature","geometry":{"type":"Point","coordinates":[138.595256,-34.903535]},"properties":{"name":"PELLEGRINI CAFE & PIZZERIA","kind":"TERRASSE"}},{"type":"Feature","geometry":{"type":"Point","coordinates":[138.597288,-34.923618]},"properties":{"name":"CASABLABLA","kind":"TERRASSE"}},{"type":"Feature","geometry":{"type":"Point","coordinates":[138.611904,-34.932498]},"properties":{"name":"ALFONSOS CONTINENTAL","kind":"TERRASSE"}},{"type":"Feature","geometry":{"type":"Point","coordinates":[138.605404,-34.92583]},"properties":{"name":"BEAN BAR - PIRIE STREET","kind":"TERRASSE"}},{"type":"Feature","geometry":{"type":"Point","coordinates":[138.607718,-34.92302]},"properties":{"name":"MAJESTIC ROOF GARDEN HOTEL","kind":"TERRASSE"}},{"type":"Feature","geometry":{"type":"Point","coordinates":[138.597756,-34.929421]},"properties":{"name":"BEAN BAR - GOUGER STREET","kind":"TERRASSE"}},{"type":"Feature","geometry":{"type":"Point","coordinates":[138.596442,-34.908414]},"properties":{"name":"CHOCOLATREE","kind":"TERRASSE"}},{"type":"Feature","geometry":{"type":"Point","coordinates":[138.598175,-34.926267]},"properties":{"name":"PRESS FOOD & WINE","kind":"TERRASSE"}},{"type":"Feature","geometry":{"type":"Point","coordinates":[138.601624,-34.927406]},"properties":{"name":"BEAN BAR - 26 FLINDERS ST","kind":"TERRASSE"}},{"type":"Feature","geometry":{"type":"Point","coordinates":[138.606755,-34.907611]},"properties":{"name":"VIDA COMIDA","kind":"TERRASSE"}},{"type":"Feature","geometry":{"type":"Point","coordinates":[138.597895,-34.924854]},"properties":{"name":"HUDSONS COFFEE - CURRIE ST","kind":"TERRASSE"}},{"type":"Feature","geometry":{"type":"Point","coordinates":[138.596918,-34.921974]},"properties":{"name":"STRATHMORE HOTEL","kind":"TERRASSE"}},{"type":"Feature","geometry":{"type":"Point","coordinates":[138.607297,-34.925917]},"properties":{"name":"CUT LUNCH","kind":"TERRASSE"}},{"type":"Feature","geometry":{"type":"Point","coordinates":[138.606497,-34.930805]},"properties":{"name":"HUT & SOUL EATERY","kind":"TERRASSE"}},{"type":"Feature","geometry":{"type":"Point","coordinates":[138.609637,-34.906252]},"properties":{"name":"YAKITORI TAKUMI","kind":"TERRASSE"}},{"type":"Feature","geometry":{"type":"Point","coordinates":[138.596265,-34.922849]},"properties":{"name":"KFC - HINDLEY STREET","kind":"TERRASSE"}},{"type":"Feature","geometry":{"type":"Point","coordinates":[138.600995,-34.92524]},"properties":{"name":"PIZZA E MOZZARELLA BAR ADELAIDE","kind":"TERRASSE"}},{"type":"Feature","geometry":{"type":"Point","coordinates":[138.608988,-34.923109]},"properties":{"name":"HEY JUPITER","kind":"TERRASSE"}},{"type":"Feature","geometry":{"type":"Point","coordinates":[138.588858,-34.923236]},"properties":{"name":"WEST SIDE SNACK BAR","kind":"TERRASSE"}},{"type":"Feature","geometry":{"type":"Point","coordinates":[138.603682,-34.931098]},"properties":{"name":"LA'FIG P/L","kind":"TERRASSE"}},{"type":"Feature","geometry":{"type":"Point","coordinates":[138.608988,-34.923109]},"properties":{"name":"KUTCHI DELI PARWANA","kind":"TERRASSE"}},{"type":"Feature","geometry":{"type":"Point","coordinates":[138.600783,-34.924085]},"properties":{"name":"CAPAREZZA ESPRESSO BAR","kind":"TERRASSE"}},{"type":"Feature","geometry":{"type":"Point","coordinates":[138.601427,-34.924634]},"properties":{"name":"FUNK COFFEE & FOOD - GRENFELL ST","kind":"TERRASSE"}},{"type":"Feature","geometry":{"type":"Point","coordinates":[138.597336,-34.923855]},"properties":{"name":"AJISEN RAMEN - LEIGH ST","kind":"TERRASSE"}},{"type":"Feature","geometry":{"type":"Point","coordinates":[138.596603,-34.922757]},"properties":{"name":"SHEESHA LOUNGE","kind":"TERRASSE"}},{"type":"Feature","geometry":{"type":"Point","coordinates":[138.603034,-34.931629]},"properties":{"name":"ARCHIE & CO","kind":"TERRASSE"}},{"type":"Feature","geometry":{"type":"Point","coordinates":[138.607718,-34.92302]},"properties":{"name":"EAST END CAR PARK","kind":"TERRASSE"}},{"type":"Feature","geometry":{"type":"Point","coordinates":[138.595054,-34.930612]},"properties":{"name":"DESSERT STORY","kind":"TERRASSE"}},{"type":"Feature","geometry":{"type":"Point","coordinates":[138.595081,-34.922791]},"properties":{"name":"HORUS EGYPTIAN CAFE","kind":"TERRASSE"}},{"type":"Feature","geometry":{"type":"Point","coordinates":[138.610358,-34.924156]},"properties":{"name":"TANDANYA CAFE","kind":"TERRASSE"}},{"type":"Feature","geometry":{"type":"Point","coordinates":[138.595958,-34.931538]},"properties":{"name":"NOODLE KITCHEN","kind":"TERRASSE"}},{"type":"Feature","geometry":{"type":"Point","coordinates":[138.601393,-34.927874]},"properties":{"name":"THE TAXPAYER","kind":"TERRASSE"}},{"type":"Feature","geometry":{"type":"Point","coordinates":[138.599365,-34.926024]},"properties":{"name":"UN CAFFE BAR - WAYMOUTH ST","kind":"TERRASSE"}},{"type":"Feature","geometry":{"type":"Point","coordinates":[138.595759,-34.927987]},"properties":{"name":"FRANKLIN HOTEL","kind":"TERRASSE"}},{"type":"Feature","geometry":{"type":"Point","coordinates":[138.610697,-34.926331]},"properties":{"name":"THE FLINDERS STREET PROJECT","kind":"TERRASSE"}},{"type":"Feature","geometry":{"type":"Point","coordinates":[138.595272,-34.905552]},"properties":{"name":"PASTA GO GO NORTH ADELAIDE","kind":"TERRASSE"}},{"type":"Feature","geometry":{"type":"Point","coordinates":[138.610213,-34.922222]},"properties":{"name":"LEMONGRASS THAI","kind":"TERRASSE"}},{"type":"Feature","geometry":{"type":"Point","coordinates":[138.606342,-34.927067]},"properties":{"name":"LUIGI DELICATESSEN","kind":"TERRASSE"}},{"type":"Feature","geometry":{"type":"Point","coordinates":[138.606698,-34.907105]},"properties":{"name":"KOKUMI","kind":"TERRASSE"}},{"type":"Feature","geometry":{"type":"Point","coordinates":[138.591624,-34.922208]},"properties":{"name":"THE ESPRESSO ROOM","kind":"TERRASSE"}},{"type":"Feature","geometry":{"type":"Point","coordinates":[138.598739,-34.927484]},"properties":{"name":"ONE ATE FIVE","kind":"TERRASSE"}},{"type":"Feature","geometry":{"type":"Point","coordinates":[138.61262,-34.931321]},"properties":{"name":"GUSTO ON HUTT","kind":"TERRASSE"}},{"type":"Feature","geometry":{"type":"Point","coordinates":[138.610579,-34.922715]},"properties":{"name":"FAT STAG HOTEL","kind":"TERRASSE"}},{"type":"Feature","geometry":{"type":"Point","coordinates":[138.596685,-34.923343]},"properties":{"name":"SUPERMILD","kind":"TERRASSE"}}]}
