{"type":"FeatureCollection","_source":{"feed":"https://cdn.buenosaires.gob.ar/datosabiertos/datasets/atencion-ciudadana/permisos-uso-espacio-publico-area-gastronomica/permisos-uso-espacio-publico-gastronomicos.csv","dataset":"https://data.buenosaires.gob.ar/dataset/permisos-uso-espacio-publico-area-gastronomica","publisher":"Gobierno de la Ciudad de Buenos Aires","licence":"CC BY 2.5 AR","downloaded":"2026-09-28","kept":"permits with Estado Vereda OTORGADO, one point per distinct street address; no name (the feed names only the holder)","geocoder":"USIG normalizar (servicios.usig.buenosaires.gob.ar), street and number matches in CABA only","refresh":"by hand, when the feed changes"},"features":[{"type":"Feature","geometry":{"type":"Point","coordinates":[-58.464031,-34.567839]},"properties":{"kind":"TERRASSE"}},{"type":"Feature","geometry":{"type":"Point","coordinates":[-58.393493,-34.592178]},"properties":{"kind":"TERRASSE"}},{"type":"Feature","geometry":{"type":"Point","coordinates":[-58.373971,-34.635273]},"properties":{"kind":"TERRASSE"}},{"type":"Feature","geometry":{"type":"Point","coordinates":[-58.437334,-34.574403]},"properties":{"kind":"TERRASSE"}},{"type":"Feature","geometry":{"type":"Point","coordinates":[-58.437213,-34.596076]},"properties":{"kind":"TERRASSE"}},{"type":"Feature","geometry":{"type":"Point","coordinates":[-58.363581,-34.613309]},"properties":{"kind":"TERRASSE"}},{"type":"Feature","geometry":{"type":"Point","coordinates":[-58.419274,-34.595492]},"properties":{"kind":"TERRASSE"}},{"type":"Feature","geometry":{"type":"Point","coordinates":[-58.465717,-34.546636]},"properties":{"kind":"TERRASSE"}},{"type":"Feature","geometry":{"type":"Point","coordinates":[-58.443503,-34.625218]},"properties":{"kind":"TERRASSE"}},{"type":"Feature","geometry":{"type":"Point","coordinates":[-58.430108,-34.590161]},"properties":{"kind":"TERRASSE"}},{"type":"Feature","geometry":{"type":"Point","coordinates":[-58.371795,-34.626566]},"properties":{"kind":"TERRASSE"}},{"type":"Feature","geometry":{"type":"Point","coordinates":[-58.475741,-34.667872]},"properties":{"kind":"TERRASSE"}},{"type":"Feature","geometry":{"type":"Point","coordinates":[-58.425809,-34.590343]},"properties":{"kind":"TERRASSE"}},{"type":"Feature","geometry":{"type":"Point","coordinates":[-58.43214,-34.58043]},"properties":{"kind":"TERRASSE"}},{"type":"Feature","geometry":{"type":"Point","coordinates":[-58.479631,-34.57282]},"properties":{"kind":"TERRASSE"}},{"type":"Feature","geometry":{"type":"Point","coordinates":[-58.495403,-34.623651]},"properties":{"kind":"TERRASSE"}},{"type":"Feature","geometry":{"type":"Point","coordinates":[-58.437726,-34.584588]},"properties":{"kind":"TERRASSE"}},{"type":"Feature","geometry":{"type":"Point","coordinates":[-58.427155,-34.583935]},"properties":{"kind":"TERRASSE"}},{"type":"Feature","geometry":{"type":"Point","coordinates":[-58.424869,-34.587059]},"properties":{"kind":"TERRASSE"}},{"type":"Feature","geometry":{"type":"Point","coordinates":[-58.480906,-34.552281]},"properties":{"kind":"TERRASSE"}},{"type":"Feature","geometry":{"type":"Point","coordinates":[-58.470846,-34.553996]},"properties":{"kind":"TERRASSE"}},{"type":"Feature","geometry":{"type":"Point","coordinates":[-58.45566,-34.550328]},"properties":{"kind":"TERRASSE"}},{"type":"Feature","geometry":{"type":"Point","coordinates":[-58.456531,-34.559153]},"properties":{"kind":"TERRASSE"}},{"type":"Feature","geometry":{"type":"Point","coordinates":[-58.426149,-34.583458]},"properties":{"kind":"TERRASSE"}},{"type":"Feature","geometry":{"type":"Point","coordinates":[-58.418238,-34.583703]},"properties":{"kind":"TERRASSE"}},{"type":"Feature","geometry":{"type":"Point","coordinates":[-58.433078,-34.592418]},"properties":{"kind":"TERRASSE"}},{"type":"Feature","geometry":{"type":"Point","coordinates":[-58.364541,-34.637021]},"properties":{"kind":"TERRASSE"}},{"type":"Feature","geometry":{"type":"Point","coordinates":[-58.412675,-34.57911]},"properties":{"kind":"TERRASSE"}},{"type":"Feature","geometry":{"type":"Point","coordinates":[-58.433967,-34.570062]},"properties":{"kind":"TERRASSE"}},{"type":"Feature","geometry":{"type":"Point","coordinates":[-58.439085,-34.595757]},"properties":{"kind":"TERRASSE"}},{"type":"Feature","geometry":{"type":"Point","coordinates":[-58.453531,-34.573426]},"properties":{"kind":"TERRASSE"}},{"type":"Feature","geometry":{"type":"Point","coordinates":[-58.426739,-34.590632]},"properties":{"kind":"TERRASSE"}},{"type":"Feature","geometry":{"type":"Point","coordinates":[-58.438964,-34.62632]},"properties":{"kind":"TERRASSE"}},{"type":"Feature","geometry":{"type":"Point","coordinates":[-58.363753,-34.611073]},"properties":{"kind":"TERRASSE"}},{"type":"Feature","geometry":{"type":"Point","coordinates":[-58.382763,-34.595924]},"properties":{"kind":"TERRASSE"}},{"type":"Feature","geometry":{"type":"Point","coordinates":[-58.50805,-34.600104]},"properties":{"kind":"TERRASSE"}},{"type":"Feature","geometry":{"type":"Point","coordinates":[-58.387498,-34.604069]},"properties":{"kind":"TERRASSE"}},{"type":"Feature","geometry":{"type":"Point","coordinates":[-58.370703,-34.61597]},"properties":{"kind":"TERRASSE"}},{"type":"Feature","geometry":{"type":"Point","coordinates":[-58.476157,-34.553315]},"properties":{"kind":"TERRASSE"}},{"type":"Feature","geometry":{"type":"Point","coordinates":[-58.521504,-34.627822]},"properties":{"kind":"TERRASSE"}},{"type":"Feature","geometry":{"type":"Point","coordinates":[-58.415361,-34.652328]},"properties":{"kind":"TERRASSE"}},{"type":"Feature","geometry":{"type":"Point","coordinates":[-58.494707,-34.588462]},"properties":{"kind":"TERRASSE"}},{"type":"Feature","geometry":{"type":"Point","coordinates":[-58.443547,-34.559622]},"properties":{"kind":"TERRASSE"}},{"type":"Feature","geometry":{"type":"Point","coordinates":[-58.423814,-34.594729]},"properties":{"kind":"TERRASSE"}},{"type":"Feature","geometry":{"type":"Point","coordinates":[-58.381901,-34.624694]},"properties":{"kind":"TERRASSE"}},{"type":"Feature","geometry":{"type":"Point","coordinates":[-58.487464,-34.558746]},"properties":{"kind":"TERRASSE"}},{"type":"Feature","geometry":{"type":"Point","coordinates":[-58.431627,-34.59772]},"properties":{"kind":"TERRASSE"}},{"type":"Feature","geometry":{"type":"Point","coordinates":[-58.438672,-34.587523]},"properties":{"kind":"TERRASSE"}},{"type":"Feature","geometry":{"type":"Point","coordinates":[-58.470969,-34.631176]},"properties":{"kind":"TERRASSE"}},{"type":"Feature","geometry":{"type":"Point","coordinates":[-58.433577,-34.587325]},"properties":{"kind":"TERRASSE"}},{"type":"Feature","geometry":{"type":"Point","coordinates":[-58.438451,-34.610333]},"properties":{"kind":"TERRASSE"}},{"type":"Feature","geometry":{"type":"Point","coordinates":[-58.433397,-34.57079]},"properties":{"kind":"TERRASSE"}},{"type":"Feature","geometry":{"type":"Point","coordinates":[-58.372934,-34.619139]},"properties":{"kind":"TERRASSE"}},{"type":"Feature","geometry":{"type":"Point","coordinates":[-58.395225,-34.586228]},"properties":{"kind":"TERRASSE"}},{"type":"Feature","geometry":{"type":"Point","coordinates":[-58.443794,-34.583843]},"properties":{"kind":"TERRASSE"}},{"type":"Feature","geometry":{"type":"Point","coordinates":[-58.404917,-34.59724]},"properties":{"kind":"TERRASSE"}},{"type":"Feature","geometry":{"type":"Point","coordinates":[-58.438845,-34.603673]},"properties":{"kind":"TERRASSE"}},{"type":"Feature","geometry":{"type":"Point","coordinates":[-58.466396,-34.557239]},"properties":{"kind":"TERRASSE"}},{"type":"Feature","geometry":{"type":"Point","coordinates":[-58.47147,-34.54604]},"properties":{"kind":"TERRASSE"}},{"type":"Feature","geometry":{"type":"Point","coordinates":[-58.370897,-34.624135]},"properties":{"kind":"TERRASSE"}},{"type":"Feature","geometry":{"type":"Point","coordinates":[-58.395865,-34.604591]},"properties":{"kind":"TERRASSE"}},{"type":"Feature","geometry":{"type":"Point","coordinates":[-58.445432,-34.615646]},"properties":{"kind":"TERRASSE"}},{"type":"Feature","geometry":{"type":"Point","coordinates":[-58.441931,-34.574117]},"properties":{"kind":"TERRASSE"}},{"type":"Feature","geometry":{"type":"Point","coordinates":[-58.451772,-34.556029]},"properties":{"kind":"TERRASSE"}},{"type":"Feature","geometry":{"type":"Point","coordinates":[-58.4239,-34.58927]},"properties":{"kind":"TERRASSE"}},{"type":"Feature","geometry":{"type":"Point","coordinates":[-58.452019,-34.586869]},"properties":{"kind":"TERRASSE"}},{"type":"Feature","geometry":{"type":"Point","coordinates":[-58.416249,-34.600471]},"properties":{"kind":"TERRASSE"}},{"type":"Feature","geometry":{"type":"Point","coordinates":[-58.394518,-34.595011]},"properties":{"kind":"TERRASSE"}},{"type":"Feature","geometry":{"type":"Point","coordinates":[-58.475021,-34.550116]},"properties":{"kind":"TERRASSE"}},{"type":"Feature","geometry":{"type":"Point","coordinates":[-58.459417,-34.550851]},"properties":{"kind":"TERRASSE"}},{"type":"Feature","geometry":{"type":"Point","coordinates":[-58.436149,-34.596621]},"properties":{"kind":"TERRASSE"}},{"type":"Feature","geometry":{"type":"Point","coordinates":[-58.413323,-34.604963]},"properties":{"kind":"TERRASSE"}},{"type":"Feature","geometry":{"type":"Point","coordinates":[-58.451733,-34.615676]},"properties":{"kind":"TERRASSE"}},{"type":"Feature","geometry":{"type":"Point","coordinates":[-58.505269,-34.572262]},"properties":{"kind":"TERRASSE"}},{"type":"Feature","geometry":{"type":"Point","coordinates":[-58.434221,-34.620105]},"properties":{"kind":"TERRASSE"}},{"type":"Feature","geometry":{"type":"Point","coordinates":[-58.436802,-34.604162]},"properties":{"kind":"TERRASSE"}},{"type":"Feature","geometry":{"type":"Point","coordinates":[-58.461114,-34.566113]},"properties":{"kind":"TERRASSE"}},{"type":"Feature","geometry":{"type":"Point","coordinates":[-58.416536,-34.648236]},"properties":{"kind":"TERRASSE"}},{"type":"Feature","geometry":{"type":"Point","coordinates":[-58.465833,-34.562569]},"properties":{"kind":"TERRASSE"}},{"type":"Feature","geometry":{"type":"Point","coordinates":[-58.434621,-34.590441]},"properties":{"kind":"TERRASSE"}},{"type":"Feature","geometry":{"type":"Point","coordinates":[-58.454635,-34.627531]},"properties":{"kind":"TERRASSE"}},{"type":"Feature","geometry":{"type":"Point","coordinates":[-58.422792,-34.593124]},"properties":{"kind":"TERRASSE"}},{"type":"Feature","geometry":{"type":"Point","coordinates":[-58.414413,-34.602845]},"properties":{"kind":"TERRASSE"}},{"type":"Feature","geometry":{"type":"Point","coordinates":[-58.443946,-34.609926]},"properties":{"kind":"TERRASSE"}},{"type":"Feature","geometry":{"type":"Point","coordinates":[-58.516997,-34.610553]},"properties":{"kind":"TERRASSE"}},{"type":"Feature","geometry":{"type":"Point","coordinates":[-58.419618,-34.624684]},"properties":{"kind":"TERRASSE"}},{"type":"Feature","geometry":{"type":"Point","coordinates":[-58.454077,-34.574265]},"properties":{"kind":"TERRASSE"}},{"type":"Feature","geometry":{"type":"Point","coordinates":[-58.46817,-34.562179]},"properties":{"kind":"TERRASSE"}},{"type":"Feature","geometry":{"type":"Point","coordinates":[-58.385247,-34.590813]},"properties":{"kind":"TERRASSE"}},{"type":"Feature","geometry":{"type":"Point","coordinates":[-58.446708,-34.592656]},"properties":{"kind":"TERRASSE"}},{"type":"Feature","geometry":{"type":"Point","coordinates":[-58.464411,-34.547244]},"properties":{"kind":"TERRASSE"}},{"type":"Feature","geometry":{"type":"Point","coordinates":[-58.426149,-34.583458]},"properties":{"kind":"TERRASSE"}},{"type":"Feature","geometry":{"type":"Point","coordinates":[-58.415237,-34.595541]},"properties":{"kind":"TERRASSE"}},{"type":"Feature","geometry":{"type":"Point","coordinates":[-58.49331,-34.607634]},"properties":{"kind":"TERRASSE"}},{"type":"Feature","geometry":{"type":"Point","coordinates":[-58.432514,-34.58849]},"properties":{"kind":"TERRASSE"}},{"type":"Feature","geometry":{"type":"Point","coordinates":[-58.46799,-34.559412]},"properties":{"kind":"TERRASSE"}},{"type":"Feature","geometry":{"type":"Point","coordinates":[-58.446867,-34.592508]},"properties":{"kind":"TERRASSE"}},{"type":"Feature","geometry":{"type":"Point","coordinates":[-58.44771,-34.615439]},"properties":{"kind":"TERRASSE"}},{"type":"Feature","geometry":{"type":"Point","coordinates":[-58.462238,-34.598537]},"properties":{"kind":"TERRASSE"}},{"type":"Feature","geometry":{"type":"Point","coordinates":[-58.444886,-34.586986]},"properties":{"kind":"TERRASSE"}},{"type":"Feature","geometry":{"type":"Point","coordinates":[-58.439951,-34.570121]},"properties":{"kind":"TERRASSE"}},{"type":"Feature","geometry":{"type":"Point","coordinates":[-58.519741,-34.629467]},"properties":{"kind":"TERRASSE"}},{"type":"Feature","geometry":{"type":"Point","coordinates":[-58.455683,-34.572155]},"properties":{"kind":"TERRASSE"}},{"type":"Feature","geometry":{"type":"Point","coordinates":[-58.381212,-34.596704]},"properties":{"kind":"TERRASSE"}},{"type":"Feature","geometry":{"type":"Point","coordinates":[-58.437473,-34.608711]},"properties":{"kind":"TERRASSE"}},{"type":"Feature","geometry":{"type":"Point","coordinates":[-58.513986,-34.599383]},"properties":{"kind":"TERRASSE"}},{"type":"Feature","geometry":{"type":"Point","coordinates":[-58.393652,-34.622781]},"properties":{"kind":"TERRASSE"}},{"type":"Feature","geometry":{"type":"Point","coordinates":[-58.457726,-34.577126]},"properties":{"kind":"TERRASSE"}},{"type":"Feature","geometry":{"type":"Point","coordinates":[-58.46222,-34.576067]},"properties":{"kind":"TERRASSE"}},{"type":"Feature","geometry":{"type":"Point","coordinates":[-58.382321,-34.60273]},"properties":{"kind":"TERRASSE"}},{"type":"Feature","geometry":{"type":"Point","coordinates":[-58.483543,-34.566345]},"properties":{"kind":"TERRASSE"}},{"type":"Feature","geometry":{"type":"Point","coordinates":[-58.49167,-34.571976]},"properties":{"kind":"TERRASSE"}},{"type":"Feature","geometry":{"type":"Point","coordinates":[-58.452664,-34.552679]},"properties":{"kind":"TERRASSE"}},{"type":"Feature","geometry":{"type":"Point","coordinates":[-58.508488,-34.60864]},"properties":{"kind":"TERRASSE"}},{"type":"Feature","geometry":{"type":"Point","coordinates":[-58.448194,-34.604905]},"properties":{"kind":"TERRASSE"}},{"type":"Feature","geometry":{"type":"Point","coordinates":[-58.432315,-34.580733]},"properties":{"kind":"TERRASSE"}},{"type":"Feature","geometry":{"type":"Point","coordinates":[-58.440428,-34.573869]},"properties":{"kind":"TERRASSE"}},{"type":"Feature","geometry":{"type":"Point","coordinates":[-58.385312,-34.603838]},"properties":{"kind":"TERRASSE"}},{"type":"Feature","geometry":{"type":"Point","coordinates":[-58.443413,-34.592846]},"properties":{"kind":"TERRASSE"}},{"type":"Feature","geometry":{"type":"Point","coordinates":[-58.458921,-34.554886]},"properties":{"kind":"TERRASSE"}},{"type":"Feature","geometry":{"type":"Point","coordinates":[-58.435498,-34.569902]},"properties":{"kind":"TERRASSE"}},{"type":"Feature","geometry":{"type":"Point","coordinates":[-58.396182,-34.594609]},"properties":{"kind":"TERRASSE"}},{"type":"Feature","geometry":{"type":"Point","coordinates":[-58.413611,-34.591614]},"properties":{"kind":"TERRASSE"}},{"type":"Feature","geometry":{"type":"Point","coordinates":[-58.453574,-34.626403]},"properties":{"kind":"TERRASSE"}},{"type":"Feature","geometry":{"type":"Point","coordinates":[-58.45941,-34.61411]},"properties":{"kind":"TERRASSE"}},{"type":"Feature","geometry":{"type":"Point","coordinates":[-58.462575,-34.628893]},"properties":{"kind":"TERRASSE"}},{"type":"Feature","geometry":{"type":"Point","coordinates":[-58.407849,-34.597032]},"properties":{"kind":"TERRASSE"}},{"type":"Feature","geometry":{"type":"Point","coordinates":[-58.460138,-34.578517]},"properties":{"kind":"TERRASSE"}},{"type":"Feature","geometry":{"type":"Point","coordinates":[-58.479249,-34.566717]},"properties":{"kind":"TERRASSE"}},{"type":"Feature","geometry":{"type":"Point","coordinates":[-58.416632,-34.594025]},"properties":{"kind":"TERRASSE"}},{"type":"Feature","geometry":{"type":"Point","coordinates":[-58.425855,-34.590047]},"properties":{"kind":"TERRASSE"}},{"type":"Feature","geometry":{"type":"Point","coordinates":[-58.364237,-34.606833]},"properties":{"kind":"TERRASSE"}},{"type":"Feature","geometry":{"type":"Point","coordinates":[-58.518128,-34.598793]},"properties":{"kind":"TERRASSE"}},{"type":"Feature","geometry":{"type":"Point","coordinates":[-58.49864,-34.583991]},"properties":{"kind":"TERRASSE"}},{"type":"Feature","geometry":{"type":"Point","coordinates":[-58.442976,-34.624035]},"properties":{"kind":"TERRASSE"}},{"type":"Feature","geometry":{"type":"Point","coordinates":[-58.435039,-34.595915]},"properties":{"kind":"TERRASSE"}},{"type":"Feature","geometry":{"type":"Point","coordinates":[-58.419882,-34.608455]},"properties":{"kind":"TERRASSE"}},{"type":"Feature","geometry":{"type":"Point","coordinates":[-58.3784,-34.597786]},"properties":{"kind":"TERRASSE"}},{"type":"Feature","geometry":{"type":"Point","coordinates":[-58.446783,-34.568893]},"properties":{"kind":"TERRASSE"}},{"type":"Feature","geometry":{"type":"Point","coordinates":[-58.439417,-34.59711]},"properties":{"kind":"TERRASSE"}},{"type":"Feature","geometry":{"type":"Point","coordinates":[-58.411431,-34.59602]},"properties":{"kind":"TERRASSE"}},{"type":"Feature","geometry":{"type":"Point","coordinates":[-58.40574,-34.601704]},"properties":{"kind":"TERRASSE"}},{"type":"Feature","geometry":{"type":"Point","coordinates":[-58.440162,-34.587709]},"properties":{"kind":"TERRASSE"}},{"type":"Feature","geometry":{"type":"Point","coordinates":[-58.491726,-34.55437]},"properties":{"kind":"TERRASSE"}},{"type":"Feature","geometry":{"type":"Point","coordinates":[-58.508633,-34.620082]},"properties":{"kind":"TERRASSE"}},{"type":"Feature","geometry":{"type":"Point","coordinates":[-58.493774,-34.567439]},"properties":{"kind":"TERRASSE"}},{"type":"Feature","geometry":{"type":"Point","coordinates":[-58.380675,-34.603568]},"properties":{"kind":"TERRASSE"}},{"type":"Feature","geometry":{"type":"Point","coordinates":[-58.527409,-34.642512]},"properties":{"kind":"TERRASSE"}},{"type":"Feature","geometry":{"type":"Point","coordinates":[-58.432556,-34.625611]},"properties":{"kind":"TERRASSE"}},{"type":"Feature","geometry":{"type":"Point","coordinates":[-58.446135,-34.59365]},"properties":{"kind":"TERRASSE"}},{"type":"Feature","geometry":{"type":"Point","coordinates":[-58.379923,-34.594921]},"properties":{"kind":"TERRASSE"}},{"type":"Feature","geometry":{"type":"Point","coordinates":[-58.406703,-34.60475]},"properties":{"kind":"TERRASSE"}},{"type":"Feature","geometry":{"type":"Point","coordinates":[-58.404442,-34.601016]},"properties":{"kind":"TERRASSE"}},{"type":"Feature","geometry":{"type":"Point","coordinates":[-58.502319,-34.609136]},"properties":{"kind":"TERRASSE"}},{"type":"Feature","geometry":{"type":"Point","coordinates":[-58.431379,-34.620904]},"properties":{"kind":"TERRASSE"}},{"type":"Feature","geometry":{"type":"Point","coordinates":[-58.443101,-34.583365]},"properties":{"kind":"TERRASSE"}},{"type":"Feature","geometry":{"type":"Point","coordinates":[-58.488854,-34.569141]},"properties":{"kind":"TERRASSE"}},{"type":"Feature","geometry":{"type":"Point","coordinates":[-58.425534,-34.588206]},"properties":{"kind":"TERRASSE"}},{"type":"Feature","geometry":{"type":"Point","coordinates":[-58.379924,-34.591466]},"properties":{"kind":"TERRASSE"}},{"type":"Feature","geometry":{"type":"Point","coordinates":[-58.461813,-34.562201]},"properties":{"kind":"TERRASSE"}},{"type":"Feature","geometry":{"type":"Point","coordinates":[-58.407096,-34.596259]},"properties":{"kind":"TERRASSE"}},{"type":"Feature","geometry":{"type":"Point","coordinates":[-58.396362,-34.589225]},"properties":{"kind":"TERRASSE"}},{"type":"Feature","geometry":{"type":"Point","coordinates":[-58.483513,-34.572593]},"properties":{"kind":"TERRASSE"}},{"type":"Feature","geometry":{"type":"Point","coordinates":[-58.44856,-34.627886]},"properties":{"kind":"TERRASSE"}},{"type":"Feature","geometry":{"type":"Point","coordinates":[-58.389528,-34.60431]},"properties":{"kind":"TERRASSE"}},{"type":"Feature","geometry":{"type":"Point","coordinates":[-58.45482,-34.675047]},"properties":{"kind":"TERRASSE"}},{"type":"Feature","geometry":{"type":"Point","coordinates":[-58.452467,-34.584727]},"properties":{"kind":"TERRASSE"}},{"type":"Feature","geometry":{"type":"Point","coordinates":[-58.437863,-34.614321]},"properties":{"kind":"TERRASSE"}},{"type":"Feature","geometry":{"type":"Point","coordinates":[-58.50895,-34.587958]},"properties":{"kind":"TERRASSE"}},{"type":"Feature","geometry":{"type":"Point","coordinates":[-58.45778,-34.556948]},"properties":{"kind":"TERRASSE"}},{"type":"Feature","geometry":{"type":"Point","coordinates":[-58.514527,-34.598503]},"properties":{"kind":"TERRASSE"}},{"type":"Feature","geometry":{"type":"Point","coordinates":[-58.400019,-34.583835]},"properties":{"kind":"TERRASSE"}},{"type":"Feature","geometry":{"type":"Point","coordinates":[-58.445066,-34.633067]},"properties":{"kind":"TERRASSE"}},{"type":"Feature","geometry":{"type":"Point","coordinates":[-58.436774,-34.62091]},"properties":{"kind":"TERRASSE"}},{"type":"Feature","geometry":{"type":"Point","coordinates":[-58.464718,-34.542782]},"properties":{"kind":"TERRASSE"}},{"type":"Feature","geometry":{"type":"Point","coordinates":[-58.382516,-34.590149]},"properties":{"kind":"TERRASSE"}},{"type":"Feature","geometry":{"type":"Point","coordinates":[-58.396359,-34.589664]},"properties":{"kind":"TERRASSE"}},{"type":"Feature","geometry":{"type":"Point","coordinates":[-58.43877,-34.608009]},"properties":{"kind":"TERRASSE"}},{"type":"Feature","geometry":{"type":"Point","coordinates":[-58.490243,-34.573156]},"properties":{"kind":"TERRASSE"}},{"type":"Feature","geometry":{"type":"Point","coordinates":[-58.398363,-34.602159]},"properties":{"kind":"TERRASSE"}},{"type":"Feature","geometry":{"type":"Point","coordinates":[-58.466003,-34.616517]},"properties":{"kind":"TERRASSE"}},{"type":"Feature","geometry":{"type":"Point","coordinates":[-58.524929,-34.640442]},"properties":{"kind":"TERRASSE"}},{"type":"Feature","geometry":{"type":"Point","coordinates":[-58.488262,-34.581383]},"properties":{"kind":"TERRASSE"}},{"type":"Feature","geometry":{"type":"Point","coordinates":[-58.464838,-34.541034]},"properties":{"kind":"TERRASSE"}},{"type":"Feature","geometry":{"type":"Point","coordinates":[-58.48272,-34.58753]},"properties":{"kind":"TERRASSE"}},{"type":"Feature","geometry":{"type":"Point","coordinates":[-58.412783,-34.602673]},"properties":{"kind":"TERRASSE"}},{"type":"Feature","geometry":{"type":"Point","coordinates":[-58.373306,-34.603282]},"properties":{"kind":"TERRASSE"}},{"type":"Feature","geometry":{"type":"Point","coordinates":[-58.46854,-34.610478]},"properties":{"kind":"TERRASSE"}},{"type":"Feature","geometry":{"type":"Point","coordinates":[-58.431934,-34.588988]},"properties":{"kind":"TERRASSE"}},{"type":"Feature","geometry":{"type":"Point","coordinates":[-58.496708,-34.601183]},"properties":{"kind":"TERRASSE"}},{"type":"Feature","geometry":{"type":"Point","coordinates":[-58.430284,-34.587434]},"properties":{"kind":"TERRASSE"}},{"type":"Feature","geometry":{"type":"Point","coordinates":[-58.376756,-34.608808]},"properties":{"kind":"TERRASSE"}},{"type":"Feature","geometry":{"type":"Point","coordinates":[-58.379116,-34.602477]},"properties":{"kind":"TERRASSE"}},{"type":"Feature","geometry":{"type":"Point","coordinates":[-58.372946,-34.618954]},"properties":{"kind":"TERRASSE"}},{"type":"Feature","geometry":{"type":"Point","coordinates":[-58.509054,-34.655224]},"properties":{"kind":"TERRASSE"}},{"type":"Feature","geometry":{"type":"Point","coordinates":[-58.439457,-34.581619]},"properties":{"kind":"TERRASSE"}},{"type":"Feature","geometry":{"type":"Point","coordinates":[-58.484562,-34.555055]},"properties":{"kind":"TERRASSE"}},{"type":"Feature","geometry":{"type":"Point","coordinates":[-58.40885,-34.59945]},"properties":{"kind":"TERRASSE"}},{"type":"Feature","geometry":{"type":"Point","coordinates":[-58.425576,-34.585518]},"properties":{"kind":"TERRASSE"}},{"type":"Feature","geometry":{"type":"Point","coordinates":[-58.370814,-34.630895]},"properties":{"kind":"TERRASSE"}},{"type":"Feature","geometry":{"type":"Point","coordinates":[-58.507209,-34.592998]},"properties":{"kind":"TERRASSE"}},{"type":"Feature","geometry":{"type":"Point","coordinates":[-58.404161,-34.600138]},"properties":{"kind":"TERRASSE"}},{"type":"Feature","geometry":{"type":"Point","coordinates":[-58.385567,-34.598631]},"properties":{"kind":"TERRASSE"}},{"type":"Feature","geometry":{"type":"Point","coordinates":[-58.367871,-34.613725]},"properties":{"kind":"TERRASSE"}},{"type":"Feature","geometry":{"type":"Point","coordinates":[-58.41795,-34.631692]},"properties":{"kind":"TERRASSE"}},{"type":"Feature","geometry":{"type":"Point","coordinates":[-58.460866,-34.565879]},"properties":{"kind":"TERRASSE"}},{"type":"Feature","geometry":{"type":"Point","coordinates":[-58.372126,-34.629212]},"properties":{"kind":"TERRASSE"}},{"type":"Feature","geometry":{"type":"Point","coordinates":[-58.37736,-34.602383]},"properties":{"kind":"TERRASSE"}},{"type":"Feature","geometry":{"type":"Point","coordinates":[-58.36355,-34.611058]},"properties":{"kind":"TERRASSE"}},{"type":"Feature","geometry":{"type":"Point","coordinates":[-58.519906,-34.611563]},"properties":{"kind":"TERRASSE"}},{"type":"Feature","geometry":{"type":"Point","coordinates":[-58.441778,-34.623276]},"properties":{"kind":"TERRASSE"}},{"type":"Feature","geometry":{"type":"Point","coordinates":[-58.514544,-34.599066]},"properties":{"kind":"TERRASSE"}},{"type":"Feature","geometry":{"type":"Point","coordinates":[-58.437334,-34.574403]},"properties":{"kind":"TERRASSE"}},{"type":"Feature","geometry":{"type":"Point","coordinates":[-58.426791,-34.594669]},"properties":{"kind":"TERRASSE"}},{"type":"Feature","geometry":{"type":"Point","coordinates":[-58.444756,-34.572352]},"properties":{"kind":"TERRASSE"}},{"type":"Feature","geometry":{"type":"Point","coordinates":[-58.44679,-34.555969]},"properties":{"kind":"TERRASSE"}},{"type":"Feature","geometry":{"type":"Point","coordinates":[-58.487078,-34.558925]},"properties":{"kind":"TERRASSE"}},{"type":"Feature","geometry":{"type":"Point","coordinates":[-58.425211,-34.599304]},"properties":{"kind":"TERRASSE"}},{"type":"Feature","geometry":{"type":"Point","coordinates":[-58.478744,-34.573676]},"properties":{"kind":"TERRASSE"}},{"type":"Feature","geometry":{"type":"Point","coordinates":[-58.439831,-34.608715]},"properties":{"kind":"TERRASSE"}},{"type":"Feature","geometry":{"type":"Point","coordinates":[-58.449654,-34.584946]},"properties":{"kind":"TERRASSE"}},{"type":"Feature","geometry":{"type":"Point","coordinates":[-58.425675,-34.583635]},"properties":{"kind":"TERRASSE"}},{"type":"Feature","geometry":{"type":"Point","coordinates":[-58.482197,-34.54853]},"properties":{"kind":"TERRASSE"}},{"type":"Feature","geometry":{"type":"Point","coordinates":[-58.477275,-34.575897]},"properties":{"kind":"TERRASSE"}},{"type":"Feature","geometry":{"type":"Point","coordinates":[-58.372965,-34.618672]},"properties":{"kind":"TERRASSE"}},{"type":"Feature","geometry":{"type":"Point","coordinates":[-58.437591,-34.574092]},"properties":{"kind":"TERRASSE"}},{"type":"Feature","geometry":{"type":"Point","coordinates":[-58.479293,-34.548233]},"properties":{"kind":"TERRASSE"}},{"type":"Feature","geometry":{"type":"Point","coordinates":[-58.475369,-34.56443]},"properties":{"kind":"TERRASSE"}},{"type":"Feature","geometry":{"type":"Point","coordinates":[-58.501255,-34.599274]},"properties":{"kind":"TERRASSE"}},{"type":"Feature","geometry":{"type":"Point","coordinates":[-58.434579,-34.600569]},"properties":{"kind":"TERRASSE"}},{"type":"Feature","geometry":{"type":"Point","coordinates":[-58.489448,-34.601454]},"properties":{"kind":"TERRASSE"}},{"type":"Feature","geometry":{"type":"Point","coordinates":[-58.433895,-34.625915]},"properties":{"kind":"TERRASSE"}},{"type":"Feature","geometry":{"type":"Point","coordinates":[-58.486103,-34.578115]},"properties":{"kind":"TERRASSE"}},{"type":"Feature","geometry":{"type":"Point","coordinates":[-58.438311,-34.581026]},"properties":{"kind":"TERRASSE"}},{"type":"Feature","geometry":{"type":"Point","coordinates":[-58.4091,-34.642649]},"properties":{"kind":"TERRASSE"}},{"type":"Feature","geometry":{"type":"Point","coordinates":[-58.378105,-34.603769]},"properties":{"kind":"TERRASSE"}},{"type":"Feature","geometry":{"type":"Point","coordinates":[-58.400102,-34.637462]},"properties":{"kind":"TERRASSE"}},{"type":"Feature","geometry":{"type":"Point","coordinates":[-58.401349,-34.592457]},"properties":{"kind":"TERRASSE"}},{"type":"Feature","geometry":{"type":"Point","coordinates":[-58.494947,-34.581907]},"properties":{"kind":"TERRASSE"}},{"type":"Feature","geometry":{"type":"Point","coordinates":[-58.376621,-34.606466]},"properties":{"kind":"TERRASSE"}},{"type":"Feature","geometry":{"type":"Point","coordinates":[-58.426967,-34.605897]},"properties":{"kind":"TERRASSE"}},{"type":"Feature","geometry":{"type":"Point","coordinates":[-58.477561,-34.687624]},"properties":{"kind":"TERRASSE"}},{"type":"Feature","geometry":{"type":"Point","coordinates":[-58.461016,-34.55731]},"properties":{"kind":"TERRASSE"}},{"type":"Feature","geometry":{"type":"Point","coordinates":[-58.440284,-34.621803]},"properties":{"kind":"TERRASSE"}},{"type":"Feature","geometry":{"type":"Point","coordinates":[-58.371896,-34.619572]},"properties":{"kind":"TERRASSE"}},{"type":"Feature","geometry":{"type":"Point","coordinates":[-58.432572,-34.594467]},"properties":{"kind":"TERRASSE"}},{"type":"Feature","geometry":{"type":"Point","coordinates":[-58.472761,-34.605006]},"properties":{"kind":"TERRASSE"}},{"type":"Feature","geometry":{"type":"Point","coordinates":[-58.442438,-34.611251]},"properties":{"kind":"TERRASSE"}},{"type":"Feature","geometry":{"type":"Point","coordinates":[-58.486628,-34.572508]},"properties":{"kind":"TERRASSE"}},{"type":"Feature","geometry":{"type":"Point","coordinates":[-58.436592,-34.627086]},"properties":{"kind":"TERRASSE"}},{"type":"Feature","geometry":{"type":"Point","coordinates":[-58.47844,-34.629336]},"properties":{"kind":"TERRASSE"}},{"type":"Feature","geometry":{"type":"Point","coordinates":[-58.397215,-34.644741]},"properties":{"kind":"TERRASSE"}},{"type":"Feature","geometry":{"type":"Point","coordinates":[-58.445154,-34.592876]},"properties":{"kind":"TERRASSE"}},{"type":"Feature","geometry":{"type":"Point","coordinates":[-58.456558,-34.575788]},"properties":{"kind":"TERRASSE"}},{"type":"Feature","geometry":{"type":"Point","coordinates":[-58.416103,-34.622462]},"properties":{"kind":"TERRASSE"}},{"type":"Feature","geometry":{"type":"Point","coordinates":[-58.445585,-34.593229]},"properties":{"kind":"TERRASSE"}},{"type":"Feature","geometry":{"type":"Point","coordinates":[-58.4369,-34.633005]},"properties":{"kind":"TERRASSE"}},{"type":"Feature","geometry":{"type":"Point","coordinates":[-58.436804,-34.62207]},"properties":{"kind":"TERRASSE"}},{"type":"Feature","geometry":{"type":"Point","coordinates":[-58.38376,-34.602403]},"properties":{"kind":"TERRASSE"}},{"type":"Feature","geometry":{"type":"Point","coordinates":[-58.402966,-34.614853]},"properties":{"kind":"TERRASSE"}},{"type":"Feature","geometry":{"type":"Point","coordinates":[-58.482841,-34.554298]},"properties":{"kind":"TERRASSE"}},{"type":"Feature","geometry":{"type":"Point","coordinates":[-58.506738,-34.597027]},"properties":{"kind":"TERRASSE"}},{"type":"Feature","geometry":{"type":"Point","coordinates":[-58.502397,-34.649653]},"properties":{"kind":"TERRASSE"}},{"type":"Feature","geometry":{"type":"Point","coordinates":[-58.467322,-34.585411]},"properties":{"kind":"TERRASSE"}},{"type":"Feature","geometry":{"type":"Point","coordinates":[-58.521743,-34.627733]},"properties":{"kind":"TERRASSE"}},{"type":"Feature","geometry":{"type":"Point","coordinates":[-58.471715,-34.588445]},"properties":{"kind":"TERRASSE"}},{"type":"Feature","geometry":{"type":"Point","coordinates":[-58.380863,-34.594174]},"properties":{"kind":"TERRASSE"}},{"type":"Feature","geometry":{"type":"Point","coordinates":[-58.422025,-34.587527]},"properties":{"kind":"TERRASSE"}},{"type":"Feature","geometry":{"type":"Point","coordinates":[-58.437394,-34.585168]},"properties":{"kind":"TERRASSE"}},{"type":"Feature","geometry":{"type":"Point","coordinates":[-58.456762,-34.56518]},"properties":{"kind":"TERRASSE"}},{"type":"Feature","geometry":{"type":"Point","coordinates":[-58.443478,-34.606647]},"properties":{"kind":"TERRASSE"}},{"type":"Feature","geometry":{"type":"Point","coordinates":[-58.483488,-34.550212]},"properties":{"kind":"TERRASSE"}},{"type":"Feature","geometry":{"type":"Point","coordinates":[-58.388696,-34.589426]},"properties":{"kind":"TERRASSE"}},{"type":"Feature","geometry":{"type":"Point","coordinates":[-58.527175,-34.610165]},"properties":{"kind":"TERRASSE"}},{"type":"Feature","geometry":{"type":"Point","coordinates":[-58.437777,-34.60084]},"properties":{"kind":"TERRASSE"}},{"type":"Feature","geometry":{"type":"Point","coordinates":[-58.370549,-34.629848]},"properties":{"kind":"TERRASSE"}},{"type":"Feature","geometry":{"type":"Point","coordinates":[-58.474862,-34.685168]},"properties":{"kind":"TERRASSE"}},{"type":"Feature","geometry":{"type":"Point","coordinates":[-58.450473,-34.628242]},"properties":{"kind":"TERRASSE"}},{"type":"Feature","geometry":{"type":"Point","coordinates":[-58.440831,-34.605937]},"properties":{"kind":"TERRASSE"}},{"type":"Feature","geometry":{"type":"Point","coordinates":[-58.42863,-34.587646]},"properties":{"kind":"TERRASSE"}},{"type":"Feature","geometry":{"type":"Point","coordinates":[-58.47361,-34.57336]},"properties":{"kind":"TERRASSE"}},{"type":"Feature","geometry":{"type":"Point","coordinates":[-58.441259,-34.573307]},"properties":{"kind":"TERRASSE"}},{"type":"Feature","geometry":{"type":"Point","coordinates":[-58.433509,-34.583158]},"properties":{"kind":"TERRASSE"}},{"type":"Feature","geometry":{"type":"Point","coordinates":[-58.451712,-34.568019]},"properties":{"kind":"TERRASSE"}},{"type":"Feature","geometry":{"type":"Point","coordinates":[-58.430964,-34.571896]},"properties":{"kind":"TERRASSE"}},{"type":"Feature","geometry":{"type":"Point","coordinates":[-58.509821,-34.622723]},"properties":{"kind":"TERRASSE"}},{"type":"Feature","geometry":{"type":"Point","coordinates":[-58.458705,-34.563177]},"properties":{"kind":"TERRASSE"}},{"type":"Feature","geometry":{"type":"Point","coordinates":[-58.406561,-34.619557]},"properties":{"kind":"TERRASSE"}},{"type":"Feature","geometry":{"type":"Point","coordinates":[-58.402998,-34.597648]},"properties":{"kind":"TERRASSE"}},{"type":"Feature","geometry":{"type":"Point","coordinates":[-58.408385,-34.581408]},"properties":{"kind":"TERRASSE"}},{"type":"Feature","geometry":{"type":"Point","coordinates":[-58.403599,-34.60441]},"properties":{"kind":"TERRASSE"}},{"type":"Feature","geometry":{"type":"Point","coordinates":[-58.43737,-34.565802]},"properties":{"kind":"TERRASSE"}},{"type":"Feature","geometry":{"type":"Point","coordinates":[-58.449382,-34.584602]},"properties":{"kind":"TERRASSE"}},{"type":"Feature","geometry":{"type":"Point","coordinates":[-58.412288,-34.579252]},"properties":{"kind":"TERRASSE"}},{"type":"Feature","geometry":{"type":"Point","coordinates":[-58.506529,-34.639582]},"properties":{"kind":"TERRASSE"}},{"type":"Feature","geometry":{"type":"Point","coordinates":[-58.460785,-34.565831]},"properties":{"kind":"TERRASSE"}},{"type":"Feature","geometry":{"type":"Point","coordinates":[-58.424193,-34.603783]},"properties":{"kind":"TERRASSE"}},{"type":"Feature","geometry":{"type":"Point","coordinates":[-58.371565,-34.62176]},"properties":{"kind":"TERRASSE"}},{"type":"Feature","geometry":{"type":"Point","coordinates":[-58.439607,-34.592519]},"properties":{"kind":"TERRASSE"}},{"type":"Feature","geometry":{"type":"Point","coordinates":[-58.472858,-34.603801]},"properties":{"kind":"TERRASSE"}},{"type":"Feature","geometry":{"type":"Point","coordinates":[-58.424877,-34.597586]},"properties":{"kind":"TERRASSE"}},{"type":"Feature","geometry":{"type":"Point","coordinates":[-58.439118,-34.577307]},"properties":{"kind":"TERRASSE"}},{"type":"Feature","geometry":{"type":"Point","coordinates":[-58.435599,-34.597956]},"properties":{"kind":"TERRASSE"}},{"type":"Feature","geometry":{"type":"Point","coordinates":[-58.364046,-34.605937]},"properties":{"kind":"TERRASSE"}},{"type":"Feature","geometry":{"type":"Point","coordinates":[-58.426169,-34.608033]},"properties":{"kind":"TERRASSE"}},{"type":"Feature","geometry":{"type":"Point","coordinates":[-58.422579,-34.592832]},"properties":{"kind":"TERRASSE"}},{"type":"Feature","geometry":{"type":"Point","coordinates":[-58.422889,-34.586603]},"properties":{"kind":"TERRASSE"}},{"type":"Feature","geometry":{"type":"Point","coordinates":[-58.451919,-34.566754]},"properties":{"kind":"TERRASSE"}},{"type":"Feature","geometry":{"type":"Point","coordinates":[-58.391925,-34.608247]},"properties":{"kind":"TERRASSE"}},{"type":"Feature","geometry":{"type":"Point","coordinates":[-58.405731,-34.610185]},"properties":{"kind":"TERRASSE"}},{"type":"Feature","geometry":{"type":"Point","coordinates":[-58.413915,-34.638619]},"properties":{"kind":"TERRASSE"}},{"type":"Feature","geometry":{"type":"Point","coordinates":[-58.393629,-34.588922]},"properties":{"kind":"TERRASSE"}},{"type":"Feature","geometry":{"type":"Point","coordinates":[-58.371797,-34.637521]},"properties":{"kind":"TERRASSE"}},{"type":"Feature","geometry":{"type":"Point","coordinates":[-58.452942,-34.565895]},"properties":{"kind":"TERRASSE"}},{"type":"Feature","geometry":{"type":"Point","coordinates":[-58.454518,-34.625731]},"properties":{"kind":"TERRASSE"}},{"type":"Feature","geometry":{"type":"Point","coordinates":[-58.426947,-34.613995]},"properties":{"kind":"TERRASSE"}},{"type":"Feature","geometry":{"type":"Point","coordinates":[-58.474047,-34.541412]},"properties":{"kind":"TERRASSE"}},{"type":"Feature","geometry":{"type":"Point","coordinates":[-58.487155,-34.575]},"properties":{"kind":"TERRASSE"}},{"type":"Feature","geometry":{"type":"Point","coordinates":[-58.456601,-34.560596]},"properties":{"kind":"TERRASSE"}},{"type":"Feature","geometry":{"type":"Point","coordinates":[-58.370479,-34.630655]},"properties":{"kind":"TERRASSE"}},{"type":"Feature","geometry":{"type":"Point","coordinates":[-58.453073,-34.62856]},"properties":{"kind":"TERRASSE"}},{"type":"Feature","geometry":{"type":"Point","coordinates":[-58.47483,-34.577301]},"properties":{"kind":"TERRASSE"}},{"type":"Feature","geometry":{"type":"Point","coordinates":[-58.45415,-34.553622]},"properties":{"kind":"TERRASSE"}},{"type":"Feature","geometry":{"type":"Point","coordinates":[-58.423672,-34.589311]},"properties":{"kind":"TERRASSE"}},{"type":"Feature","geometry":{"type":"Point","coordinates":[-58.489955,-34.649862]},"properties":{"kind":"TERRASSE"}},{"type":"Feature","geometry":{"type":"Point","coordinates":[-58.463572,-34.548501]},"properties":{"kind":"TERRASSE"}},{"type":"Feature","geometry":{"type":"Point","coordinates":[-58.452889,-34.63431]},"properties":{"kind":"TERRASSE"}},{"type":"Feature","geometry":{"type":"Point","coordinates":[-58.431268,-34.573339]},"properties":{"kind":"TERRASSE"}},{"type":"Feature","geometry":{"type":"Point","coordinates":[-58.39168,-34.612138]},"properties":{"kind":"TERRASSE"}},{"type":"Feature","geometry":{"type":"Point","coordinates":[-58.496658,-34.586328]},"properties":{"kind":"TERRASSE"}},{"type":"Feature","geometry":{"type":"Point","coordinates":[-58.415473,-34.625269]},"properties":{"kind":"TERRASSE"}},{"type":"Feature","geometry":{"type":"Point","coordinates":[-58.395199,-34.604969]},"properties":{"kind":"TERRASSE"}},{"type":"Feature","geometry":{"type":"Point","coordinates":[-58.447278,-34.559204]},"properties":{"kind":"TERRASSE"}},{"type":"Feature","geometry":{"type":"Point","coordinates":[-58.434134,-34.620081]},"properties":{"kind":"TERRASSE"}},{"type":"Feature","geometry":{"type":"Point","coordinates":[-58.472715,-34.589013]},"properties":{"kind":"TERRASSE"}},{"type":"Feature","geometry":{"type":"Point","coordinates":[-58.521673,-34.624304]},"properties":{"kind":"TERRASSE"}},{"type":"Feature","geometry":{"type":"Point","coordinates":[-58.422646,-34.596329]},"properties":{"kind":"TERRASSE"}},{"type":"Feature","geometry":{"type":"Point","coordinates":[-58.513736,-34.606973]},"properties":{"kind":"TERRASSE"}},{"type":"Feature","geometry":{"type":"Point","coordinates":[-58.406507,-34.584112]},"properties":{"kind":"TERRASSE"}},{"type":"Feature","geometry":{"type":"Point","coordinates":[-58.372133,-34.62041]},"properties":{"kind":"TERRASSE"}},{"type":"Feature","geometry":{"type":"Point","coordinates":[-58.43281,-34.567256]},"properties":{"kind":"TERRASSE"}},{"type":"Feature","geometry":{"type":"Point","coordinates":[-58.4828,-34.634149]},"properties":{"kind":"TERRASSE"}},{"type":"Feature","geometry":{"type":"Point","coordinates":[-58.449987,-34.58599]},"properties":{"kind":"TERRASSE"}},{"type":"Feature","geometry":{"type":"Point","coordinates":[-58.438209,-34.599626]},"properties":{"kind":"TERRASSE"}},{"type":"Feature","geometry":{"type":"Point","coordinates":[-58.443214,-34.560144]},"properties":{"kind":"TERRASSE"}},{"type":"Feature","geometry":{"type":"Point","coordinates":[-58.412208,-34.577021]},"properties":{"kind":"TERRASSE"}},{"type":"Feature","geometry":{"type":"Point","coordinates":[-58.493349,-34.602517]},"properties":{"kind":"TERRASSE"}},{"type":"Feature","geometry":{"type":"Point","coordinates":[-58.418423,-34.624497]},"properties":{"kind":"TERRASSE"}},{"type":"Feature","geometry":{"type":"Point","coordinates":[-58.412097,-34.627645]},"properties":{"kind":"TERRASSE"}},{"type":"Feature","geometry":{"type":"Point","coordinates":[-58.430263,-34.615458]},"properties":{"kind":"TERRASSE"}},{"type":"Feature","geometry":{"type":"Point","coordinates":[-58.391743,-34.604479]},"properties":{"kind":"TERRASSE"}},{"type":"Feature","geometry":{"type":"Point","coordinates":[-58.485878,-34.574566]},"properties":{"kind":"TERRASSE"}},{"type":"Feature","geometry":{"type":"Point","coordinates":[-58.497256,-34.598836]},"properties":{"kind":"TERRASSE"}},{"type":"Feature","geometry":{"type":"Point","coordinates":[-58.438944,-34.599613]},"properties":{"kind":"TERRASSE"}},{"type":"Feature","geometry":{"type":"Point","coordinates":[-58.477557,-34.633342]},"properties":{"kind":"TERRASSE"}},{"type":"Feature","geometry":{"type":"Point","coordinates":[-58.414783,-34.606531]},"properties":{"kind":"TERRASSE"}},{"type":"Feature","geometry":{"type":"Point","coordinates":[-58.460822,-34.578358]},"properties":{"kind":"TERRASSE"}},{"type":"Feature","geometry":{"type":"Point","coordinates":[-58.40488,-34.61441]},"properties":{"kind":"TERRASSE"}},{"type":"Feature","geometry":{"type":"Point","coordinates":[-58.409579,-34.581134]},"properties":{"kind":"TERRASSE"}},{"type":"Feature","geometry":{"type":"Point","coordinates":[-58.483927,-34.629477]},"properties":{"kind":"TERRASSE"}},{"type":"Feature","geometry":{"type":"Point","coordinates":[-58.472484,-34.543065]},"properties":{"kind":"TERRASSE"}},{"type":"Feature","geometry":{"type":"Point","coordinates":[-58.4052,-34.643532]},"properties":{"kind":"TERRASSE"}},{"type":"Feature","geometry":{"type":"Point","coordinates":[-58.437111,-34.583594]},"properties":{"kind":"TERRASSE"}},{"type":"Feature","geometry":{"type":"Point","coordinates":[-58.511915,-34.601404]},"properties":{"kind":"TERRASSE"}},{"type":"Feature","geometry":{"type":"Point","coordinates":[-58.459605,-34.573134]},"properties":{"kind":"TERRASSE"}},{"type":"Feature","geometry":{"type":"Point","coordinates":[-58.44796,-34.59692]},"properties":{"kind":"TERRASSE"}},{"type":"Feature","geometry":{"type":"Point","coordinates":[-58.447846,-34.56835]},"properties":{"kind":"TERRASSE"}},{"type":"Feature","geometry":{"type":"Point","coordinates":[-58.439189,-34.564693]},"properties":{"kind":"TERRASSE"}},{"type":"Feature","geometry":{"type":"Point","coordinates":[-58.422803,-34.573644]},"properties":{"kind":"TERRASSE"}},{"type":"Feature","geometry":{"type":"Point","coordinates":[-58.480594,-34.552169]},"properties":{"kind":"TERRASSE"}},{"type":"Feature","geometry":{"type":"Point","coordinates":[-58.482963,-34.609316]},"properties":{"kind":"TERRASSE"}},{"type":"Feature","geometry":{"type":"Point","coordinates":[-58.389429,-34.604478]},"properties":{"kind":"TERRASSE"}},{"type":"Feature","geometry":{"type":"Point","coordinates":[-58.439052,-34.586614]},"properties":{"kind":"TERRASSE"}},{"type":"Feature","geometry":{"type":"Point","coordinates":[-58.426321,-34.586268]},"properties":{"kind":"TERRASSE"}},{"type":"Feature","geometry":{"type":"Point","coordinates":[-58.455226,-34.567736]},"properties":{"kind":"TERRASSE"}},{"type":"Feature","geometry":{"type":"Point","coordinates":[-58.454821,-34.586697]},"properties":{"kind":"TERRASSE"}},{"type":"Feature","geometry":{"type":"Point","coordinates":[-58.446046,-34.625723]},"properties":{"kind":"TERRASSE"}},{"type":"Feature","geometry":{"type":"Point","coordinates":[-58.492511,-34.58171]},"properties":{"kind":"TERRASSE"}},{"type":"Feature","geometry":{"type":"Point","coordinates":[-58.444352,-34.629482]},"properties":{"kind":"TERRASSE"}},{"type":"Feature","geometry":{"type":"Point","coordinates":[-58.439975,-34.633724]},"properties":{"kind":"TERRASSE"}},{"type":"Feature","geometry":{"type":"Point","coordinates":[-58.375102,-34.604805]},"properties":{"kind":"TERRASSE"}},{"type":"Feature","geometry":{"type":"Point","coordinates":[-58.474602,-34.585322]},"properties":{"kind":"TERRASSE"}},{"type":"Feature","geometry":{"type":"Point","coordinates":[-58.485052,-34.574421]},"properties":{"kind":"TERRASSE"}},{"type":"Feature","geometry":{"type":"Point","coordinates":[-58.404736,-34.596366]},"properties":{"kind":"TERRASSE"}},{"type":"Feature","geometry":{"type":"Point","coordinates":[-58.516687,-34.649915]},"properties":{"kind":"TERRASSE"}},{"type":"Feature","geometry":{"type":"Point","coordinates":[-58.411111,-34.610418]},"properties":{"kind":"TERRASSE"}},{"type":"Feature","geometry":{"type":"Point","coordinates":[-58.381646,-34.616081]},"properties":{"kind":"TERRASSE"}},{"type":"Feature","geometry":{"type":"Point","coordinates":[-58.390119,-34.604357]},"properties":{"kind":"TERRASSE"}},{"type":"Feature","geometry":{"type":"Point","coordinates":[-58.420897,-34.594225]},"properties":{"kind":"TERRASSE"}},{"type":"Feature","geometry":{"type":"Point","coordinates":[-58.380469,-34.612489]},"properties":{"kind":"TERRASSE"}},{"type":"Feature","geometry":{"type":"Point","coordinates":[-58.428235,-34.592783]},"properties":{"kind":"TERRASSE"}},{"type":"Feature","geometry":{"type":"Point","coordinates":[-58.43866,-34.607624]},"properties":{"kind":"TERRASSE"}},{"type":"Feature","geometry":{"type":"Point","coordinates":[-58.375371,-34.601445]},"properties":{"kind":"TERRASSE"}},{"type":"Feature","geometry":{"type":"Point","coordinates":[-58.387308,-34.587361]},"properties":{"kind":"TERRASSE"}},{"type":"Feature","geometry":{"type":"Point","coordinates":[-58.505733,-34.614504]},"properties":{"kind":"TERRASSE"}},{"type":"Feature","geometry":{"type":"Point","coordinates":[-58.386594,-34.62701]},"properties":{"kind":"TERRASSE"}},{"type":"Feature","geometry":{"type":"Point","coordinates":[-58.376805,-34.624648]},"properties":{"kind":"TERRASSE"}},{"type":"Feature","geometry":{"type":"Point","coordinates":[-58.460015,-34.574952]},"properties":{"kind":"TERRASSE"}},{"type":"Feature","geometry":{"type":"Point","coordinates":[-58.41775,-34.606899]},"properties":{"kind":"TERRASSE"}},{"type":"Feature","geometry":{"type":"Point","coordinates":[-58.513669,-34.601554]},"properties":{"kind":"TERRASSE"}},{"type":"Feature","geometry":{"type":"Point","coordinates":[-58.397677,-34.590478]},"properties":{"kind":"TERRASSE"}},{"type":"Feature","geometry":{"type":"Point","coordinates":[-58.451826,-34.555966]},"properties":{"kind":"TERRASSE"}},{"type":"Feature","geometry":{"type":"Point","coordinates":[-58.457251,-34.628568]},"properties":{"kind":"TERRASSE"}},{"type":"Feature","geometry":{"type":"Point","coordinates":[-58.442817,-34.617117]},"properties":{"kind":"TERRASSE"}},{"type":"Feature","geometry":{"type":"Point","coordinates":[-58.420777,-34.611314]},"properties":{"kind":"TERRASSE"}},{"type":"Feature","geometry":{"type":"Point","coordinates":[-58.474421,-34.573541]},"properties":{"kind":"TERRASSE"}},{"type":"Feature","geometry":{"type":"Point","coordinates":[-58.383859,-34.603752]},"properties":{"kind":"TERRASSE"}},{"type":"Feature","geometry":{"type":"Point","coordinates":[-58.444792,-34.556451]},"properties":{"kind":"TERRASSE"}},{"type":"Feature","geometry":{"type":"Point","coordinates":[-58.433608,-34.567823]},"properties":{"kind":"TERRASSE"}},{"type":"Feature","geometry":{"type":"Point","coordinates":[-58.463096,-34.565875]},"properties":{"kind":"TERRASSE"}},{"type":"Feature","geometry":{"type":"Point","coordinates":[-58.450673,-34.555585]},"properties":{"kind":"TERRASSE"}},{"type":"Feature","geometry":{"type":"Point","coordinates":[-58.523015,-34.60626]},"properties":{"kind":"TERRASSE"}},{"type":"Feature","geometry":{"type":"Point","coordinates":[-58.436267,-34.633873]},"properties":{"kind":"TERRASSE"}},{"type":"Feature","geometry":{"type":"Point","coordinates":[-58.438368,-34.566968]},"properties":{"kind":"TERRASSE"}},{"type":"Feature","geometry":{"type":"Point","coordinates":[-58.373402,-34.610561]},"properties":{"kind":"TERRASSE"}},{"type":"Feature","geometry":{"type":"Point","coordinates":[-58.387331,-34.594129]},"properties":{"kind":"TERRASSE"}},{"type":"Feature","geometry":{"type":"Point","coordinates":[-58.459809,-34.576306]},"properties":{"kind":"TERRASSE"}}]}
