{"type": "FeatureCollection", "_source": {"feed": "https://www.edinburgh.gov.uk/downloads/file/25969/tables-and-chairs-permits", "dataset": "https://www.edinburgh.gov.uk/licences-permits/view-existing-tables-chairs-permits", "publisher": "City of Edinburgh Council", "licence": "© City of Edinburgh Council (used at the owner's risk, DECISIONS.md)", "downloaded": "2026-10-05", "kept": "issued permits valid on the day of the snapshot; premises name only", "geocoder": "OpenStreetMap Nominatim (ODbL), house number and road checked; else the postcode's centre from postcodes.io (ONS Postcode Directory, OGL), marked placed=postcode", "refresh": "by hand, when the feed changes: permits/geocode_edinburgh.py"}, "features": [{"type": "Feature", "geometry": {"type": "Point", "coordinates": [-3.185191, 55.946409]}, "properties": {"name": "1505 Cafe", "kind": "TERRASSE", "placed": "house"}}, {"type": "Feature", "geometry": {"type": "Point", "coordinates": [-3.180769, 55.961036]}, "properties": {"name": "Al VOW Ltd", "kind": "TERRASSE", "placed": "house"}}, {"type": "Feature", "geometry": {"type": "Point", "coordinates": [-3.20945, 55.926873]}, "properties": {"name": "Alaburrito", "kind": "TERRASSE", "placed": "house"}}, {"type": "Feature", "geometry": {"type": "Point", "coordinates": [-3.195177, 55.947891]}, "properties": {"name": "Alba Bistro", "kind": "TERRASSE", "placed": "house"}}, {"type": "Feature", "geometry": {"type": "Point", "coordinates": [-3.188416, 55.950133]}, "properties": {"name": "Albanach", "kind": "TERRASSE", "placed": "house"}}, {"type": "Feature", "geometry": {"type": "Point", "coordinates": [-3.174804, 55.966681]}, "properties": {"name": "Alhambra Bar", "kind": "TERRASSE", "placed": "house"}}, {"type": "Feature", "geometry": {"type": "Point", "coordinates": [-3.197027, 55.953722]}, "properties": {"name": "All Bar One", "kind": "TERRASSE", "placed": "house"}}, {"type": "Feature", "geometry": {"type": "Point", "coordinates": [-3.203414, 55.95181]}, "properties": {"name": "Amber Rose", "kind": "TERRASSE", "placed": "house"}}, {"type": "Feature", "geometry": {"type": "Point", "coordinates": [-3.207812, 55.950679]}, "properties": {"name": "Angels Share Hotel", "kind": "TERRASSE", "placed": "house"}}, {"type": "Feature", "geometry": {"type": "Point", "coordinates": [-3.170782, 55.956982]}, "properties": {"name": "Art and Vintage", "kind": "TERRASSE", "placed": "house"}}, {"type": "Feature", "geometry": {"type": "Point", "coordinates": [-3.207837, 55.93642]}, "properties": {"name": "Artisan Roast", "kind": "TERRASSE", "placed": "house"}}, {"type": "Feature", "geometry": {"type": "Point", "coordinates": [-3.213846, 55.959352]}, "properties": {"name": "Artisan Roast", "kind": "TERRASSE", "placed": "postcode"}}, {"type": "Feature", "geometry": {"type": "Point", "coordinates": [-3.173388, 55.969475]}, "properties": {"name": "Artisan Roast", "kind": "TERRASSE", "placed": "postcode"}}, {"type": "Feature", "geometry": {"type": "Point", "coordinates": [-3.199363, 55.952339]}, "properties": {"name": "Auld Hundred", "kind": "TERRASSE", "placed": "house"}}, {"type": "Feature", "geometry": {"type": "Point", "coordinates": [-3.191611, 55.947283]}, "properties": {"name": "Auld Jock's Cafe", "kind": "TERRASSE", "placed": "house"}}, {"type": "Feature", "geometry": {"type": "Point", "coordinates": [-3.194093, 55.947929]}, "properties": {"name": "Avesta Bistro", "kind": "TERRASSE", "placed": "house"}}, {"type": "Feature", "geometry": {"type": "Point", "coordinates": [-3.197385, 55.954895]}, "properties": {"name": "B'stard Barista", "kind": "TERRASSE", "placed": "house"}}, {"type": "Feature", "geometry": {"type": "Point", "coordinates": [-3.201529, 55.942605]}, "properties": {"name": "Babka", "kind": "TERRASSE", "placed": "house"}}, {"type": "Feature", "geometry": {"type": "Point", "coordinates": [-3.20363, 55.952053]}, "properties": {"name": "Badger & Co", "kind": "TERRASSE", "placed": "house"}}, {"type": "Feature", "geometry": {"type": "Point", "coordinates": [-3.194018, 55.947722]}, "properties": {"name": "Bar Salsa", "kind": "TERRASSE", "placed": "house"}}, {"type": "Feature", "geometry": {"type": "Point", "coordinates": [-3.18776, 55.95023]}, "properties": {"name": "Bella Italia", "kind": "TERRASSE", "placed": "house"}}, {"type": "Feature", "geometry": {"type": "Point", "coordinates": [-3.192585, 55.955558]}, "properties": {"name": "Bella Sicily", "kind": "TERRASSE", "placed": "house"}}, {"type": "Feature", "geometry": {"type": "Point", "coordinates": [-3.204832, 55.945885]}, "properties": {"name": "Bentoya", "kind": "TERRASSE", "placed": "house"}}, {"type": "Feature", "geometry": {"type": "Point", "coordinates": [-3.186816, 55.948143]}, "properties": {"name": "Biblos", "kind": "TERRASSE", "placed": "house"}}, {"type": "Feature", "geometry": {"type": "Point", "coordinates": [-3.204124, 55.951482]}, "properties": {"name": "Bistronomy176", "kind": "TERRASSE", "placed": "house"}}, {"type": "Feature", "geometry": {"type": "Point", "coordinates": [-3.212797, 55.946003]}, "properties": {"name": "Bite Me Sandwich Bar", "kind": "TERRASSE", "placed": "house"}}, {"type": "Feature", "geometry": {"type": "Point", "coordinates": [-3.203652, 55.951561]}, "properties": {"name": "Black Cat", "kind": "TERRASSE", "placed": "house"}}, {"type": "Feature", "geometry": {"type": "Point", "coordinates": [-3.155306, 55.955205]}, "properties": {"name": "Bliss House Cafe Ltd", "kind": "TERRASSE", "placed": "house"}}, {"type": "Feature", "geometry": {"type": "Point", "coordinates": [-3.190354, 55.950638]}, "properties": {"name": "Blueprint Cafe", "kind": "TERRASSE", "placed": "house"}}, {"type": "Feature", "geometry": {"type": "Point", "coordinates": [-3.179372, 55.9621]}, "properties": {"name": "Bodega", "kind": "TERRASSE", "placed": "house"}}, {"type": "Feature", "geometry": {"type": "Point", "coordinates": [-3.191173, 55.946253]}, "properties": {"name": "Bowls", "kind": "TERRASSE", "placed": "house"}}, {"type": "Feature", "geometry": {"type": "Point", "coordinates": [-3.185285, 55.947255]}, "properties": {"name": "Brass Monkey", "kind": "TERRASSE", "placed": "house"}}, {"type": "Feature", "geometry": {"type": "Point", "coordinates": [-3.180636, 55.936801]}, "properties": {"name": "Brass Monkey Grange", "kind": "TERRASSE", "placed": "house"}}, {"type": "Feature", "geometry": {"type": "Point", "coordinates": [-3.205987, 55.946312]}, "properties": {"name": "Bread Meats Bread", "kind": "TERRASSE", "placed": "house"}}, {"type": "Feature", "geometry": {"type": "Point", "coordinates": [-3.182038, 55.946933]}, "properties": {"name": "Breakfast, Brunch & Lunch", "kind": "TERRASSE", "placed": "house"}}, {"type": "Feature", "geometry": {"type": "Point", "coordinates": [-3.168786, 55.977315]}, "properties": {"name": "Browns of Leith", "kind": "TERRASSE", "placed": "house"}}, {"type": "Feature", "geometry": {"type": "Point", "coordinates": [-3.205743, 55.952314]}, "properties": {"name": "Browns Restaurant & Bar", "kind": "TERRASSE", "placed": "house"}}, {"type": "Feature", "geometry": {"type": "Point", "coordinates": [-3.210008, 55.935921]}, "properties": {"name": "Bruntsfield Place", "kind": "TERRASSE", "placed": "house"}}, {"type": "Feature", "geometry": {"type": "Point", "coordinates": [-3.204736, 55.946756]}, "properties": {"name": "Buck's Bar", "kind": "TERRASSE", "placed": "house"}}, {"type": "Feature", "geometry": {"type": "Point", "coordinates": [-3.189724, 55.94969]}, "properties": {"name": "Burgers and Beers Grillhouse", "kind": "TERRASSE", "placed": "house"}}, {"type": "Feature", "geometry": {"type": "Point", "coordinates": [-3.194026, 55.93627]}, "properties": {"name": "Cafe Artista", "kind": "TERRASSE", "placed": "house"}}, {"type": "Feature", "geometry": {"type": "Point", "coordinates": [-3.282177, 55.942881]}, "properties": {"name": "Cafe Corstone", "kind": "TERRASSE", "placed": "house"}}, {"type": "Feature", "geometry": {"type": "Point", "coordinates": [-3.184926, 55.950675]}, "properties": {"name": "cafe edinburgh", "kind": "TERRASSE", "placed": "postcode"}}, {"type": "Feature", "geometry": {"type": "Point", "coordinates": [-3.209391, 55.936096]}, "properties": {"name": "Cafe Grande", "kind": "TERRASSE", "placed": "house"}}, {"type": "Feature", "geometry": {"type": "Point", "coordinates": [-3.17154, 55.974885]}, "properties": {"name": "Cafe Truva", "kind": "TERRASSE", "placed": "house"}}, {"type": "Feature", "geometry": {"type": "Point", "coordinates": [-3.28206, 55.942873]}, "properties": {"name": "Cafe Vigo", "kind": "TERRASSE", "placed": "house"}}, {"type": "Feature", "geometry": {"type": "Point", "coordinates": [-3.209334, 55.929094]}, "properties": {"name": "Caffe Nero", "kind": "TERRASSE", "placed": "house"}}, {"type": "Feature", "geometry": {"type": "Point", "coordinates": [-3.21084, 55.949217]}, "properties": {"name": "Caffe Nero", "kind": "TERRASSE", "placed": "house"}}, {"type": "Feature", "geometry": {"type": "Point", "coordinates": [-3.18984, 55.949449]}, "properties": {"name": "Caffe Nero", "kind": "TERRASSE", "placed": "house"}}, {"type": "Feature", "geometry": {"type": "Point", "coordinates": [-3.211465, 55.951307]}, "properties": {"name": "Cairngorm Coffee", "kind": "TERRASSE", "placed": "postcode"}}, {"type": "Feature", "geometry": {"type": "Point", "coordinates": [-3.182425, 55.950774]}, "properties": {"name": "Canons Gait", "kind": "TERRASSE", "placed": "house"}}, {"type": "Feature", "geometry": {"type": "Point", "coordinates": [-3.184885, 55.951194]}, "properties": {"name": "Cappuccino Cafe", "kind": "TERRASSE", "placed": "house"}}, {"type": "Feature", "geometry": {"type": "Point", "coordinates": [-3.191463, 55.947095]}, "properties": {"name": "Capripizza", "kind": "TERRASSE", "placed": "house"}}, {"type": "Feature", "geometry": {"type": "Point", "coordinates": [-3.184658, 55.951343]}, "properties": {"name": "Caru by Candellight", "kind": "TERRASSE", "placed": "postcode"}}, {"type": "Feature", "geometry": {"type": "Point", "coordinates": [-3.194244, 55.947748]}, "properties": {"name": "Castle Rock Takeaway", "kind": "TERRASSE", "placed": "house"}}, {"type": "Feature", "geometry": {"type": "Point", "coordinates": [-3.191475, 55.947861]}, "properties": {"name": "Castle Walk", "kind": "TERRASSE", "placed": "house"}}, {"type": "Feature", "geometry": {"type": "Point", "coordinates": [-3.185276, 55.95689]}, "properties": {"name": "CC Blooms", "kind": "TERRASSE", "placed": "postcode"}}, {"type": "Feature", "geometry": {"type": "Point", "coordinates": [-3.197421, 55.954175]}, "properties": {"name": "CHA CHA", "kind": "TERRASSE", "placed": "house"}}, {"type": "Feature", "geometry": {"type": "Point", "coordinates": [-3.219901, 55.943297]}, "properties": {"name": "Chapter One Coffee", "kind": "TERRASSE", "placed": "house"}}, {"type": "Feature", "geometry": {"type": "Point", "coordinates": [-3.168524, 55.957446]}, "properties": {"name": "Cherry's Cafe", "kind": "TERRASSE", "placed": "house"}}, {"type": "Feature", "geometry": {"type": "Point", "coordinates": [-3.169776, 55.976007]}, "properties": {"name": "Chez Bernard", "kind": "TERRASSE", "placed": "house"}}, {"type": "Feature", "geometry": {"type": "Point", "coordinates": [-3.191384, 55.945541]}, "properties": {"name": "Civerinos Slice", "kind": "TERRASSE", "placed": "house"}}, {"type": "Feature", "geometry": {"type": "Point", "coordinates": [-3.18984, 55.949449]}, "properties": {"name": "Code Pod Hostel", "kind": "TERRASSE", "placed": "house"}}, {"type": "Feature", "geometry": {"type": "Point", "coordinates": [-3.206998, 55.937406]}, "properties": {"name": "Coffee Inc", "kind": "TERRASSE", "placed": "house"}}, {"type": "Feature", "geometry": {"type": "Point", "coordinates": [-3.19773, 55.947301]}, "properties": {"name": "Cold Town House", "kind": "TERRASSE", "placed": "house"}}, {"type": "Feature", "geometry": {"type": "Point", "coordinates": [-3.188383, 55.956356]}, "properties": {"name": "Conan Doyle", "kind": "TERRASSE", "placed": "postcode"}}, {"type": "Feature", "geometry": {"type": "Point", "coordinates": [-3.209577, 55.935753]}, "properties": {"name": "Confelicity Bakery", "kind": "TERRASSE", "placed": "house"}}, {"type": "Feature", "geometry": {"type": "Point", "coordinates": [-3.203018, 55.95269]}, "properties": {"name": "Contini George Street", "kind": "TERRASSE", "placed": "house"}}, {"type": "Feature", "geometry": {"type": "Point", "coordinates": [-3.188758, 55.950619]}, "properties": {"name": "Coo Cafe", "kind": "TERRASSE", "placed": "house"}}, {"type": "Feature", "geometry": {"type": "Point", "coordinates": [-3.20327, 55.952646]}, "properties": {"name": "Copper Blossom", "kind": "TERRASSE", "placed": "house"}}, {"type": "Feature", "geometry": {"type": "Point", "coordinates": [-3.188879, 55.949811]}, "properties": {"name": "Copper Still", "kind": "TERRASSE", "placed": "house"}}, {"type": "Feature", "geometry": {"type": "Point", "coordinates": [-3.18365, 55.951406]}, "properties": {"name": "Costa Coffee", "kind": "TERRASSE", "placed": "house"}}, {"type": "Feature", "geometry": {"type": "Point", "coordinates": [-3.202829, 55.951546]}, "properties": {"name": "Costa Coffee", "kind": "TERRASSE", "placed": "house"}}, {"type": "Feature", "geometry": {"type": "Point", "coordinates": [-3.212339, 55.959131]}, "properties": {"name": "Costa Coffee", "kind": "TERRASSE", "placed": "house"}}, {"type": "Feature", "geometry": {"type": "Point", "coordinates": [-3.171337, 55.971486]}, "properties": {"name": "Costa Coffee", "kind": "TERRASSE", "placed": "house"}}, {"type": "Feature", "geometry": {"type": "Point", "coordinates": [-3.200587, 55.953824]}, "properties": {"name": "Cote Brasserie", "kind": "TERRASSE", "placed": "house"}}, {"type": "Feature", "geometry": {"type": "Point", "coordinates": [-3.17838, 55.951552]}, "properties": {"name": "Crichton House", "kind": "TERRASSE", "placed": "house"}}, {"type": "Feature", "geometry": {"type": "Point", "coordinates": [-3.213096, 55.951758]}, "properties": {"name": "Croccante and co. Ltd", "kind": "TERRASSE", "placed": "postcode"}}, {"type": "Feature", "geometry": {"type": "Point", "coordinates": [-3.195127, 55.963528]}, "properties": {"name": "Crumbs Cafe", "kind": "TERRASSE", "placed": "house"}}, {"type": "Feature", "geometry": {"type": "Point", "coordinates": [-3.187927, 55.954287]}, "properties": {"name": "Cupp", "kind": "TERRASSE", "placed": "house"}}, {"type": "Feature", "geometry": {"type": "Point", "coordinates": [-3.19486, 55.936434]}, "properties": {"name": "Cuthbert's Cafe + Deli", "kind": "TERRASSE", "placed": "house"}}, {"type": "Feature", "geometry": {"type": "Point", "coordinates": [-3.257971, 55.90735]}, "properties": {"name": "Dantes Restaurant", "kind": "TERRASSE", "placed": "house"}}, {"type": "Feature", "geometry": {"type": "Point", "coordinates": [-3.192949, 55.949535]}, "properties": {"name": "Deacon Brodies Tavern", "kind": "TERRASSE", "placed": "house"}}, {"type": "Feature", "geometry": {"type": "Point", "coordinates": [-3.219234, 55.951243]}, "properties": {"name": "Dean Village Coffee House", "kind": "TERRASSE", "placed": "house"}}, {"type": "Feature", "geometry": {"type": "Point", "coordinates": [-3.235956, 55.946454]}, "properties": {"name": "Dine Murrayfield", "kind": "TERRASSE", "placed": "postcode"}}, {"type": "Feature", "geometry": {"type": "Point", "coordinates": [-3.205009, 55.951501]}, "properties": {"name": "Dirty Dick's", "kind": "TERRASSE", "placed": "house"}}, {"type": "Feature", "geometry": {"type": "Point", "coordinates": [-3.192513, 55.953543]}, "properties": {"name": "Dishoom", "kind": "TERRASSE", "placed": "house"}}, {"type": "Feature", "geometry": {"type": "Point", "coordinates": [-3.190977, 55.945482]}, "properties": {"name": "Doctors", "kind": "TERRASSE", "placed": "house"}}, {"type": "Feature", "geometry": {"type": "Point", "coordinates": [-3.204033, 55.951497]}, "properties": {"name": "Dough Pizzeria", "kind": "TERRASSE", "placed": "house"}}, {"type": "Feature", "geometry": {"type": "Point", "coordinates": [-3.209995, 55.950861]}, "properties": {"name": "Dulse", "kind": "TERRASSE", "placed": "house"}}, {"type": "Feature", "geometry": {"type": "Point", "coordinates": [-3.183111, 55.950826]}, "properties": {"name": "Dunedin Cafe & Bistro", "kind": "TERRASSE", "placed": "house"}}, {"type": "Feature", "geometry": {"type": "Point", "coordinates": [-3.192946, 55.938017]}, "properties": {"name": "Earl of Marchmont", "kind": "TERRASSE", "placed": "house"}}, {"type": "Feature", "geometry": {"type": "Point", "coordinates": [-3.190395, 55.950635]}, "properties": {"name": "Ecco Vino", "kind": "TERRASSE", "placed": "house"}}, {"type": "Feature", "geometry": {"type": "Point", "coordinates": [-3.205452, 55.952305]}, "properties": {"name": "Eden Locke", "kind": "TERRASSE", "placed": "house"}}, {"type": "Feature", "geometry": {"type": "Point", "coordinates": [-3.21023, 55.932705]}, "properties": {"name": "Edinburgh Larder Morningside", "kind": "TERRASSE", "placed": "house"}}, {"type": "Feature", "geometry": {"type": "Point", "coordinates": [-3.197304, 55.953956]}, "properties": {"name": "EHS Ltd", "kind": "TERRASSE", "placed": "house"}}, {"type": "Feature", "geometry": {"type": "Point", "coordinates": [-3.20079, 55.952031]}, "properties": {"name": "Element", "kind": "TERRASSE", "placed": "postcode"}}, {"type": "Feature", "geometry": {"type": "Point", "coordinates": [-3.183822, 55.958152]}, "properties": {"name": "Elm Row Cafe", "kind": "TERRASSE", "placed": "house"}}, {"type": "Feature", "geometry": {"type": "Point", "coordinates": [-3.176454, 55.964839]}, "properties": {"name": "Ernest & Bob", "kind": "TERRASSE", "placed": "house"}}, {"type": "Feature", "geometry": {"type": "Point", "coordinates": [-3.234911, 55.933297]}, "properties": {"name": "Etore's", "kind": "TERRASSE", "placed": "house"}}, {"type": "Feature", "geometry": {"type": "Point", "coordinates": [-3.202571, 55.952771]}, "properties": {"name": "Fat Hippo", "kind": "TERRASSE", "placed": "house"}}, {"type": "Feature", "geometry": {"type": "Point", "coordinates": [-3.210161, 55.950935]}, "properties": {"name": "Fauna Cafe", "kind": "TERRASSE", "placed": "house"}}, {"type": "Feature", "geometry": {"type": "Point", "coordinates": [-3.205317, 55.951417]}, "properties": {"name": "Fierce Beer", "kind": "TERRASSE", "placed": "house"}}, {"type": "Feature", "geometry": {"type": "Point", "coordinates": [-3.168937, 55.977564]}, "properties": {"name": "Fishers Bistro", "kind": "TERRASSE", "placed": "house"}}, {"type": "Feature", "geometry": {"type": "Point", "coordinates": [-3.203016, 55.952352]}, "properties": {"name": "Fogo de Chão", "kind": "TERRASSE", "placed": "house"}}, {"type": "Feature", "geometry": {"type": "Point", "coordinates": [-3.203597, 55.946009]}, "properties": {"name": "Footlights Bar and Grill", "kind": "TERRASSE", "placed": "house"}}, {"type": "Feature", "geometry": {"type": "Point", "coordinates": [-3.206396, 55.953428]}, "properties": {"name": "Fortuna", "kind": "TERRASSE", "placed": "house"}}, {"type": "Feature", "geometry": {"type": "Point", "coordinates": [-3.200354, 55.95332]}, "properties": {"name": "Fortuna Coffee Bar", "kind": "TERRASSE", "placed": "house"}}, {"type": "Feature", "geometry": {"type": "Point", "coordinates": [-3.236189, 55.946256]}, "properties": {"name": "Francacia & Co Ltd", "kind": "TERRASSE", "placed": "house"}}, {"type": "Feature", "geometry": {"type": "Point", "coordinates": [-3.1915, 55.953519]}, "properties": {"name": "Franco Manca", "kind": "TERRASSE", "placed": "house"}}, {"type": "Feature", "geometry": {"type": "Point", "coordinates": [-3.191592, 55.947333]}, "properties": {"name": "Frankensteins", "kind": "TERRASSE", "placed": "house"}}, {"type": "Feature", "geometry": {"type": "Point", "coordinates": [-3.205488, 55.946392]}, "properties": {"name": "Frizzante Prosecheria", "kind": "TERRASSE", "placed": "house"}}, {"type": "Feature", "geometry": {"type": "Point", "coordinates": [-3.177987, 55.963177]}, "properties": {"name": "Gaia", "kind": "TERRASSE", "placed": "postcode"}}, {"type": "Feature", "geometry": {"type": "Point", "coordinates": [-3.192816, 55.953499]}, "properties": {"name": "Gaucho", "kind": "TERRASSE", "placed": "house"}}, {"type": "Feature", "geometry": {"type": "Point", "coordinates": [-3.161223, 55.956489]}, "properties": {"name": "Gautams", "kind": "TERRASSE", "placed": "postcode"}}, {"type": "Feature", "geometry": {"type": "Point", "coordinates": [-3.191692, 55.9481]}, "properties": {"name": "George IV Bar", "kind": "TERRASSE", "placed": "house"}}, {"type": "Feature", "geometry": {"type": "Point", "coordinates": [-3.193685, 55.949429]}, "properties": {"name": "Gladstone's Land", "kind": "TERRASSE", "placed": "house"}}, {"type": "Feature", "geometry": {"type": "Point", "coordinates": [-3.193016, 55.953464]}, "properties": {"name": "Gordon Ramsay Bread Street Kitchen & Bar", "kind": "TERRASSE", "placed": "house"}}, {"type": "Feature", "geometry": {"type": "Point", "coordinates": [-3.181081, 55.944211]}, "properties": {"name": "Gorse", "kind": "TERRASSE", "placed": "house"}}, {"type": "Feature", "geometry": {"type": "Point", "coordinates": [-3.19729, 55.953991]}, "properties": {"name": "Grand Cru/Bar napoli", "kind": "TERRASSE", "placed": "house"}}, {"type": "Feature", "geometry": {"type": "Point", "coordinates": [-3.235033, 55.933282]}, "properties": {"name": "GRAY'S MILL", "kind": "TERRASSE", "placed": "house"}}, {"type": "Feature", "geometry": {"type": "Point", "coordinates": [-3.204436, 55.945934]}, "properties": {"name": "Greek Artisan Pastries", "kind": "TERRASSE", "placed": "house"}}, {"type": "Feature", "geometry": {"type": "Point", "coordinates": [-3.177987, 55.963177]}, "properties": {"name": "Greet the Greek", "kind": "TERRASSE", "placed": "postcode"}}, {"type": "Feature", "geometry": {"type": "Point", "coordinates": [-3.191863, 55.947122]}, "properties": {"name": "Greyfriars Bobby Bar", "kind": "TERRASSE", "placed": "postcode"}}, {"type": "Feature", "geometry": {"type": "Point", "coordinates": [-3.198141, 55.954534]}, "properties": {"name": "Hanover Tap", "kind": "TERRASSE", "placed": "house"}}, {"type": "Feature", "geometry": {"type": "Point", "coordinates": [-3.196094, 55.953497]}, "properties": {"name": "Hard Rock Cafe", "kind": "TERRASSE", "placed": "postcode"}}, {"type": "Feature", "geometry": {"type": "Point", "coordinates": [-3.216114, 55.946474]}, "properties": {"name": "Haymarket Bar", "kind": "TERRASSE", "placed": "house"}}, {"type": "Feature", "geometry": {"type": "Point", "coordinates": [-3.209778, 55.95875]}, "properties": {"name": "Hectors Public House", "kind": "TERRASSE", "placed": "house"}}, {"type": "Feature", "geometry": {"type": "Point", "coordinates": [-3.305887, 55.961797]}, "properties": {"name": "Herringbone Barnton", "kind": "TERRASSE", "placed": "postcode"}}, {"type": "Feature", "geometry": {"type": "Point", "coordinates": [-3.209338, 55.926608]}, "properties": {"name": "Hummus Edinburgh Ltd", "kind": "TERRASSE", "placed": "house"}}, {"type": "Feature", "geometry": {"type": "Point", "coordinates": [-3.187279, 55.949927]}, "properties": {"name": "INN ON THE MILE", "kind": "TERRASSE", "placed": "house"}}, {"type": "Feature", "geometry": {"type": "Point", "coordinates": [-3.195873, 55.954075]}, "properties": {"name": "InterContinental The George", "kind": "TERRASSE", "placed": "house"}}, {"type": "Feature", "geometry": {"type": "Point", "coordinates": [-3.186386, 55.945892]}, "properties": {"name": "Islander", "kind": "TERRASSE", "placed": "house"}}, {"type": "Feature", "geometry": {"type": "Point", "coordinates": [-3.185032, 55.958095]}, "properties": {"name": "Kahani Restaurant", "kind": "TERRASSE", "placed": "house"}}, {"type": "Feature", "geometry": {"type": "Point", "coordinates": [-3.18364, 55.944519]}, "properties": {"name": "Kilimanjaro Coffee", "kind": "TERRASSE", "placed": "house"}}, {"type": "Feature", "geometry": {"type": "Point", "coordinates": [-3.191919, 55.949809]}, "properties": {"name": "Kiltane", "kind": "TERRASSE", "placed": "house"}}, {"type": "Feature", "geometry": {"type": "Point", "coordinates": [-3.195999, 55.963893]}, "properties": {"name": "Kirk House Coffee (Bridge Family Church)", "kind": "TERRASSE", "placed": "postcode"}}, {"type": "Feature", "geometry": {"type": "Point", "coordinates": [-3.203637, 55.951932]}, "properties": {"name": "Knoops", "kind": "TERRASSE", "placed": "postcode"}}, {"type": "Feature", "geometry": {"type": "Point", "coordinates": [-3.190875, 55.945777]}, "properties": {"name": "Koyama", "kind": "TERRASSE", "placed": "house"}}, {"type": "Feature", "geometry": {"type": "Point", "coordinates": [-3.183308, 55.958689]}, "properties": {"name": "KUL COFFEE", "kind": "TERRASSE", "placed": "house"}}, {"type": "Feature", "geometry": {"type": "Point", "coordinates": [-3.183898, 55.958074]}, "properties": {"name": "Kuna Cafe", "kind": "TERRASSE", "placed": "house"}}, {"type": "Feature", "geometry": {"type": "Point", "coordinates": [-3.199227, 55.946392]}, "properties": {"name": "L'Etoile Salon de Tea", "kind": "TERRASSE", "placed": "house"}}, {"type": "Feature", "geometry": {"type": "Point", "coordinates": [-3.209888, 55.935968]}, "properties": {"name": "La Barantine", "kind": "TERRASSE", "placed": "house"}}, {"type": "Feature", "geometry": {"type": "Point", "coordinates": [-3.194641, 55.94833]}, "properties": {"name": "La Barantine Victoria", "kind": "TERRASSE", "placed": "house"}}, {"type": "Feature", "geometry": {"type": "Point", "coordinates": [-3.176262, 55.965036]}, "properties": {"name": "La Casa", "kind": "TERRASSE", "placed": "house"}}, {"type": "Feature", "geometry": {"type": "Point", "coordinates": [-3.1932, 55.978203]}, "properties": {"name": "La Cime Deli", "kind": "TERRASSE", "placed": "house"}}, {"type": "Feature", "geometry": {"type": "Point", "coordinates": [-3.188844, 55.950631]}, "properties": {"name": "La Locanda", "kind": "TERRASSE", "placed": "house"}}, {"type": "Feature", "geometry": {"type": "Point", "coordinates": [-3.212059, 55.951373]}, "properties": {"name": "La Plaza Bistro", "kind": "TERRASSE", "placed": "postcode"}}, {"type": "Feature", "geometry": {"type": "Point", "coordinates": [-3.204118, 55.943885]}, "properties": {"name": "La Viola Cafe & Bistro", "kind": "TERRASSE", "placed": "house"}}, {"type": "Feature", "geometry": {"type": "Point", "coordinates": [-3.187459, 55.950389]}, "properties": {"name": "Landys", "kind": "TERRASSE", "placed": "house"}}, {"type": "Feature", "geometry": {"type": "Point", "coordinates": [-3.196077, 55.953566]}, "properties": {"name": "Le Monde Hotel & Shanghai Club", "kind": "TERRASSE", "placed": "house"}}, {"type": "Feature", "geometry": {"type": "Point", "coordinates": [-3.203861, 55.93952]}, "properties": {"name": "LeftField", "kind": "TERRASSE", "placed": "house"}}, {"type": "Feature", "geometry": {"type": "Point", "coordinates": [-3.174041, 55.968216]}, "properties": {"name": "Leith Depot", "kind": "TERRASSE", "placed": "house"}}, {"type": "Feature", "geometry": {"type": "Point", "coordinates": [-3.174377, 55.967945]}, "properties": {"name": "Leith Shawarma", "kind": "TERRASSE", "placed": "house"}}, {"type": "Feature", "geometry": {"type": "Point", "coordinates": [-3.193803, 55.947712]}, "properties": {"name": "LetMeEat Too", "kind": "TERRASSE", "placed": "house"}}, {"type": "Feature", "geometry": {"type": "Point", "coordinates": [-3.171727, 55.958501]}, "properties": {"name": "Little Fitzroy", "kind": "TERRASSE", "placed": "house"}}, {"type": "Feature", "geometry": {"type": "Point", "coordinates": [-3.258471, 55.96107]}, "properties": {"name": "Lora's Caffé Bar Ltd", "kind": "TERRASSE", "placed": "house"}}, {"type": "Feature", "geometry": {"type": "Point", "coordinates": [-3.177661, 55.963647]}, "properties": {"name": "Lounge 33", "kind": "TERRASSE", "placed": "house"}}, {"type": "Feature", "geometry": {"type": "Point", "coordinates": [-3.190841, 55.949853]}, "properties": {"name": "Luckenbooths", "kind": "TERRASSE", "placed": "house"}}, {"type": "Feature", "geometry": {"type": "Point", "coordinates": [-3.181417, 55.951189]}, "properties": {"name": "Mackays on the Mile", "kind": "TERRASSE", "placed": "house"}}, {"type": "Feature", "geometry": {"type": "Point", "coordinates": [-3.196472, 55.947537]}, "properties": {"name": "Made In Italy", "kind": "TERRASSE", "placed": "house"}}, {"type": "Feature", "geometry": {"type": "Point", "coordinates": [-3.195038, 55.947899]}, "properties": {"name": "Maggie Dicksons", "kind": "TERRASSE", "placed": "house"}}, {"type": "Feature", "geometry": {"type": "Point", "coordinates": [-3.214425, 55.946261]}, "properties": {"name": "Malones", "kind": "TERRASSE", "placed": "house"}}, {"type": "Feature", "geometry": {"type": "Point", "coordinates": [-3.167341, 55.974734]}, "properties": {"name": "Malones", "kind": "TERRASSE", "placed": "house"}}, {"type": "Feature", "geometry": {"type": "Point", "coordinates": [-3.19072, 55.950633]}, "properties": {"name": "Malt Shovel Inn", "kind": "TERRASSE", "placed": "house"}}, {"type": "Feature", "geometry": {"type": "Point", "coordinates": [-3.110444, 55.951904]}, "properties": {"name": "Malvarosa", "kind": "TERRASSE", "placed": "house"}}, {"type": "Feature", "geometry": {"type": "Point", "coordinates": [-3.196945, 55.947424]}, "properties": {"name": "Mammas Pizza", "kind": "TERRASSE", "placed": "house"}}, {"type": "Feature", "geometry": {"type": "Point", "coordinates": [-3.195964, 55.952867]}, "properties": {"name": "Manahatta", "kind": "TERRASSE", "placed": "house"}}, {"type": "Feature", "geometry": {"type": "Point", "coordinates": [-3.182321, 55.959793]}, "properties": {"name": "Manni's", "kind": "TERRASSE", "placed": "postcode"}}, {"type": "Feature", "geometry": {"type": "Point", "coordinates": [-3.204076, 55.93957]}, "properties": {"name": "Margot", "kind": "TERRASSE", "placed": "house"}}, {"type": "Feature", "geometry": {"type": "Point", "coordinates": [-3.193887, 55.94849]}, "properties": {"name": "Mariachi", "kind": "TERRASSE", "placed": "house"}}, {"type": "Feature", "geometry": {"type": "Point", "coordinates": [-3.183858, 55.950468]}, "properties": {"name": "Mary's Bistro Cafe", "kind": "TERRASSE", "placed": "house"}}, {"type": "Feature", "geometry": {"type": "Point", "coordinates": [-3.191587, 55.947922]}, "properties": {"name": "McGonagalls", "kind": "TERRASSE", "placed": "house"}}, {"type": "Feature", "geometry": {"type": "Point", "coordinates": [-3.21794, 55.944819]}, "properties": {"name": "Medo Cafe", "kind": "TERRASSE", "placed": "house"}}, {"type": "Feature", "geometry": {"type": "Point", "coordinates": [-3.189103, 55.950048]}, "properties": {"name": "Merchants Tavern", "kind": "TERRASSE", "placed": "house"}}, {"type": "Feature", "geometry": {"type": "Point", "coordinates": [-3.1851, 55.951242]}, "properties": {"name": "Meyhane", "kind": "TERRASSE", "placed": "house"}}, {"type": "Feature", "geometry": {"type": "Point", "coordinates": [-3.199401, 55.95242]}, "properties": {"name": "Meze Meze", "kind": "TERRASSE", "placed": "house"}}, {"type": "Feature", "geometry": {"type": "Point", "coordinates": [-3.209468, 55.925796]}, "properties": {"name": "Mia Italian Kitchen", "kind": "TERRASSE", "placed": "house"}}, {"type": "Feature", "geometry": {"type": "Point", "coordinates": [-3.213715, 55.946237]}, "properties": {"name": "Milk", "kind": "TERRASSE", "placed": "house"}}, {"type": "Feature", "geometry": {"type": "Point", "coordinates": [-3.204449, 55.951427]}, "properties": {"name": "Miro's Cantina Mexicana", "kind": "TERRASSE", "placed": "house"}}, {"type": "Feature", "geometry": {"type": "Point", "coordinates": [-3.183817, 55.944135]}, "properties": {"name": "Mobashar Ali", "kind": "TERRASSE", "placed": "house"}}, {"type": "Feature", "geometry": {"type": "Point", "coordinates": [-3.212678, 55.959159]}, "properties": {"name": "Mootz General Store", "kind": "TERRASSE", "placed": "house"}}, {"type": "Feature", "geometry": {"type": "Point", "coordinates": [-3.188058, 55.949845]}, "properties": {"name": "Mor Bakehouse", "kind": "TERRASSE", "placed": "house"}}, {"type": "Feature", "geometry": {"type": "Point", "coordinates": [-3.21486, 55.958947]}, "properties": {"name": "Mr Eion Coffee Roasters", "kind": "TERRASSE", "placed": "house"}}, {"type": "Feature", "geometry": {"type": "Point", "coordinates": [-3.179567, 55.939421]}, "properties": {"name": "Newington Coffee Shop", "kind": "TERRASSE", "placed": "house"}}, {"type": "Feature", "geometry": {"type": "Point", "coordinates": [-3.207358, 55.936722]}, "properties": {"name": "Nikos Bruntsfield Limited", "kind": "TERRASSE", "placed": "house"}}, {"type": "Feature", "geometry": {"type": "Point", "coordinates": [-3.212587, 55.946258]}, "properties": {"name": "NOK'S", "kind": "TERRASSE", "placed": "house"}}, {"type": "Feature", "geometry": {"type": "Point", "coordinates": [-3.19462, 55.948568]}, "properties": {"name": "Nok's Kitchen", "kind": "TERRASSE", "placed": "house"}}, {"type": "Feature", "geometry": {"type": "Point", "coordinates": [-3.195388, 55.980728]}, "properties": {"name": "NORAH", "kind": "TERRASSE", "placed": "house"}}, {"type": "Feature", "geometry": {"type": "Point", "coordinates": [-3.20335, 55.941239]}, "properties": {"name": "Not Just Coffee", "kind": "TERRASSE", "placed": "house"}}, {"type": "Feature", "geometry": {"type": "Point", "coordinates": [-3.180161, 55.961431]}, "properties": {"name": "Not Just Coffee", "kind": "TERRASSE", "placed": "postcode"}}, {"type": "Feature", "geometry": {"type": "Point", "coordinates": [-3.174076, 55.967665]}, "properties": {"name": "Not Just Coffee Dalry", "kind": "TERRASSE", "placed": "house"}}, {"type": "Feature", "geometry": {"type": "Point", "coordinates": [-3.177987, 55.963177]}, "properties": {"name": "NOTT EDINBURGH LTD", "kind": "TERRASSE", "placed": "postcode"}}, {"type": "Feature", "geometry": {"type": "Point", "coordinates": [-3.195714, 55.947753]}, "properties": {"name": "O'Olivieros Toro", "kind": "TERRASSE", "placed": "house"}}, {"type": "Feature", "geometry": {"type": "Point", "coordinates": [-3.187783, 55.954378]}, "properties": {"name": "Oakberry", "kind": "TERRASSE", "placed": "house"}}, {"type": "Feature", "geometry": {"type": "Point", "coordinates": [-3.181428, 55.96044]}, "properties": {"name": "Oh Deer Cafe", "kind": "TERRASSE", "placed": "postcode"}}, {"type": "Feature", "geometry": {"type": "Point", "coordinates": [-3.170765, 55.962288]}, "properties": {"name": "Old Eastway Tap", "kind": "TERRASSE", "placed": "house"}}, {"type": "Feature", "geometry": {"type": "Point", "coordinates": [-3.191641, 55.948012]}, "properties": {"name": "Old Town Cafe Bistro", "kind": "TERRASSE", "placed": "house"}}, {"type": "Feature", "geometry": {"type": "Point", "coordinates": [-3.201187, 55.963825]}, "properties": {"name": "Orchard Bar", "kind": "TERRASSE", "placed": "postcode"}}, {"type": "Feature", "geometry": {"type": "Point", "coordinates": [-3.114804, 55.953336]}, "properties": {"name": "Otto", "kind": "TERRASSE", "placed": "house"}}, {"type": "Feature", "geometry": {"type": "Point", "coordinates": [-3.201209, 55.952999]}, "properties": {"name": "Paesano", "kind": "TERRASSE", "placed": "house"}}, {"type": "Feature", "geometry": {"type": "Point", "coordinates": [-3.182321, 55.959793]}, "properties": {"name": "Papapoke Bowls & Rolls", "kind": "TERRASSE", "placed": "postcode"}}, {"type": "Feature", "geometry": {"type": "Point", "coordinates": [-3.189075, 55.946225]}, "properties": {"name": "Paradise Palms", "kind": "TERRASSE", "placed": "house"}}, {"type": "Feature", "geometry": {"type": "Point", "coordinates": [-3.177149, 55.952126]}, "properties": {"name": "Parliament Arms", "kind": "TERRASSE", "placed": "house"}}, {"type": "Feature", "geometry": {"type": "Point", "coordinates": [-3.213318, 55.959253]}, "properties": {"name": "Pastry Selection", "kind": "TERRASSE", "placed": "house"}}, {"type": "Feature", "geometry": {"type": "Point", "coordinates": [-3.183096, 55.959026]}, "properties": {"name": "Pearce's Bar", "kind": "TERRASSE", "placed": "house"}}, {"type": "Feature", "geometry": {"type": "Point", "coordinates": [-3.209702, 55.935722]}, "properties": {"name": "Piggs", "kind": "TERRASSE", "placed": "house"}}, {"type": "Feature", "geometry": {"type": "Point", "coordinates": [-3.183857, 55.95062]}, "properties": {"name": "Piggs", "kind": "TERRASSE", "placed": "house"}}, {"type": "Feature", "geometry": {"type": "Point", "coordinates": [-3.195006, 55.947481]}, "properties": {"name": "Pirlous", "kind": "TERRASSE", "placed": "house"}}, {"type": "Feature", "geometry": {"type": "Point", "coordinates": [-3.171406, 55.959658]}, "properties": {"name": "Pizza Geeks", "kind": "TERRASSE", "placed": "house"}}, {"type": "Feature", "geometry": {"type": "Point", "coordinates": [-3.197792, 55.980174]}, "properties": {"name": "Porto & Fi", "kind": "TERRASSE", "placed": "house"}}, {"type": "Feature", "geometry": {"type": "Point", "coordinates": [-3.115049, 55.953423]}, "properties": {"name": "Porto Pier", "kind": "TERRASSE", "placed": "house"}}, {"type": "Feature", "geometry": {"type": "Point", "coordinates": [-3.203092, 55.952036]}, "properties": {"name": "Pret A Manger", "kind": "TERRASSE", "placed": "house"}}, {"type": "Feature", "geometry": {"type": "Point", "coordinates": [-3.218259, 55.944343]}, "properties": {"name": "Qevani's Crepe House", "kind": "TERRASSE", "placed": "house"}}, {"type": "Feature", "geometry": {"type": "Point", "coordinates": [-3.200571, 55.953673]}, "properties": {"name": "Queen's Arms", "kind": "TERRASSE", "placed": "house"}}, {"type": "Feature", "geometry": {"type": "Point", "coordinates": [-3.200763, 55.953969]}, "properties": {"name": "Rabble", "kind": "TERRASSE", "placed": "house"}}, {"type": "Feature", "geometry": {"type": "Point", "coordinates": [-3.177987, 55.963177]}, "properties": {"name": "Raku", "kind": "TERRASSE", "placed": "postcode"}}, {"type": "Feature", "geometry": {"type": "Point", "coordinates": [-3.156166, 55.959477]}, "properties": {"name": "Red Velvet Cafe", "kind": "TERRASSE", "placed": "house"}}, {"type": "Feature", "geometry": {"type": "Point", "coordinates": [-3.181839, 55.946024]}, "properties": {"name": "Richmond caffe", "kind": "TERRASSE", "placed": "house"}}, {"type": "Feature", "geometry": {"type": "Point", "coordinates": [-3.203881, 55.943267]}, "properties": {"name": "Ritual Coffee & Co", "kind": "TERRASSE", "placed": "house"}}, {"type": "Feature", "geometry": {"type": "Point", "coordinates": [-3.218193, 55.944448]}, "properties": {"name": "Roasters", "kind": "TERRASSE", "placed": "house"}}, {"type": "Feature", "geometry": {"type": "Point", "coordinates": [-3.197674, 55.952724]}, "properties": {"name": "Robertsons Bar", "kind": "TERRASSE", "placed": "house"}}, {"type": "Feature", "geometry": {"type": "Point", "coordinates": [-3.210306, 55.935815]}, "properties": {"name": "Rocksalt", "kind": "TERRASSE", "placed": "house"}}, {"type": "Feature", "geometry": {"type": "Point", "coordinates": [-3.167328, 55.974824]}, "properties": {"name": "Rocksalt", "kind": "TERRASSE", "placed": "house"}}, {"type": "Feature", "geometry": {"type": "Point", "coordinates": [-3.197577, 55.947322]}, "properties": {"name": "Rona's Bistro", "kind": "TERRASSE", "placed": "house"}}, {"type": "Feature", "geometry": {"type": "Point", "coordinates": [-3.184658, 55.951343]}, "properties": {"name": "Room Rumours Coffee Limited", "kind": "TERRASSE", "placed": "postcode"}}, {"type": "Feature", "geometry": {"type": "Point", "coordinates": [-3.203925, 55.951515]}, "properties": {"name": "Rose and Crown", "kind": "TERRASSE", "placed": "house"}}, {"type": "Feature", "geometry": {"type": "Point", "coordinates": [-3.19883, 55.952518]}, "properties": {"name": "Rose Street Brewery", "kind": "TERRASSE", "placed": "house"}}, {"type": "Feature", "geometry": {"type": "Point", "coordinates": [-3.204771, 55.951373]}, "properties": {"name": "Rose Street Cafe", "kind": "TERRASSE", "placed": "house"}}, {"type": "Feature", "geometry": {"type": "Point", "coordinates": [-3.217355, 55.945812]}, "properties": {"name": "Ryries Bar", "kind": "TERRASSE", "placed": "house"}}, {"type": "Feature", "geometry": {"type": "Point", "coordinates": [-3.191889, 55.953449]}, "properties": {"name": "Saigon Memoire", "kind": "TERRASSE", "placed": "house"}}, {"type": "Feature", "geometry": {"type": "Point", "coordinates": [-3.190565, 55.945524]}, "properties": {"name": "Salut Coffee Magaria", "kind": "TERRASSE", "placed": "house"}}, {"type": "Feature", "geometry": {"type": "Point", "coordinates": [-3.193337, 55.948819]}, "properties": {"name": "Scott’s Kitchen", "kind": "TERRASSE", "placed": "house"}}, {"type": "Feature", "geometry": {"type": "Point", "coordinates": [-3.188238, 55.950589]}, "properties": {"name": "Scran Bistro", "kind": "TERRASSE", "placed": "postcode"}}, {"type": "Feature", "geometry": {"type": "Point", "coordinates": [-3.201178, 55.942346]}, "properties": {"name": "Seamus's", "kind": "TERRASSE", "placed": "house"}}, {"type": "Feature", "geometry": {"type": "Point", "coordinates": [-3.174435, 55.967239]}, "properties": {"name": "Sebs's Urban Jungle", "kind": "TERRASSE", "placed": "house"}}, {"type": "Feature", "geometry": {"type": "Point", "coordinates": [-3.203359, 55.943384]}, "properties": {"name": "Seven Cafe", "kind": "TERRASSE", "placed": "house"}}, {"type": "Feature", "geometry": {"type": "Point", "coordinates": [-3.205833, 55.947557]}, "properties": {"name": "shakespeare", "kind": "TERRASSE", "placed": "house"}}, {"type": "Feature", "geometry": {"type": "Point", "coordinates": [-3.169326, 55.976671]}, "properties": {"name": "Ship on the Shore", "kind": "TERRASSE", "placed": "house"}}, {"type": "Feature", "geometry": {"type": "Point", "coordinates": [-3.209271, 55.958367]}, "properties": {"name": "Singh Street Cha", "kind": "TERRASSE", "placed": "house"}}, {"type": "Feature", "geometry": {"type": "Point", "coordinates": [-3.214377, 55.959299]}, "properties": {"name": "Sip & Bark", "kind": "TERRASSE", "placed": "house"}}, {"type": "Feature", "geometry": {"type": "Point", "coordinates": [-3.209471, 55.92612]}, "properties": {"name": "Sisorti", "kind": "TERRASSE", "placed": "house"}}, {"type": "Feature", "geometry": {"type": "Point", "coordinates": [-3.189611, 55.948415]}, "properties": {"name": "Slainte Mhath", "kind": "TERRASSE", "placed": "house"}}, {"type": "Feature", "geometry": {"type": "Point", "coordinates": [-3.17362, 55.96881]}, "properties": {"name": "Sloe Lane Bakery", "kind": "TERRASSE", "placed": "house"}}, {"type": "Feature", "geometry": {"type": "Point", "coordinates": [-3.202686, 55.951875]}, "properties": {"name": "Social Bite", "kind": "TERRASSE", "placed": "house"}}, {"type": "Feature", "geometry": {"type": "Point", "coordinates": [-3.197313, 55.947324]}, "properties": {"name": "Sofi's Desserts", "kind": "TERRASSE", "placed": "house"}}, {"type": "Feature", "geometry": {"type": "Point", "coordinates": [-3.185499, 55.947212]}, "properties": {"name": "Solti", "kind": "TERRASSE", "placed": "house"}}, {"type": "Feature", "geometry": {"type": "Point", "coordinates": [-3.182114, 55.946014]}, "properties": {"name": "Soul Vegan", "kind": "TERRASSE", "placed": "house"}}, {"type": "Feature", "geometry": {"type": "Point", "coordinates": [-3.188707, 55.950666]}, "properties": {"name": "Southern Cross Cafe", "kind": "TERRASSE", "placed": "house"}}, {"type": "Feature", "geometry": {"type": "Point", "coordinates": [-3.1838, 55.959429]}, "properties": {"name": "Spry Wines & Ante Coffee", "kind": "TERRASSE", "placed": "postcode"}}, {"type": "Feature", "geometry": {"type": "Point", "coordinates": [-3.205607, 55.945463]}, "properties": {"name": "Spud Bros", "kind": "TERRASSE", "placed": "house"}}, {"type": "Feature", "geometry": {"type": "Point", "coordinates": [-3.188166, 55.949914]}, "properties": {"name": "STARBUCKS COFFEE", "kind": "TERRASSE", "placed": "house"}}, {"type": "Feature", "geometry": {"type": "Point", "coordinates": [-3.202999, 55.951077]}, "properties": {"name": "Starbucks Coffee Company Ltd", "kind": "TERRASSE", "placed": "house"}}, {"type": "Feature", "geometry": {"type": "Point", "coordinates": [-3.213585, 55.959008]}, "properties": {"name": "Stockbridge Tap", "kind": "TERRASSE", "placed": "house"}}, {"type": "Feature", "geometry": {"type": "Point", "coordinates": [-3.175953, 55.963831]}, "properties": {"name": "STRATHMORE BAR", "kind": "TERRASSE", "placed": "house"}}, {"type": "Feature", "geometry": {"type": "Point", "coordinates": [-3.195114, 55.94746]}, "properties": {"name": "SUB STATION", "kind": "TERRASSE", "placed": "house"}}, {"type": "Feature", "geometry": {"type": "Point", "coordinates": [-3.222037, 55.946047]}, "properties": {"name": "Sunshine Art and Coffee", "kind": "TERRASSE", "placed": "house"}}, {"type": "Feature", "geometry": {"type": "Point", "coordinates": [-3.200776, 55.952188]}, "properties": {"name": "Taco Libre Bar", "kind": "TERRASSE", "placed": "house"}}, {"type": "Feature", "geometry": {"type": "Point", "coordinates": [-3.182125, 55.944004]}, "properties": {"name": "Tapas 3", "kind": "TERRASSE", "placed": "house"}}, {"type": "Feature", "geometry": {"type": "Point", "coordinates": [-3.228542, 55.932463]}, "properties": {"name": "Tea & Sympathy (Brews and Bites)", "kind": "TERRASSE", "placed": "house"}}, {"type": "Feature", "geometry": {"type": "Point", "coordinates": [-3.210189, 55.9356]}, "properties": {"name": "Tempo Perso", "kind": "TERRASSE", "placed": "house"}}, {"type": "Feature", "geometry": {"type": "Point", "coordinates": [-3.184304, 55.951093]}, "properties": {"name": "Tempting Tattie", "kind": "TERRASSE", "placed": "house"}}, {"type": "Feature", "geometry": {"type": "Point", "coordinates": [-3.204883, 55.939195]}, "properties": {"name": "Thai Lemongrass", "kind": "TERRASSE", "placed": "house"}}, {"type": "Feature", "geometry": {"type": "Point", "coordinates": [-3.194579, 55.953256]}, "properties": {"name": "The Abbotsford Bar", "kind": "TERRASSE", "placed": "house"}}, {"type": "Feature", "geometry": {"type": "Point", "coordinates": [-3.205181, 55.951916]}, "properties": {"name": "The Alexander Graham Bell", "kind": "TERRASSE", "placed": "house"}}, {"type": "Feature", "geometry": {"type": "Point", "coordinates": [-3.115702, 55.953873]}, "properties": {"name": "The Beach House Highstreet", "kind": "TERRASSE", "placed": "house"}}, {"type": "Feature", "geometry": {"type": "Point", "coordinates": [-3.197165, 55.947417]}, "properties": {"name": "The Beehive Inn", "kind": "TERRASSE", "placed": "house"}}, {"type": "Feature", "geometry": {"type": "Point", "coordinates": [-3.205579, 55.946635]}, "properties": {"name": "THE BEVERLEY", "kind": "TERRASSE", "placed": "house"}}, {"type": "Feature", "geometry": {"type": "Point", "coordinates": [-3.194309, 55.934899]}, "properties": {"name": "The Birchwood Bistro & Wine", "kind": "TERRASSE", "placed": "house"}}, {"type": "Feature", "geometry": {"type": "Point", "coordinates": [-3.197458, 55.947295]}, "properties": {"name": "The Black Bull", "kind": "TERRASSE", "placed": "house"}}, {"type": "Feature", "geometry": {"type": "Point", "coordinates": [-3.204559, 55.951612]}, "properties": {"name": "The Black Rose Tavern", "kind": "TERRASSE", "placed": "house"}}, {"type": "Feature", "geometry": {"type": "Point", "coordinates": [-3.203842, 55.9537]}, "properties": {"name": "The Bonnie Barista Ltd", "kind": "TERRASSE", "placed": "house"}}, {"type": "Feature", "geometry": {"type": "Point", "coordinates": [-3.191398, 55.951739]}, "properties": {"name": "The Booking Office", "kind": "TERRASSE", "placed": "house"}}, {"type": "Feature", "geometry": {"type": "Point", "coordinates": [-3.194763, 55.948568]}, "properties": {"name": "The Castle Arms", "kind": "TERRASSE", "placed": "house"}}, {"type": "Feature", "geometry": {"type": "Point", "coordinates": [-3.193261, 55.949565]}, "properties": {"name": "The Castle Rock Cafe", "kind": "TERRASSE", "placed": "house"}}, {"type": "Feature", "geometry": {"type": "Point", "coordinates": [-3.188806, 55.949822]}, "properties": {"name": "The Clam Shell", "kind": "TERRASSE", "placed": "house"}}, {"type": "Feature", "geometry": {"type": "Point", "coordinates": [-3.220346, 55.943098]}, "properties": {"name": "The Clock Cafe", "kind": "TERRASSE", "placed": "house"}}, {"type": "Feature", "geometry": {"type": "Point", "coordinates": [-3.177965, 55.933222]}, "properties": {"name": "The Earl Grange Cafe", "kind": "TERRASSE", "placed": "house"}}, {"type": "Feature", "geometry": {"type": "Point", "coordinates": [-3.183685, 55.943589]}, "properties": {"name": "The Edinburgh Coffee Lounge", "kind": "TERRASSE", "placed": "postcode"}}, {"type": "Feature", "geometry": {"type": "Point", "coordinates": [-3.197819, 55.946916]}, "properties": {"name": "The Fiddler's Arms", "kind": "TERRASSE", "placed": "house"}}, {"type": "Feature", "geometry": {"type": "Point", "coordinates": [-3.18925, 55.950063]}, "properties": {"name": "The Filling Station", "kind": "TERRASSE", "placed": "house"}}, {"type": "Feature", "geometry": {"type": "Point", "coordinates": [-3.160836, 55.974568]}, "properties": {"name": "The Finch", "kind": "TERRASSE", "placed": "house"}}, {"type": "Feature", "geometry": {"type": "Point", "coordinates": [-3.189226, 55.946206]}, "properties": {"name": "The Gilded Saloon", "kind": "TERRASSE", "placed": "house"}}, {"type": "Feature", "geometry": {"type": "Point", "coordinates": [-3.205093, 55.951368]}, "properties": {"name": "The Ginger Coo Cafe", "kind": "TERRASSE", "placed": "house"}}, {"type": "Feature", "geometry": {"type": "Point", "coordinates": [-3.203564, 55.93987]}, "properties": {"name": "The Golf Tavern", "kind": "TERRASSE", "placed": "house"}}, {"type": "Feature", "geometry": {"type": "Point", "coordinates": [-3.190692, 55.945559]}, "properties": {"name": "THE GRUFF GOAT", "kind": "TERRASSE", "placed": "house"}}, {"type": "Feature", "geometry": {"type": "Point", "coordinates": [-3.20508, 55.945511]}, "properties": {"name": "The Hanging Bat", "kind": "TERRASSE", "placed": "house"}}, {"type": "Feature", "geometry": {"type": "Point", "coordinates": [-3.194996, 55.980607]}, "properties": {"name": "THE HARBOUR INN", "kind": "TERRASSE", "placed": "house"}}, {"type": "Feature", "geometry": {"type": "Point", "coordinates": [-3.192472, 55.953616]}, "properties": {"name": "The Ivy on The Square", "kind": "TERRASSE", "placed": "house"}}, {"type": "Feature", "geometry": {"type": "Point", "coordinates": [-3.181428, 55.96044]}, "properties": {"name": "The Joker and  the Thief", "kind": "TERRASSE", "placed": "postcode"}}, {"type": "Feature", "geometry": {"type": "Point", "coordinates": [-3.202266, 55.951844]}, "properties": {"name": "The Kenilworth Bar", "kind": "TERRASSE", "placed": "house"}}, {"type": "Feature", "geometry": {"type": "Point", "coordinates": [-3.182488, 55.940625]}, "properties": {"name": "The Lady & The Bear", "kind": "TERRASSE", "placed": "house"}}, {"type": "Feature", "geometry": {"type": "Point", "coordinates": [-3.195347, 55.947837]}, "properties": {"name": "THE LAST DROP", "kind": "TERRASSE", "placed": "house"}}, {"type": "Feature", "geometry": {"type": "Point", "coordinates": [-3.19089, 55.950705]}, "properties": {"name": "The Milkman", "kind": "TERRASSE", "placed": "house"}}, {"type": "Feature", "geometry": {"type": "Point", "coordinates": [-3.186411, 55.950544]}, "properties": {"name": "The Mitre", "kind": "TERRASSE", "placed": "postcode"}}, {"type": "Feature", "geometry": {"type": "Point", "coordinates": [-3.112545, 55.955681]}, "properties": {"name": "The Noble Leisure Company Limited", "kind": "TERRASSE", "placed": "house"}}, {"type": "Feature", "geometry": {"type": "Point", "coordinates": [-3.168099, 55.973515]}, "properties": {"name": "The Old Spence Cafe", "kind": "TERRASSE", "placed": "house"}}, {"type": "Feature", "geometry": {"type": "Point", "coordinates": [-3.187293, 55.958674]}, "properties": {"name": "The Olive Branch", "kind": "TERRASSE", "placed": "house"}}, {"type": "Feature", "geometry": {"type": "Point", "coordinates": [-3.191642, 55.947223]}, "properties": {"name": "The Oz bar", "kind": "TERRASSE", "placed": "postcode"}}, {"type": "Feature", "geometry": {"type": "Point", "coordinates": [-3.188092, 55.949777]}, "properties": {"name": "The Piper's Rest", "kind": "TERRASSE", "placed": "house"}}, {"type": "Feature", "geometry": {"type": "Point", "coordinates": [-3.175122, 55.966425]}, "properties": {"name": "The Remedy Cafe", "kind": "TERRASSE", "placed": "house"}}, {"type": "Feature", "geometry": {"type": "Point", "coordinates": [-3.186767, 55.950399]}, "properties": {"name": "The Royal Mile Tavern", "kind": "TERRASSE", "placed": "house"}}, {"type": "Feature", "geometry": {"type": "Point", "coordinates": [-3.197833, 55.956241]}, "properties": {"name": "The Royal Scots Club", "kind": "TERRASSE", "placed": "house"}}, {"type": "Feature", "geometry": {"type": "Point", "coordinates": [-3.203985, 55.95167]}, "properties": {"name": "The Shoogly Peg", "kind": "TERRASSE", "placed": "house"}}, {"type": "Feature", "geometry": {"type": "Point", "coordinates": [-3.168962, 55.977447]}, "properties": {"name": "The Shore Bar & Restaurant", "kind": "TERRASSE", "placed": "house"}}, {"type": "Feature", "geometry": {"type": "Point", "coordinates": [-3.204194, 55.952518]}, "properties": {"name": "The Slug And Lettuce", "kind": "TERRASSE", "placed": "house"}}, {"type": "Feature", "geometry": {"type": "Point", "coordinates": [-3.199423, 55.953023]}, "properties": {"name": "The Standing Order", "kind": "TERRASSE", "placed": "house"}}, {"type": "Feature", "geometry": {"type": "Point", "coordinates": [-3.187746, 55.956835]}, "properties": {"name": "The Street", "kind": "TERRASSE", "placed": "house"}}, {"type": "Feature", "geometry": {"type": "Point", "coordinates": [-3.287865, 55.943028]}, "properties": {"name": "The Village Cafe Corstorphine", "kind": "TERRASSE", "placed": "house"}}, {"type": "Feature", "geometry": {"type": "Point", "coordinates": [-3.174762, 55.967412]}, "properties": {"name": "The Volley", "kind": "TERRASSE", "placed": "house"}}, {"type": "Feature", "geometry": {"type": "Point", "coordinates": [-3.189435, 55.9507]}, "properties": {"name": "The wall coffee House", "kind": "TERRASSE", "placed": "house"}}, {"type": "Feature", "geometry": {"type": "Point", "coordinates": [-3.211465, 55.951307]}, "properties": {"name": "The West Room", "kind": "TERRASSE", "placed": "postcode"}}, {"type": "Feature", "geometry": {"type": "Point", "coordinates": [-3.196776, 55.947505]}, "properties": {"name": "The White Hart Inn", "kind": "TERRASSE", "placed": "house"}}, {"type": "Feature", "geometry": {"type": "Point", "coordinates": [-3.182321, 55.959793]}, "properties": {"name": "The Windsor", "kind": "TERRASSE", "placed": "postcode"}}, {"type": "Feature", "geometry": {"type": "Point", "coordinates": [-3.185492, 55.950328]}, "properties": {"name": "The World's End", "kind": "TERRASSE", "placed": "postcode"}}, {"type": "Feature", "geometry": {"type": "Point", "coordinates": [-3.212272, 55.946253]}, "properties": {"name": "Thomsons Bar", "kind": "TERRASSE", "placed": "house"}}, {"type": "Feature", "geometry": {"type": "Point", "coordinates": [-3.205222, 55.952399]}, "properties": {"name": "Tigerlily", "kind": "TERRASSE", "placed": "house"}}, {"type": "Feature", "geometry": {"type": "Point", "coordinates": [-3.192068, 55.953582]}, "properties": {"name": "Tiles Bistro Bar", "kind": "TERRASSE", "placed": "house"}}, {"type": "Feature", "geometry": {"type": "Point", "coordinates": [-3.194616, 55.938421]}, "properties": {"name": "Toast", "kind": "TERRASSE", "placed": "house"}}, {"type": "Feature", "geometry": {"type": "Point", "coordinates": [-3.174319, 55.967282]}, "properties": {"name": "Toast Leith Walk", "kind": "TERRASSE", "placed": "house"}}, {"type": "Feature", "geometry": {"type": "Point", "coordinates": [-3.202859, 55.951599]}, "properties": {"name": "Top Cut", "kind": "TERRASSE", "placed": "house"}}, {"type": "Feature", "geometry": {"type": "Point", "coordinates": [-3.182692, 55.959291]}, "properties": {"name": "Toranj Restaurant", "kind": "TERRASSE", "placed": "house"}}, {"type": "Feature", "geometry": {"type": "Point", "coordinates": [-3.190902, 55.945642]}, "properties": {"name": "Tortilla", "kind": "TERRASSE", "placed": "house"}}, {"type": "Feature", "geometry": {"type": "Point", "coordinates": [-3.209458, 55.935791]}, "properties": {"name": "Toscano", "kind": "TERRASSE", "placed": "house"}}, {"type": "Feature", "geometry": {"type": "Point", "coordinates": [-3.217605, 55.945248]}, "properties": {"name": "Troy Cafe", "kind": "TERRASSE", "placed": "house"}}, {"type": "Feature", "geometry": {"type": "Point", "coordinates": [-3.208734, 55.950097]}, "properties": {"name": "UMI Japanese Cuisine", "kind": "TERRASSE", "placed": "house"}}, {"type": "Feature", "geometry": {"type": "Point", "coordinates": [-3.190834, 55.945965]}, "properties": {"name": "Union Of Genius", "kind": "TERRASSE", "placed": "house"}}, {"type": "Feature", "geometry": {"type": "Point", "coordinates": [-3.198594, 55.952391]}, "properties": {"name": "Veeno", "kind": "TERRASSE", "placed": "house"}}, {"type": "Feature", "geometry": {"type": "Point", "coordinates": [-3.175638, 55.965786]}, "properties": {"name": "Victoria Bar", "kind": "TERRASSE", "placed": "house"}}, {"type": "Feature", "geometry": {"type": "Point", "coordinates": [-3.191859, 55.947778]}, "properties": {"name": "Vittoria On the Bridge", "kind": "TERRASSE", "placed": "house"}}, {"type": "Feature", "geometry": {"type": "Point", "coordinates": [-3.192646, 55.953516]}, "properties": {"name": "Wagamama", "kind": "TERRASSE", "placed": "house"}}, {"type": "Feature", "geometry": {"type": "Point", "coordinates": [-3.191958, 55.953575]}, "properties": {"name": "Wahaca", "kind": "TERRASSE", "placed": "house"}}, {"type": "Feature", "geometry": {"type": "Point", "coordinates": [-3.194296, 55.948566]}, "properties": {"name": "Whirlybird", "kind": "TERRASSE", "placed": "house"}}, {"type": "Feature", "geometry": {"type": "Point", "coordinates": [-3.186544, 55.950429]}, "properties": {"name": "Whiski", "kind": "TERRASSE", "placed": "house"}}, {"type": "Feature", "geometry": {"type": "Point", "coordinates": [-3.193392, 55.949906]}, "properties": {"name": "Whiski Rooms", "kind": "TERRASSE", "placed": "house"}}, {"type": "Feature", "geometry": {"type": "Point", "coordinates": [-3.2047, 55.951385]}, "properties": {"name": "Wildfire Restaurant & Grill", "kind": "TERRASSE", "placed": "house"}}, {"type": "Feature", "geometry": {"type": "Point", "coordinates": [-3.178654, 55.962519]}, "properties": {"name": "Word Of Mouth Cafe", "kind": "TERRASSE", "placed": "house"}}, {"type": "Feature", "geometry": {"type": "Point", "coordinates": [-3.184282, 55.9514]}, "properties": {"name": "Yaduvanshi Authentic Indian Restaurant", "kind": "TERRASSE", "placed": "house"}}]}